24015KAKO AKO20190101065013001/01/19 06:50:31  5-MIN KAKO 011350Z AUTO 00000KT 10SM CLR M19/M21 A3023 4440 87 1300 000/00 RMK AO2 SNE08 SLP335 P0000 T11891206                                          
24015KAKO AKO20190101065511101/01/19 06:55:31  5-MIN KAKO 011355Z AUTO 00000KT 10SM CLR M19/M21 A3023 4440 87 1300 000/00 RMK AO2 T11891206                                                             
24015KAKO AKO20190101070011101/01/19 07:00:31  5-MIN KAKO 011400Z AUTO 00000KT 10SM CLR M19/M21 A3023 4430 87 1200 000/00 RMK AO2 T11941211                                                             
24015KAKO AKO20190101075511101/01/19 07:55:31  5-MIN KAKO 011455Z AUTO 00000KT 10SM CLR M19/M21 A3021 4450 87 1300 000/00 RMK AO2 T11941211                                                             
24015KAKO AKO20190101080011101/01/19 08:00:31  5-MIN KAKO 011500Z AUTO 00000KT 10SM CLR M19/M21 A3022 4450 91 1300 000/00 RMK AO2 T11941206                                                             
24015KAKO AKO20190101080511801/01/19 08:05:31  5-MIN KAKO 011505Z AUTO 00000KT 10SM CLR M19/M21 A3023 4440 91 1300 000/00 RMK AO2 PRESRR T11941206                                                      
24015KAKO AKO20190101081011101/01/19 08:10:31  5-MIN KAKO 011510Z AUTO 00000KT 10SM CLR M18/M20 A3023 4430 87 1400 000/00 RMK AO2 T11831200                                                             
24015KAKO AKO20190101081511101/01/19 08:15:31  5-MIN KAKO 011515Z AUTO 00000KT 10SM CLR M18/M19 A3024 4430 91 1500 000/00 RMK AO2 T11781189                                                             
24015KAKO AKO20190101082011101/01/19 08:20:31  5-MIN KAKO 011520Z AUTO 00000KT 10SM CLR M17/M18 A3024 4420 91 1500 000/00 RMK AO2 T11721183                                                             
24015KAKO AKO20190101105511101/01/19 10:55:31  5-MIN KAKO 011755Z AUTO VRB05KT 10SM CLR M13/M18 A3017 4490 69 2100 VRB/05 RMK AO2 T11331178                                                             
24015KAKO AKO20190101110511101/01/19 11:05:31  5-MIN KAKO 011805Z AUTO VRB03KT 10SM CLR M13/M18 A3016 4500 69 2100 VRB/03 RMK AO2 T11331178                                                             
24015KAKO AKO20190101114011101/01/19 11:40:31  5-MIN KAKO 011840Z AUTO VRB05KT 10SM CLR M13/M17 A3015 4510 70 2200 VRB/05 RMK AO2 T11281172                                                             
24015KAKO AKO20190101123511101/01/19 12:35:31  5-MIN KAKO 011935Z AUTO VRB03KT 10SM CLR M12/M17 A3011 4540 70 2300 VRB/03 RMK AO2 T11221167                                                             
24015KAKO AKO20190101134511101/01/19 13:45:31  5-MIN KAKO 012045Z AUTO 00000KT 10SM CLR M11/M16 A3007 4580 67 2500 000/00 RMK AO2 T11111161                                                             
24015KAKO AKO20190101140011401/01/19 14:00:31  5-MIN KAKO 012100Z AUTO 00000KT 10SM FEW023 M11/M16 A3008 4570 67 2500 000/00 RMK AO2 T11111161                                                          
24015KAKO AKO20190101140511401/01/19 14:05:31  5-MIN KAKO 012105Z AUTO 00000KT 10SM FEW023 M11/M16 A3008 4570 64 2600 000/00 RMK AO2 T11061161                                                          
24015KAKO AKO20190101141011401/01/19 14:10:31  5-MIN KAKO 012110Z AUTO VRB03KT 10SM FEW023 M11/M16 A3008 4570 64 2600 VRB/03 RMK AO2 T11061161                                                          
24015KAKO AKO20190101145012101/01/19 14:50:31  5-MIN KAKO 012150Z AUTO VRB03KT 10SM FEW023 M11/M16 A3007 4590 64 2600 VRB/03 RMK AO2 SLP262 T11061161                                                   
24015KAKO AKO20190101171511101/01/19 17:15:31  5-MIN KAKO 020015Z AUTO VRB03KT 10SM CLR M14/M17 A3004 4600 80 2200 VRB/03 RMK AO2 T11391167                                                             
24015KAKO AKO20190101182011101/01/19 18:20:31  5-MIN KAKO 020120Z AUTO 00000KT 10SM CLR M16/M18 A3005 4600 83 2000 000/00 RMK AO2 T11561178                                                             
24015KAKO AKO20190101183511101/01/19 18:35:31  5-MIN KAKO 020135Z AUTO 00000KT 10SM CLR M16/M19 A3005 4600 79 1900 000/00 RMK AO2 T11611189                                                             
24015KAKO AKO20190104164011001/04/19 16:40:31  5-MIN KAKO 042340Z AUTO 00000KT 10SM CLR 08/M06 A2997 4670 35 5000 000/00 RMK AO2 T00831061                                                              
24015KAKO AKO20190104191011001/04/19 19:10:31  5-MIN KAKO 050210Z AUTO 00000KT 10SM CLR 07/M07 A2998 4660 35 4900 000/00 RMK AO2 T00721072                                                              
24015KAKO AKO20190105103011001/05/19 10:30:31  5-MIN KAKO 051730Z AUTO VRB04KT 10SM CLR 09/M05 A3002 4630 37 5000 VRB/04 RMK AO2 T00891050                                                              
24015KAKO AKO20190105103511001/05/19 10:35:31  5-MIN KAKO 051735Z AUTO VRB03KT 10SM CLR 09/M05 A3001 4630 35 5100 VRB/03 RMK AO2 T00941050                                                              
24015KAKO AKO20190105104511001/05/19 10:45:31  5-MIN KAKO 051745Z AUTO VRB03KT 10SM CLR 10/M05 A3001 4640 34 5200 VRB/03 RMK AO2 T01001050                                                              
24015KAKO AKO20190105105013501/05/19 10:50:31  5-MIN KAKO 051750Z AUTO VRB04KT 10SM CLR 10/M06 A3000 4640 33 5200 VRB/04 RMK AO2 SLP153 T01001056 10100 21017 53007                                     
24015KAKO AKO20190105214511001/05/19 21:45:31  5-MIN KAKO 060445Z AUTO 00000KT 10SM CLR 02/M04 A2992 4720 64 4300 000/00 RMK AO2 T00171044                                                              
24015KAKO AKO20190105225013501/05/19 22:50:31  5-MIN KAKO 060550Z AUTO 00000KT 10SM CLR 01/M04 A2988 4750 66 4300 000/00 RMK AO2 SLP118 T00111044 10072 20011 58004                                     
24015KAKO AKO20190105230511001/05/19 23:05:31  5-MIN KAKO 060605Z AUTO 00000KT 10SM CLR 01/M04 A2988 4760 69 4300 000/00 RMK AO2 T00111039                                                              
24015KAKO AKO20190105231011001/05/19 23:10:31  5-MIN KAKO 060610Z AUTO 00000KT 10SM CLR 01/M04 A2987 4760 69 4200 000/00 RMK AO2 T00061044                                                              
24015KAKO AKO20190105232011001/05/19 23:20:31  5-MIN KAKO 060620Z AUTO 00000KT 10SM CLR 00/M04 A2987 4770 72 4100 000/00 RMK AO2 T00001044                                                              
24015KAKO AKO20190105232511001/05/19 23:25:31  5-MIN KAKO 060625Z AUTO 00000KT 10SM CLR 01/M04 A2987 4760 69 4200 000/00 RMK AO2 T00061044                                                              
24015KAKO AKO20190105235012701/05/19 23:50:31  5-MIN KAKO 060650Z AUTO 00000KT 10SM CLR 01/M04 A2986 4780 69 4300 000/00 RMK AO2 SLP102 T00111039 401501017                                             
24015KAKO AKO20190105235511001/05/19 23:55:31  5-MIN KAKO 060655Z AUTO 00000KT 10SM CLR 01/M04 A2986 4780 69 4300 000/00 RMK AO2 T00111039                                                              
24015KAKO AKO20190106000511301/06/19 00:05:31  5-MIN KAKO 060705Z AUTO 00000KT 10SM FEW120 01/M04 A2985 4780 72 4200 000/00 RMK AO2 T00061039                                                           
24015KAKO AKO20190106001511301/06/19 00:15:31  5-MIN KAKO 060715Z AUTO 00000KT 10SM SCT120 01/M04 A2985 4790 72 4200 000/00 RMK AO2 T00061039                                                           
24015KAKO AKO20190106003511301/06/19 00:35:31  5-MIN KAKO 060735Z AUTO 00000KT 10SM SCT110 01/M04 A2984 4790 69 4300 000/00 RMK AO2 T00111039                                                           
24015KAKO AKO20190106005011701/06/19 00:50:31  5-MIN KAKO 060750Z AUTO 00000KT 10SM CLR 01/M04 A2983 4800 69 4300 000/00 RMK AO2 SLP091 T00111039                                                       
24015KAKO AKO20190106005511001/06/19 00:55:31  5-MIN KAKO 060755Z AUTO 00000KT 10SM CLR 01/M04 A2983 4800 69 4300 000/00 RMK AO2 T00111039                                                              
24015KAKO AKO20190106010011001/06/19 01:00:31  5-MIN KAKO 060800Z AUTO 00000KT 10SM CLR 01/M04 A2983 4810 72 4300 000/00 RMK AO2 T00061039                                                              
24015KAKO AKO20190106010511001/06/19 01:05:31  5-MIN KAKO 060805Z AUTO 00000KT 10SM CLR 01/M04 A2982 4810 72 4300 000/00 RMK AO2 T00061039                                                              
24015KAKO AKO20190106012011001/06/19 01:20:31  5-MIN KAKO 060820Z AUTO 00000KT 10SM CLR 01/M03 A2982 4810 75 4300 000/00 RMK AO2 T00061033                                                              
24015KAKO AKO20190106013511001/06/19 01:35:31  5-MIN KAKO 060835Z AUTO 00000KT 10SM CLR 01/M03 A2981 4820 75 4300 000/00 RMK AO2 T00061033                                                              
24015KAKO AKO20190106014511001/06/19 01:45:31  5-MIN KAKO 060845Z AUTO VRB03KT 10SM CLR 00/M03 A2982 4810 78 4200 VRB/03 RMK AO2 T00001033                                                              
24015KAKO AKO20190106022011301/06/19 02:20:31  5-MIN KAKO 060920Z AUTO 00000KT 10SM FEW120 00/M03 A2979 4840 78 4200 000/00 RMK AO2 T00001033                                                           
24015KAKO AKO20190106022511301/06/19 02:25:31  5-MIN KAKO 060925Z AUTO 00000KT 10SM FEW120 00/M03 A2978 4850 78 4200 000/00 RMK AO2 T00001033                                                           
24015KAKO AKO20190106023011301/06/19 02:30:31  5-MIN KAKO 060930Z AUTO 00000KT 10SM FEW120 00/M03 A2978 4850 78 4200 000/00 RMK AO2 T00001033                                                           
24015KAKO AKO20190106030011401/06/19 03:00:31  5-MIN KAKO 061000Z AUTO 00000KT 10SM SCT120 M01/M03 A2977 4860 81 4200 000/00 RMK AO2 T10061033                                                          
24015KAKO AKO20190106030511401/06/19 03:05:31  5-MIN KAKO 061005Z AUTO 00000KT 10SM BKN110 M01/M04 A2976 4860 81 4100 000/00 RMK AO2 T10111039                                                          
24015KAKO AKO20190106031511401/06/19 03:15:31  5-MIN KAKO 061015Z AUTO 00000KT 10SM SCT110 M02/M04 A2976 4870 81 4100 000/00 RMK AO2 T10171044                                                          
24015KAKO AKO20190106033511401/06/19 03:35:31  5-MIN KAKO 061035Z AUTO 00000KT 10SM FEW110 M02/M04 A2976 4870 85 4100 000/00 RMK AO2 T10171039                                                          
24015KAKO AKO20190106034011101/06/19 03:40:31  5-MIN KAKO 061040Z AUTO 00000KT 10SM CLR M03/M05 A2975 4880 88 3900 000/00 RMK AO2 T10331050                                                             
24015KAKO AKO20190106035011801/06/19 03:50:31  5-MIN KAKO 061050Z AUTO 00000KT 10SM CLR M03/M05 A2974 4890 88 3900 000/00 RMK AO2 SLP074 T10331050                                                      
24015KAKO AKO20190106040011101/06/19 04:00:31  5-MIN KAKO 061100Z AUTO 00000KT 10SM CLR M02/M04 A2975 4880 85 4000 000/00 RMK AO2 T10221044                                                             
24015KAKO AKO20190106042511101/06/19 04:25:31  5-MIN KAKO 061125Z AUTO 00000KT 10SM CLR M04/M05 A2974 4890 92 3800 000/00 RMK AO2 T10391050                                                             
24015KAKO AKO20190106052011101/06/19 05:20:31  5-MIN KAKO 061220Z AUTO 00000KT 10SM CLR M02/M03 A2971 4920 88 4100 000/00 RMK AO2 T10171033                                                             
24015KAKO AKO20190106054011101/06/19 05:40:31  5-MIN KAKO 061240Z AUTO 00000KT 10SM CLR M03/M04 A2970 4920 88 4000 000/00 RMK AO2 T10281044                                                             
24015KAKO AKO20190106054511101/06/19 05:45:31  5-MIN KAKO 061245Z AUTO 00000KT 10SM CLR M03/M04 A2971 4920 88 4000 000/00 RMK AO2 T10281044                                                             
24015KAKO AKO20190106055011801/06/19 05:50:31  5-MIN KAKO 061250Z AUTO 00000KT 10SM CLR M02/M04 A2971 4920 88 4100 000/00 RMK AO2 SLP070 T10221039                                                      
24015KAKO AKO20190106055511101/06/19 05:55:31  5-MIN KAKO 061255Z AUTO 00000KT 10SM CLR M03/M03 A2971 4920 96 4000 000/00 RMK AO2 T10281033                                                             
24015KAKO AKO20190106061011101/06/19 06:10:31  5-MIN KAKO 061310Z AUTO 00000KT 10SM CLR M02/M03 A2970 4930 92 4100 000/00 RMK AO2 T10221033                                                             
24015KAKO AKO20190106061511101/06/19 06:15:31  5-MIN KAKO 061315Z AUTO 00000KT 10SM CLR M04/M05 A2970 4920 92 3900 000/00 RMK AO2 T10391050                                                             
24015KAKO AKO20190106062011101/06/19 06:20:31  5-MIN KAKO 061320Z AUTO 00000KT 10SM CLR M02/M03 A2970 4920 88 4100 000/00 RMK AO2 T10171033                                                             
24015KAKO AKO20190106062511101/06/19 06:25:31  5-MIN KAKO 061325Z AUTO 00000KT 10SM CLR M02/M04 A2970 4930 88 4100 000/00 RMK AO2 T10221039                                                             
24015KAKO AKO20190106063011101/06/19 06:30:31  5-MIN KAKO 061330Z AUTO 00000KT 10SM CLR M03/M04 A2969 4930 92 4000 000/00 RMK AO2 T10281039                                                             
24015KAKO AKO20190106063511101/06/19 06:35:31  5-MIN KAKO 061335Z AUTO 00000KT 10SM CLR M01/M03 A2969 4930 88 4200 000/00 RMK AO2 T10111028                                                             
24015KAKO AKO20190106064011101/06/19 06:40:31  5-MIN KAKO 061340Z AUTO 00000KT 10SM CLR M01/M03 A2968 4940 85 4300 000/00 RMK AO2 T10061028                                                             
24015KAKO AKO20190106064511101/06/19 06:45:31  5-MIN KAKO 061345Z AUTO 00000KT 10SM CLR M03/M04 A2969 4930 92 3900 000/00 RMK AO2 T10331044                                                             
24015KAKO AKO20190106065011801/06/19 06:50:31  5-MIN KAKO 061350Z AUTO 00000KT 10SM CLR M02/M04 A2969 4940 88 4100 000/00 RMK AO2 SLP064 T10221039                                                      
24015KAKO AKO20190106071511101/06/19 07:15:31  5-MIN KAKO 061415Z AUTO 00000KT 10SM CLR M02/M04 A2967 4960 88 4100 000/00 RMK AO2 T10221039                                                             
24015KAKO AKO20190106072011101/06/19 07:20:31  5-MIN KAKO 061420Z AUTO 00000KT 10SM CLR M03/M04 A2966 4960 92 4000 000/00 RMK AO2 T10281039                                                             
24015KAKO AKO20190106072511101/06/19 07:25:31  5-MIN KAKO 061425Z AUTO 00000KT 10SM CLR M04/M05 A2966 4960 92 3900 000/00 RMK AO2 T10391050                                                             
24015KAKO AKO20190106104011001/06/19 10:40:31  5-MIN KAKO 061740Z AUTO VRB04KT 10SM CLR 05/M03 A2965 4970 57 5000 VRB/04 RMK AO2 T00501028                                                              
24015KAKO AKO20190106154511001/06/19 15:45:31  5-MIN KAKO 062245Z AUTO 00000KT 10SM CLR 11/M04 A2957 5040 36 5700 000/00 RMK AO2 T01061039                                                              
24015KAKO AKO20190106160511001/06/19 16:05:31  5-MIN KAKO 062305Z AUTO 00000KT 10SM CLR 10/M04 A2956 5050 36 5700 000/00 RMK AO2 T01001044                                                              
24015KAKO AKO20190106161511001/06/19 16:15:31  5-MIN KAKO 062315Z AUTO 00000KT 10SM CLR 10/M04 A2956 5060 36 5700 000/00 RMK AO2 T01001044                                                              
24015KAKO AKO20190106164511001/06/19 16:45:31  5-MIN KAKO 062345Z AUTO 00000KT 10SM CLR 09/M04 A2956 5050 38 5500 000/00 RMK AO2 T00891044                                                              
24015KAKO AKO20190106165013501/06/19 16:50:31  5-MIN KAKO 062350Z AUTO 00000KT 10SM CLR 08/M04 A2956 5050 40 5500 000/00 RMK AO2 SLP016 T00831044 10117 20056 56021                                     
24015KAKO AKO20190106174511001/06/19 17:45:31  5-MIN KAKO 070045Z AUTO 00000KT 10SM CLR 07/M04 A2958 5040 45 5300 000/00 RMK AO2 T00671044                                                              
24015KAKO AKO20190106194011301/06/19 19:40:31  5-MIN KAKO 070240Z AUTO 00000KT 10SM BKN090 04/M06 A2961 5010 50 4900 000/00 RMK AO2 T00391056                                                           
24015KAKO AKO20190108081511101/08/19 08:15:31  5-MIN KAKO 081515Z AUTO 00000KT 10SM CLR M01/M14 A3034 4330 36 3500 000/00 RMK AO2 T10111144                                                             
24015KAKO AKO20190108082011101/08/19 08:20:31  5-MIN KAKO 081520Z AUTO 00000KT 10SM CLR M01/M14 A3034 4330 34 3500 000/00 RMK AO2 T10061144                                                             
24015KAKO AKO20190108082511101/08/19 08:25:31  5-MIN KAKO 081525Z AUTO 00000KT 10SM CLR M01/M14 A3034 4330 34 3500 000/00 RMK AO2 T10061144                                                             
24015KAKO AKO20190108121511001/08/19 12:15:31  5-MIN KAKO 081915Z AUTO VRB05KT 10SM CLR 04/M13 A3037 4310 26 4100 VRB/05 RMK AO2 T00441133                                                              
24015KAKO AKO20190108122511001/08/19 12:25:31  5-MIN KAKO 081925Z AUTO VRB03KT 10SM CLR 04/M13 A3037 4310 27 4100 VRB/03 RMK AO2 T00441128                                                              
24015KAKO AKO20190108124011001/08/19 12:40:31  5-MIN KAKO 081940Z AUTO VRB04KT 10SM CLR 04/M13 A3037 4310 27 4100 VRB/04 RMK AO2 T00441128                                                              
24015KAKO AKO20190108124511001/08/19 12:45:31  5-MIN KAKO 081945Z AUTO 00000KT 10SM CLR 05/M13 A3037 4310 26 4200 000/00 RMK AO2 T00501128                                                              
24015KAKO AKO20190108125011701/08/19 12:50:31  5-MIN KAKO 081950Z AUTO 00000KT 10SM CLR 05/M13 A3037 4310 26 4200 000/00 RMK AO2 SLP301 T00501128                                                       
24015KAKO AKO20190108125511001/08/19 12:55:31  5-MIN KAKO 081955Z AUTO 00000KT 10SM CLR 05/M12 A3037 4300 27 4200 000/00 RMK AO2 T00501122                                                              
24015KAKO AKO20190108130011001/08/19 13:00:31  5-MIN KAKO 082000Z AUTO VRB03KT 10SM CLR 05/M13 A3037 4300 26 4200 VRB/03 RMK AO2 T00501128                                                              
24015KAKO AKO20190108130511001/08/19 13:05:31  5-MIN KAKO 082005Z AUTO VRB04KT 10SM CLR 05/M13 A3037 4300 26 4200 VRB/04 RMK AO2 T00501128                                                              
24015KAKO AKO20190108131511001/08/19 13:15:31  5-MIN KAKO 082015Z AUTO 00000KT 10SM CLR 05/M13 A3037 4300 26 4200 000/00 RMK AO2 T00501128                                                              
24015KAKO AKO20190108132011001/08/19 13:20:31  5-MIN KAKO 082020Z AUTO 00000KT 10SM CLR 06/M13 A3037 4300 25 4200 000/00 RMK AO2 T00561128                                                              
24015KAKO AKO20190108133011001/08/19 13:30:31  5-MIN KAKO 082030Z AUTO 00000KT 10SM CLR 05/M13 A3038 4300 26 4200 000/00 RMK AO2 T00501128                                                              
24015KAKO AKO20190108134011001/08/19 13:40:31  5-MIN KAKO 082040Z AUTO 00000KT 10SM CLR 06/M13 A3038 4300 25 4200 000/00 RMK AO2 T00561128                                                              
24015KAKO AKO20190108134511001/08/19 13:45:31  5-MIN KAKO 082045Z AUTO VRB03KT 10SM CLR 06/M13 A3038 4300 25 4200 VRB/03 RMK AO2 T00561128                                                              
24015KAKO AKO20190108140511001/08/19 14:05:31  5-MIN KAKO 082105Z AUTO VRB06KT 10SM CLR 06/M13 A3038 4300 25 4200 VRB/06 RMK AO2 T00561128                                                              
24015KAKO AKO20190110105013501/10/19 10:50:31  5-MIN KAKO 101750Z AUTO VRB04KT 10SM CLR 11/M06 A3008 4580 30 5200 VRB/04 RMK AO2 SLP184 T01061061 10106 21017 53003                                     
24015KAKO AKO20190110105511001/10/19 10:55:31  5-MIN KAKO 101755Z AUTO 00000KT 10SM CLR 11/M06 A3007 4580 29 5200 000/00 RMK AO2 T01111061                                                              
24015KAKO AKO20190110110511001/10/19 11:05:31  5-MIN KAKO 101805Z AUTO 00000KT 10SM CLR 12/M06 A3007 4590 28 5300 000/00 RMK AO2 T01171061                                                              
24015KAKO AKO20190110111011001/10/19 11:10:31  5-MIN KAKO 101810Z AUTO 00000KT 10SM CLR 12/M06 A3006 4590 27 5400 000/00 RMK AO2 T01221061                                                              
24015KAKO AKO20190110111511001/10/19 11:15:31  5-MIN KAKO 101815Z AUTO 00000KT 10SM CLR 12/M06 A3006 4590 27 5400 000/00 RMK AO2 T01221061                                                              
24015KAKO AKO20190110112011001/10/19 11:20:31  5-MIN KAKO 101820Z AUTO 00000KT 10SM CLR 12/M06 A3006 4590 27 5400 000/00 RMK AO2 T01221061                                                              
24015KAKO AKO20190110112511001/10/19 11:25:31  5-MIN KAKO 101825Z AUTO 00000KT 10SM CLR 12/M06 A3005 4600 27 5400 000/00 RMK AO2 T01221061                                                              
24015KAKO AKO20190110113011001/10/19 11:30:31  5-MIN KAKO 101830Z AUTO VRB04KT 10SM CLR 13/M06 A3005 4600 27 5400 VRB/04 RMK AO2 T01281056                                                              
24015KAKO AKO20190110114011001/10/19 11:40:31  5-MIN KAKO 101840Z AUTO 00000KT 10SM CLR 12/M06 A3004 4610 28 5400 000/00 RMK AO2 T01221056                                                              
24015KAKO AKO20190110114511001/10/19 11:45:31  5-MIN KAKO 101845Z AUTO 00000KT 10SM CLR 13/M06 A3004 4610 27 5500 000/00 RMK AO2 T01281056                                                              
24015KAKO AKO20190110115011701/10/19 11:50:31  5-MIN KAKO 101850Z AUTO 00000KT 10SM CLR 13/M06 A3004 4610 27 5500 000/00 RMK AO2 SLP165 T01281056                                                       
24015KAKO AKO20190110115511001/10/19 11:55:31  5-MIN KAKO 101855Z AUTO 00000KT 10SM CLR 13/M06 A3003 4620 26 5500 000/00 RMK AO2 T01331056                                                              
24015KAKO AKO20190110120011001/10/19 12:00:31  5-MIN KAKO 101900Z AUTO 00000KT 10SM CLR 14/M06 A3003 4620 25 5600 000/00 RMK AO2 T01391056                                                              
24015KAKO AKO20190110120511001/10/19 12:05:31  5-MIN KAKO 101905Z AUTO 00000KT 10SM CLR 14/M06 A3003 4620 25 5600 000/00 RMK AO2 T01391056                                                              
24015KAKO AKO20190110121011001/10/19 12:10:31  5-MIN KAKO 101910Z AUTO 00000KT 10SM CLR 14/M06 A3003 4620 25 5600 000/00 RMK AO2 T01391056                                                              
24015KAKO AKO20190110121511001/10/19 12:15:31  5-MIN KAKO 101915Z AUTO 00000KT 10SM CLR 13/M06 A3002 4620 26 5500 000/00 RMK AO2 T01331056                                                              
24015KAKO AKO20190110122011001/10/19 12:20:31  5-MIN KAKO 101920Z AUTO 00000KT 10SM CLR 14/M06 A3002 4630 25 5600 000/00 RMK AO2 T01391056                                                              
24015KAKO AKO20190110123511001/10/19 12:35:31  5-MIN KAKO 101935Z AUTO 00000KT 10SM CLR 14/M06 A3001 4630 24 5600 000/00 RMK AO2 T01391061                                                              
24015KAKO AKO20190110124011001/10/19 12:40:31  5-MIN KAKO 101940Z AUTO 00000KT 10SM CLR 14/M06 A3001 4640 24 5600 000/00 RMK AO2 T01391061                                                              
24015KAKO AKO20190110130011001/10/19 13:00:31  5-MIN KAKO 102000Z AUTO VRB03KT 10SM CLR 15/M06 A3001 4640 22 5700 VRB/03 RMK AO2 T01501061                                                              
24015KAKO AKO20190110130511001/10/19 13:05:31  5-MIN KAKO 102005Z AUTO VRB03KT 10SM CLR 15/M06 A3000 4640 22 5700 VRB/03 RMK AO2 T01501061                                                              
24015KAKO AKO20190110131511001/10/19 13:15:31  5-MIN KAKO 102015Z AUTO VRB04KT 10SM CLR 15/M06 A3000 4640 22 5700 VRB/04 RMK AO2 T01501061                                                              
24015KAKO AKO20190112112512601/12/19 11:25:31  5-MIN KAKO 121825Z AUTO VRB05KT 10SM FEW009 BKN018 OVC023 02/00 A3020 4460 85 4000 VRB/05 RMK AO2 T00220000                                              
24015KAKO AKO20190112173511001/12/19 17:35:31  5-MIN KAKO 130035Z AUTO 00000KT 10SM CLR 01/M03 A3019 4470 78 3800 000/00 RMK AO2 T00061028                                                              
24015KAKO AKO20190112174011001/12/19 17:40:31  5-MIN KAKO 130040Z AUTO 00000KT 10SM CLR 01/M03 A3019 4470 78 3800 000/00 RMK AO2 T00061028                                                              
24015KAKO AKO20190112184511101/12/19 18:45:31  5-MIN KAKO 130145Z AUTO VRB03KT 10SM CLR M02/M03 A3020 4460 88 3600 VRB/03 RMK AO2 T10171033                                                             
24015KAKO AKO20190112185511101/12/19 18:55:31  5-MIN KAKO 130155Z AUTO 00000KT 10SM CLR M02/M03 A3020 4460 88 3500 000/00 RMK AO2 T10171033                                                             
24015KAKO AKO20190112190011101/12/19 19:00:31  5-MIN KAKO 130200Z AUTO VRB05KT 10SM CLR M01/M03 A3021 4460 85 3700 VRB/05 RMK AO2 T10061028                                                             
24015KAKO AKO20190112191511001/12/19 19:15:31  5-MIN KAKO 130215Z AUTO VRB03KT 10SM CLR 01/M02 A3021 4460 82 3800 VRB/03 RMK AO2 T00061022                                                              
24015KAKO AKO20190112192011001/12/19 19:20:31  5-MIN KAKO 130220Z AUTO 00000KT 10SM CLR 00/M02 A3020 4460 85 3800 000/00 RMK AO2 T00001022                                                              
24015KAKO AKO20190112193011101/12/19 19:30:31  5-MIN KAKO 130230Z AUTO 00000KT 10SM CLR M01/M03 A3021 4460 85 3700 000/00 RMK AO2 T10061028                                                             
24015KAKO AKO20190112193511101/12/19 19:35:31  5-MIN KAKO 130235Z AUTO 00000KT 10SM CLR M01/M03 A3021 4460 85 3700 000/00 RMK AO2 T10061028                                                             
24015KAKO AKO20190112194011101/12/19 19:40:31  5-MIN KAKO 130240Z AUTO 00000KT 10SM CLR M01/M03 A3021 4460 85 3600 000/00 RMK AO2 T10111033                                                             
24015KAKO AKO20190112203011101/12/19 20:30:31  5-MIN KAKO 130330Z AUTO 00000KT 10SM CLR M02/M04 A3022 4440 88 3500 000/00 RMK AO2 T10221039                                                             
24015KAKO AKO20190112203511101/12/19 20:35:31  5-MIN KAKO 130335Z AUTO 00000KT 10SM CLR M03/M04 A3022 4440 88 3400 000/00 RMK AO2 T10281044                                                             
24015KAKO AKO20190112215011801/12/19 21:50:31  5-MIN KAKO 130450Z AUTO 00000KT 10SM CLR M04/M04 A3023 4430 96 3200 000/00 RMK AO2 SLP269 T10391044                                                      
24015KAKO AKO20190112215511101/12/19 21:55:31  5-MIN KAKO 130455Z AUTO 00000KT 10SM CLR M04/M04 A3023 4430 96 3200 000/00 RMK AO2 T10391044                                                             
24015KAKO AKO20190112220011201/12/19 22:00:31  5-MIN KAKO 130500Z AUTO 00000KT 10SM CLR M04/M04 A3023 4430 100 3200 000/00 RMK AO2 T10441044                                                            
24015KAKO AKO20190113093511001/13/19 09:35:31  5-MIN KAKO 131635Z AUTO 00000KT 10SM CLR 01/M02 A3027 4400 85 3700 000/00 RMK AO2 T00061017                                                              
24015KAKO AKO20190115134011001/15/19 13:40:31  5-MIN KAKO 152040Z AUTO VRB03KT 10SM CLR 09/M11 A3005 4600 23 5000 VRB/03 RMK AO2 T00891111                                                              
24015KAKO AKO20190115140511001/15/19 14:05:31  5-MIN KAKO 152105Z AUTO VRB03KT 10SM CLR 10/M12 A3005 4600 20 5100 VRB/03 RMK AO2 T01001117                                                              
24015KAKO AKO20190115141011001/15/19 14:10:31  5-MIN KAKO 152110Z AUTO VRB03KT 10SM CLR 10/M11 A3005 4600 21 5100 VRB/03 RMK AO2 T01001111                                                              
24015KAKO AKO20190115144511001/15/19 14:45:31  5-MIN KAKO 152145Z AUTO VRB05KT 10SM CLR 11/M11 A3005 4600 21 5200 VRB/05 RMK AO2 T01061106                                                              
24015KAKO AKO20190115170011001/15/19 17:00:31  5-MIN KAKO 160000Z AUTO 00000KT 10SM CLR 06/M10 A3006 4590 30 4600 000/00 RMK AO2 T00611100                                                              
24015KAKO AKO20190115171011001/15/19 17:10:31  5-MIN KAKO 160010Z AUTO 00000KT 10SM CLR 06/M09 A3007 4580 32 4600 000/00 RMK AO2 T00611094                                                              
24015KAKO AKO20190115171511001/15/19 17:15:31  5-MIN KAKO 160015Z AUTO 00000KT 10SM CLR 05/M09 A3007 4580 34 4500 000/00 RMK AO2 T00501094                                                              
24015KAKO AKO20190115172011001/15/19 17:20:31  5-MIN KAKO 160020Z AUTO 00000KT 10SM CLR 05/M10 A3007 4580 33 4500 000/00 RMK AO2 T00501100                                                              
24015KAKO AKO20190115172511001/15/19 17:25:31  5-MIN KAKO 160025Z AUTO 00000KT 10SM CLR 06/M10 A3007 4580 32 4600 000/00 RMK AO2 T00561100                                                              
24015KAKO AKO20190115173011001/15/19 17:30:31  5-MIN KAKO 160030Z AUTO 00000KT 10SM CLR 05/M10 A3008 4580 33 4500 000/00 RMK AO2 T00501100                                                              
24015KAKO AKO20190115173511001/15/19 17:35:31  5-MIN KAKO 160035Z AUTO 00000KT 10SM CLR 06/M10 A3008 4570 32 4600 000/00 RMK AO2 T00561100                                                              
24015KAKO AKO20190115174011001/15/19 17:40:31  5-MIN KAKO 160040Z AUTO 00000KT 10SM CLR 06/M10 A3008 4570 30 4600 000/00 RMK AO2 T00611100                                                              
24015KAKO AKO20190115174511001/15/19 17:45:31  5-MIN KAKO 160045Z AUTO 00000KT 10SM CLR 06/M10 A3008 4570 30 4600 000/00 RMK AO2 T00611100                                                              
24015KAKO AKO20190115175011701/15/19 17:50:31  5-MIN KAKO 160050Z AUTO 00000KT 10SM CLR 06/M10 A3008 4570 30 4600 000/00 RMK AO2 SLP206 T00611100                                                       
24015KAKO AKO20190115175511001/15/19 17:55:31  5-MIN KAKO 160055Z AUTO 00000KT 10SM CLR 06/M10 A3008 4570 32 4600 000/00 RMK AO2 T00561100                                                              
24015KAKO AKO20190115180011001/15/19 18:00:31  5-MIN KAKO 160100Z AUTO 00000KT 10SM CLR 05/M10 A3008 4570 33 4500 000/00 RMK AO2 T00501100                                                              
24015KAKO AKO20190115180511001/15/19 18:05:31  5-MIN KAKO 160105Z AUTO 00000KT 10SM CLR 05/M10 A3008 4570 33 4500 000/00 RMK AO2 T00501100                                                              
24015KAKO AKO20190115181011001/15/19 18:10:31  5-MIN KAKO 160110Z AUTO 00000KT 10SM CLR 04/M10 A3008 4570 34 4400 000/00 RMK AO2 T00441100                                                              
24015KAKO AKO20190115181511001/15/19 18:15:31  5-MIN KAKO 160115Z AUTO 00000KT 10SM CLR 04/M10 A3008 4570 34 4400 000/00 RMK AO2 T00441100                                                              
24015KAKO AKO20190115182011001/15/19 18:20:31  5-MIN KAKO 160120Z AUTO 00000KT 10SM CLR 04/M10 A3009 4570 35 4400 000/00 RMK AO2 T00391100                                                              
24015KAKO AKO20190115182511001/15/19 18:25:31  5-MIN KAKO 160125Z AUTO 00000KT 10SM CLR 04/M10 A3008 4570 34 4400 000/00 RMK AO2 T00441100                                                              
24015KAKO AKO20190115183011001/15/19 18:30:31  5-MIN KAKO 160130Z AUTO 00000KT 10SM CLR 04/M10 A3008 4570 34 4400 000/00 RMK AO2 T00441100                                                              
24015KAKO AKO20190115183511001/15/19 18:35:31  5-MIN KAKO 160135Z AUTO 00000KT 10SM CLR 05/M09 A3008 4570 34 4500 000/00 RMK AO2 T00501094                                                              
24015KAKO AKO20190115184011001/15/19 18:40:31  5-MIN KAKO 160140Z AUTO 00000KT 10SM CLR 06/M09 A3008 4570 33 4600 000/00 RMK AO2 T00561094                                                              
24015KAKO AKO20190115184511001/15/19 18:45:31  5-MIN KAKO 160145Z AUTO 00000KT 10SM CLR 06/M09 A3009 4570 33 4600 000/00 RMK AO2 T00561094                                                              
24015KAKO AKO20190115185011701/15/19 18:50:31  5-MIN KAKO 160150Z AUTO 00000KT 10SM CLR 06/M09 A3009 4570 33 4600 000/00 RMK AO2 SLP210 T00561094                                                       
24015KAKO AKO20190115185511001/15/19 18:55:31  5-MIN KAKO 160155Z AUTO 00000KT 10SM CLR 05/M09 A3009 4570 34 4500 000/00 RMK AO2 T00501094                                                              
24015KAKO AKO20190115190011001/15/19 19:00:31  5-MIN KAKO 160200Z AUTO 00000KT 10SM CLR 04/M09 A3008 4570 36 4400 000/00 RMK AO2 T00441094                                                              
24015KAKO AKO20190116133011301/16/19 13:30:31  5-MIN KAKO 162030Z AUTO VRB06KT 10SM SCT095 08/M01 A2988 4750 53 5000 VRB/06 RMK AO2 T00781011                                                           
24015KAKO AKO20190118043011101/18/19 04:30:31  5-MIN KAKO 181130Z AUTO 00000KT 10SM CLR M03/M05 A2966 4960 85 4000 000/00 RMK AO2 T10281050                                                             
24015KAKO AKO20190118043511101/18/19 04:35:31  5-MIN KAKO 181135Z AUTO 00000KT 10SM CLR M03/M05 A2967 4960 85 4000 000/00 RMK AO2 T10281050                                                             
24015KAKO AKO20190118193011101/18/19 19:30:31  5-MIN KAKO 190230Z AUTO 00000KT 10SM CLR M07/M08 A3007 4580 92 3100 000/00 RMK AO2 T10671078                                                             
24015KAKO AKO20190118193511701/18/19 19:35:31  5-MIN KAKO 190235Z AUTO 00000KT 10SM CLR M07/M08 A3007 4580 92 3100 000/00 RMK AO2 I1000 T10671078                                                       
24015KAKO AKO20190118200012001/18/19 20:00:31  5-MIN KAKO 190300Z AUTO 00000KT 9SM BKN004 BKN022 M07/M07 A3009 4570 96 3100 000/00 RMK AO2 T10671072                                                    
24015KAKO AKO20190118200511301/18/19 20:05:31  5-MIN KAKO 190305Z AUTO 00000KT 9SM BKN004 M07/M07 A3009 4570 96 3100 000/00 RMK AO2 T10671072                                                           
24015KAKO AKO20190118204012001/18/19 20:40:31  5-MIN KAKO 190340Z AUTO 00000KT 8SM OVC003 M07/M07 A3010 4550 100 3000 000/00 RMK AO2 I1000 T10671067                                                    
24015KAKO AKO20190118212012101/18/19 21:20:31  5-MIN KAKO 190420Z AUTO 00000KT 1/2SM FZFG OVC003 M07/M07 A3011 4540 100 3000 000/00 RMK AO2 T10671067                                                   
24015KAKO AKO20190118212512501/18/19 21:25:31  5-MIN KAKO 190425Z AUTO 00000KT 1/4SM FZFG VV002 M07/M07 A3012 4540 96 3000 000/00 RMK AO2 I1000 T10671072                                               
24015KAKO AKO20190118213012501/18/19 21:30:31  5-MIN KAKO 190430Z AUTO 00000KT 1/4SM FZFG VV002 M07/M07 A3012 4540 96 3000 000/00 RMK AO2 I1000 T10671072                                               
24015KAKO AKO20190118213512501/18/19 21:35:31  5-MIN KAKO 190435Z AUTO 00000KT 1/4SM FZFG VV002 M07/M07 A3012 4530 96 3000 000/00 RMK AO2 I1000 T10671072                                               
24015KAKO AKO20190118214012501/18/19 21:40:31  5-MIN KAKO 190440Z AUTO 00000KT 1/4SM FZFG VV001 M07/M07 A3012 4530 96 3000 000/00 RMK AO2 I1000 T10671072                                               
24015KAKO AKO20190118214512501/18/19 21:45:31  5-MIN KAKO 190445Z AUTO 00000KT 1/4SM FZFG VV001 M07/M07 A3012 4530 96 3000 000/00 RMK AO2 I1001 T10671072                                               
24015KAKO AKO20190118215013201/18/19 21:50:31  5-MIN KAKO 190450Z AUTO 00000KT 1/4SM FZFG VV001 M07/M08 A3012 4530 96 3000 000/00 RMK AO2 SLP238 I1001 T10721078                                        
24015KAKO AKO20190118215511901/18/19 21:55:31  5-MIN KAKO 190455Z AUTO 00000KT 1/4SM FZFG VV001 M07/M08 A3013 4530 96 2900 000/00 RMK AO2 T10721078                                                     
24015KAKO AKO20190118220011901/18/19 22:00:31  5-MIN KAKO 190500Z AUTO 00000KT 1/4SM FZFG VV001 M07/M08 A3013 4530 96 2900 000/00 RMK AO2 T10721078                                                     
24015KAKO AKO20190118220511901/18/19 22:05:31  5-MIN KAKO 190505Z AUTO 00000KT 1/4SM FZFG VV001 M07/M08 A3013 4530 96 3000 000/00 RMK AO2 T10721078                                                     
24015KAKO AKO20190118221011901/18/19 22:10:31  5-MIN KAKO 190510Z AUTO 00000KT 1/4SM FZFG VV001 M07/M08 A3013 4530 96 2900 000/00 RMK AO2 T10721078                                                     
24015KAKO AKO20190118221511901/18/19 22:15:31  5-MIN KAKO 190515Z AUTO 00000KT 1/4SM FZFG VV001 M07/M08 A3013 4530 96 2900 000/00 RMK AO2 T10721078                                                     
24015KAKO AKO20190118222011901/18/19 22:20:31  5-MIN KAKO 190520Z AUTO 00000KT 1/4SM FZFG VV001 M07/M08 A3013 4520 96 2900 000/00 RMK AO2 T10721078                                                     
24015KAKO AKO20190118222511901/18/19 22:25:31  5-MIN KAKO 190525Z AUTO 00000KT 1/4SM FZFG VV001 M07/M08 A3014 4520 96 2900 000/00 RMK AO2 T10721078                                                     
24015KAKO AKO20190118223512501/18/19 22:35:31  5-MIN KAKO 190535Z AUTO 00000KT 1/4SM FZFG VV001 M08/M09 A3014 4520 96 2800 000/00 RMK AO2 I1000 T10831089                                               
24015KAKO AKO20190118231012101/18/19 23:10:31  5-MIN KAKO 190610Z AUTO 00000KT 10SM FEW050 OVC070 M07/M09 A3014 4520 88 2900 000/00 RMK AO2 T10721089                                                   
24015KAKO AKO20190118231511401/18/19 23:15:31  5-MIN KAKO 190615Z AUTO 00000KT 10SM OVC070 M07/M08 A3014 4510 92 2900 000/00 RMK AO2 T10721083                                                          
24015KAKO AKO20190118232011401/18/19 23:20:31  5-MIN KAKO 190620Z AUTO 00000KT 10SM OVC075 M07/M08 A3014 4510 92 3000 000/00 RMK AO2 T10671078                                                          
24015KAKO AKO20190118232511401/18/19 23:25:31  5-MIN KAKO 190625Z AUTO VRB03KT 10SM OVC075 M07/M08 A3014 4510 92 3000 VRB/03 RMK AO2 T10671078                                                          
24015KAKO AKO20190119103011001/19/19 10:30:31  5-MIN KAKO 191730Z AUTO VRB05KT 10SM CLR 01/M05 A3020 4460 66 3800 VRB/05 RMK AO2 T00061050                                                              
24015KAKO AKO20190119113011001/19/19 11:30:31  5-MIN KAKO 191830Z AUTO VRB04KT 10SM CLR 02/M06 A3018 4480 56 4100 VRB/04 RMK AO2 T00221056                                                              
24015KAKO AKO20190119115011701/19/19 11:50:31  5-MIN KAKO 191850Z AUTO VRB05KT 10SM CLR 03/M06 A3017 4490 52 4100 VRB/05 RMK AO2 SLP244 T00281061                                                       
24015KAKO AKO20190119122511001/19/19 12:25:31  5-MIN KAKO 191925Z AUTO VRB06KT 10SM CLR 04/M06 A3014 4520 46 4400 VRB/06 RMK AO2 T00441061                                                              
24015KAKO AKO20190119123511001/19/19 12:35:31  5-MIN KAKO 191935Z AUTO VRB04KT 10SM CLR 04/M06 A3013 4520 46 4400 VRB/04 RMK AO2 T00441061                                                              
24015KAKO AKO20190119124511001/19/19 12:45:31  5-MIN KAKO 191945Z AUTO VRB04KT 10SM CLR 04/M06 A3013 4530 46 4400 VRB/04 RMK AO2 T00441061                                                              
24015KAKO AKO20190119132511001/19/19 13:25:31  5-MIN KAKO 192025Z AUTO 00000KT 10SM CLR 06/M07 A3012 4540 39 4500 000/00 RMK AO2 T00561072                                                              
24015KAKO AKO20190119133511001/19/19 13:35:31  5-MIN KAKO 192035Z AUTO 00000KT 10SM CLR 06/M07 A3011 4540 39 4500 000/00 RMK AO2 T00561072                                                              
24015KAKO AKO20190119134011001/19/19 13:40:31  5-MIN KAKO 192040Z AUTO VRB05KT 10SM CLR 06/M08 A3012 4540 37 4500 VRB/05 RMK AO2 T00561078                                                              
24015KAKO AKO20190119134511001/19/19 13:45:31  5-MIN KAKO 192045Z AUTO VRB04KT 10SM CLR 06/M08 A3012 4540 36 4600 VRB/04 RMK AO2 T00611078                                                              
24015KAKO AKO20190119135012301/19/19 13:50:31  5-MIN KAKO 192050Z AUTO VRB05KT 10SM CLR 06/M08 A3012 4540 36 4600 VRB/05 RMK AO2 SLP219 T00611078 50000                                                 
24015KAKO AKO20190119141011001/19/19 14:10:31  5-MIN KAKO 192110Z AUTO VRB04KT 10SM CLR 06/M08 A3011 4540 35 4600 VRB/04 RMK AO2 T00611083                                                              
24015KAKO AKO20190123152512001/23/19 15:25:31  5-MIN KAKO 232225Z AUTO 00000KT 10SM BKN055 OVC075 02/M08 A2988 4750 49 4300 000/00 RMK AO2 T00171078                                                    
24015KAKO AKO20190123155511301/23/19 15:55:31  5-MIN KAKO 232255Z AUTO 00000KT 10SM OVC070 01/M07 A2988 4750 54 4300 000/00 RMK AO2 T00111072                                                           
24015KAKO AKO20190123160012001/23/19 16:00:31  5-MIN KAKO 232300Z AUTO 00000KT 10SM BKN075 OVC100 01/M07 A2988 4750 56 4300 000/00 RMK AO2 T00111067                                                    
24015KAKO AKO20190123161012001/23/19 16:10:31  5-MIN KAKO 232310Z AUTO 00000KT 10SM BKN075 OVC095 01/M06 A2989 4750 58 4200 000/00 RMK AO2 T00111061                                                    
24015KAKO AKO20190123161512001/23/19 16:15:31  5-MIN KAKO 232315Z AUTO 00000KT 10SM BKN075 OVC095 01/M06 A2989 4750 58 4200 000/00 RMK AO2 T00111061                                                    
24015KAKO AKO20190123162012001/23/19 16:20:31  5-MIN KAKO 232320Z AUTO 00000KT 10SM BKN075 OVC095 01/M06 A2990 4740 58 4200 000/00 RMK AO2 T00111061                                                    
24015KAKO AKO20190123162512001/23/19 16:25:31  5-MIN KAKO 232325Z AUTO 00000KT 10SM BKN075 OVC095 01/M06 A2989 4750 58 4200 000/00 RMK AO2 T00111061                                                    
24015KAKO AKO20190123181012001/23/19 18:10:31  5-MIN KAKO 240110Z AUTO 00000KT 10SM BKN080 OVC090 00/M06 A2994 4700 63 4100 000/00 RMK AO2 T00001061                                                    
24015KAKO AKO20190123181512001/23/19 18:15:31  5-MIN KAKO 240115Z AUTO 00000KT 10SM SCT060 OVC080 00/M06 A2994 4700 63 4100 000/00 RMK AO2 T00001061                                                    
24015KAKO AKO20190123182012101/23/19 18:20:31  5-MIN KAKO 240120Z AUTO 00000KT 10SM BKN060 OVC075 M01/M06 A2994 4700 66 4000 000/00 RMK AO2 T10061061                                                   
24015KAKO AKO20190123182512001/23/19 18:25:31  5-MIN KAKO 240125Z AUTO 00000KT 10SM BKN060 OVC075 00/M06 A2994 4700 63 4100 000/00 RMK AO2 T00001061                                                    
24015KAKO AKO20190123183011401/23/19 18:30:31  5-MIN KAKO 240130Z AUTO 00000KT 10SM OVC065 M01/M06 A2994 4700 69 4000 000/00 RMK AO2 T10061056                                                          
24015KAKO AKO20190123183511401/23/19 18:35:31  5-MIN KAKO 240135Z AUTO 00000KT 10SM OVC065 M01/M06 A2995 4700 69 4000 000/00 RMK AO2 T10061056                                                          
24015KAKO AKO20190123184011301/23/19 18:40:31  5-MIN KAKO 240140Z AUTO 00000KT 10SM OVC060 00/M06 A2995 4700 66 4000 000/00 RMK AO2 T00001056                                                           
24015KAKO AKO20190123184511301/23/19 18:45:31  5-MIN KAKO 240145Z AUTO 00000KT 10SM OVC060 00/M06 A2995 4690 66 4000 000/00 RMK AO2 T00001056                                                           
24015KAKO AKO20190123185012701/23/19 18:50:31  5-MIN KAKO 240150Z AUTO 00000KT 10SM BKN055 OVC065 00/M06 A2995 4690 63 4000 000/00 RMK AO2 SLP187 T00001061                                             
24015KAKO AKO20190123185512101/23/19 18:55:31  5-MIN KAKO 240155Z AUTO 00000KT 10SM BKN055 OVC065 M01/M06 A2995 4690 69 4000 000/00 RMK AO2 T10061056                                                   
24015KAKO AKO20190123190012101/23/19 19:00:31  5-MIN KAKO 240200Z AUTO 00000KT 10SM FEW048 OVC055 M01/M05 A2995 4690 75 3900 000/00 RMK AO2 T10111050                                                   
24015KAKO AKO20190123190512101/23/19 19:05:31  5-MIN KAKO 240205Z AUTO 00000KT 10SM SCT046 OVC055 M01/M05 A2995 4690 72 4000 000/00 RMK AO2 T10061050                                                   
24015KAKO AKO20190123191012001/23/19 19:10:31  5-MIN KAKO 240210Z AUTO 00000KT 10SM SCT044 OVC055 00/M06 A2995 4690 66 4000 000/00 RMK AO2 T00001056                                                    
24015KAKO AKO20190123191512001/23/19 19:15:31  5-MIN KAKO 240215Z AUTO 00000KT 10SM FEW044 OVC060 00/M06 A2995 4690 66 4000 000/00 RMK AO2 T00001056                                                    
24015KAKO AKO20190123192012801/23/19 19:20:31  5-MIN KAKO 240220Z AUTO 00000KT 10SM FEW037 SCT044 OVC060 M01/M06 A2995 4690 69 4000 000/00 RMK AO2 T10061056                                            
24015KAKO AKO20190127001011101/27/19 00:10:31  5-MIN KAKO 270710Z AUTO VRB05KT 10SM CLR M02/M07 A3009 4560 66 3700 VRB/05 RMK AO2 T10171072                                                             
24015KAKO AKO20190129005011801/29/19 00:50:31  5-MIN KAKO 290750Z AUTO 00000KT 10SM CLR M10/M14 A3013 4520 70 2600 000/00 RMK AO2 SLP253 T11001144                                                      
24015KAKO AKO20190129005511101/29/19 00:55:31  5-MIN KAKO 290755Z AUTO 00000KT 10SM CLR M11/M14 A3013 4520 73 2500 000/00 RMK AO2 T11061144                                                             
24015KAKO AKO20190129051511101/29/19 05:15:31  5-MIN KAKO 291215Z AUTO 00000KT 10SM CLR M12/M15 A3007 4580 76 2500 000/00 RMK AO2 T11171150                                                             
24015KAKO AKO20190129052011101/29/19 05:20:31  5-MIN KAKO 291220Z AUTO 00000KT 10SM CLR M11/M15 A3007 4580 73 2500 000/00 RMK AO2 T11111150                                                             
24015KAKO AKO20190129054011101/29/19 05:40:31  5-MIN KAKO 291240Z AUTO 00000KT 10SM CLR M12/M15 A3007 4580 76 2400 000/00 RMK AO2 T11171150                                                             
24015KAKO AKO20190129054511101/29/19 05:45:31  5-MIN KAKO 291245Z AUTO 00000KT 10SM CLR M12/M16 A3007 4580 76 2400 000/00 RMK AO2 T11221156                                                             
24015KAKO AKO20190129061011101/29/19 06:10:31  5-MIN KAKO 291310Z AUTO 00000KT 10SM CLR M11/M14 A3008 4580 77 2500 000/00 RMK AO2 T11111144                                                             
24015KAKO AKO20190129061511101/29/19 06:15:31  5-MIN KAKO 291315Z AUTO 00000KT 10SM CLR M12/M15 A3007 4580 76 2400 000/00 RMK AO2 T11171150                                                             
24015KAKO AKO20190129062011101/29/19 06:20:31  5-MIN KAKO 291320Z AUTO 00000KT 10SM CLR M12/M15 A3007 4580 76 2400 000/00 RMK AO2 T11171150                                                             
24015KAKO AKO20190129062511101/29/19 06:25:31  5-MIN KAKO 291325Z AUTO 00000KT 10SM CLR M12/M15 A3007 4580 80 2400 000/00 RMK AO2 T11221150                                                             
24015KAKO AKO20190129064011101/29/19 06:40:31  5-MIN KAKO 291340Z AUTO 00000KT 10SM CLR M12/M15 A3008 4570 76 2400 000/00 RMK AO2 T11171150                                                             
24015KAKO AKO20190129080511101/29/19 08:05:31  5-MIN KAKO 291505Z AUTO 00000KT 10SM CLR M09/M12 A3010 4560 77 2800 000/00 RMK AO2 T10891122                                                             
24015KAKO AKO20190129082011101/29/19 08:20:31  5-MIN KAKO 291520Z AUTO 00000KT 10SM CLR M08/M11 A3009 4560 77 2900 000/00 RMK AO2 T10781111                                                             
24015KAKO AKO20190129082511101/29/19 08:25:31  5-MIN KAKO 291525Z AUTO VRB03KT 10SM CLR M07/M12 A3009 4560 71 3000 VRB/03 RMK AO2 T10721117                                                             
24015KAKO AKO20190129083011101/29/19 08:30:31  5-MIN KAKO 291530Z AUTO VRB03KT 10SM CLR M07/M12 A3009 4560 71 3000 VRB/03 RMK AO2 T10721117                                                             
24015KAKO AKO20190129083511101/29/19 08:35:31  5-MIN KAKO 291535Z AUTO 00000KT 10SM CLR M07/M12 A3009 4560 68 3100 000/00 RMK AO2 T10671117                                                             
24015KAKO AKO20190129084011101/29/19 08:40:31  5-MIN KAKO 291540Z AUTO 00000KT 10SM CLR M07/M12 A3009 4560 68 3100 000/00 RMK AO2 T10671117                                                             
24015KAKO AKO20190129084511101/29/19 08:45:31  5-MIN KAKO 291545Z AUTO 00000KT 10SM CLR M07/M11 A3009 4560 71 3100 000/00 RMK AO2 T10671111                                                             
24015KAKO AKO20190129085011801/29/19 08:50:31  5-MIN KAKO 291550Z AUTO 00000KT 10SM CLR M06/M11 A3009 4560 68 3100 000/00 RMK AO2 SLP250 T10611111                                                      
24015KAKO AKO20190129085511101/29/19 08:55:31  5-MIN KAKO 291555Z AUTO 00000KT 10SM CLR M06/M11 A3009 4560 65 3200 000/00 RMK AO2 T10561111                                                             
24015KAKO AKO20190129090511101/29/19 09:05:31  5-MIN KAKO 291605Z AUTO 00000KT 10SM CLR M06/M12 A3009 4560 62 3200 000/00 RMK AO2 T10561117                                                             
24015KAKO AKO20190129093511101/29/19 09:35:31  5-MIN KAKO 291635Z AUTO 00000KT 10SM CLR M04/M11 A3008 4570 62 3300 000/00 RMK AO2 T10441106                                                             
24015KAKO AKO20190129094011101/29/19 09:40:31  5-MIN KAKO 291640Z AUTO 00000KT 10SM CLR M04/M11 A3008 4570 62 3300 000/00 RMK AO2 T10441106                                                             
24015KAKO AKO20190129143511001/29/19 14:35:31  5-MIN KAKO 292135Z AUTO VRB06KT 10SM CLR 01/M13 A2997 4670 36 4100 VRB/06 RMK AO2 T00061128                                                              
24015KAKO AKO20190129200511101/29/19 20:05:31  5-MIN KAKO 300305Z AUTO VRB03KT 10SM CLR M08/M13 A3006 4590 67 2900 VRB/03 RMK AO2 T10831133                                                             
24015KAKO AKO20190130061511101/30/19 06:15:31  5-MIN KAKO 301315Z AUTO 00000KT 10SM CLR M14/M16 A2987 4770 83 2400 000/00 RMK AO2 T11391161                                                             
24015KAKO AKO20190130062511101/30/19 06:25:31  5-MIN KAKO 301325Z AUTO 00000KT 10SM CLR M13/M16 A2987 4770 80 2500 000/00 RMK AO2 T11281156                                                             
24015KAKO AKO20190130111511001/30/19 11:15:31  5-MIN KAKO 301815Z AUTO VRB06KT 10SM CLR 02/M11 A2989 4750 38 4300 VRB/06 RMK AO2 T00171111                                                              
24015KAKO AKO20190130112511001/30/19 11:25:31  5-MIN KAKO 301825Z AUTO VRB05KT 10SM CLR 02/M11 A2988 4750 37 4400 VRB/05 RMK AO2 T00221111                                                              
24015KAKO AKO20190130143011001/30/19 14:30:31  5-MIN KAKO 302130Z AUTO VRB05KT 10SM CLR 05/M13 A2982 4810 25 4800 VRB/05 RMK AO2 T00501133                                                              
24015KAKO AKO20190130150511001/30/19 15:05:31  5-MIN KAKO 302205Z AUTO VRB03KT 10SM CLR 07/M13 A2982 4810 23 5000 VRB/03 RMK AO2 T00671128                                                              
24015KAKO AKO20190130151011001/30/19 15:10:31  5-MIN KAKO 302210Z AUTO 00000KT 10SM CLR 06/M14 A2982 4810 22 4900 000/00 RMK AO2 T00611139                                                              
24015KAKO AKO20190130151511001/30/19 15:15:31  5-MIN KAKO 302215Z AUTO 00000KT 10SM CLR 07/M13 A2982 4810 22 5000 000/00 RMK AO2 T00671133                                                              
24015KAKO AKO20190130153011001/30/19 15:30:31  5-MIN KAKO 302230Z AUTO 00000KT 10SM CLR 06/M13 A2983 4810 23 4900 000/00 RMK AO2 T00611133                                                              
24015KAKO AKO20190130154011001/30/19 15:40:31  5-MIN KAKO 302240Z AUTO 00000KT 10SM CLR 07/M13 A2982 4810 22 5000 000/00 RMK AO2 T00671133                                                              
24015KAKO AKO20190130155011701/30/19 15:50:31  5-MIN KAKO 302250Z AUTO 00000KT 10SM CLR 07/M13 A2983 4810 22 5000 000/00 RMK AO2 SLP128 T00671133                                                       
24015KAKO AKO20190130155511001/30/19 15:55:31  5-MIN KAKO 302255Z AUTO 00000KT 10SM CLR 07/M13 A2982 4810 23 5000 000/00 RMK AO2 T00671128                                                              
24015KAKO AKO20190130160511001/30/19 16:05:31  5-MIN KAKO 302305Z AUTO 00000KT 10SM CLR 07/M13 A2982 4810 22 5000 000/00 RMK AO2 T00671133                                                              
24015KAKO AKO20190130161511001/30/19 16:15:31  5-MIN KAKO 302315Z AUTO 00000KT 10SM CLR 06/M13 A2982 4810 25 4900 000/00 RMK AO2 T00561128                                                              
24015KAKO AKO20190130162011001/30/19 16:20:31  5-MIN KAKO 302320Z AUTO 00000KT 10SM CLR 06/M13 A2982 4810 24 4900 000/00 RMK AO2 T00561133                                                              
24015KAKO AKO20190130163011001/30/19 16:30:31  5-MIN KAKO 302330Z AUTO 00000KT 10SM CLR 05/M13 A2982 4810 26 4800 000/00 RMK AO2 T00501128                                                              
24015KAKO AKO20190130163511001/30/19 16:35:31  5-MIN KAKO 302335Z AUTO 00000KT 10SM CLR 05/M13 A2982 4810 26 4800 000/00 RMK AO2 T00501128                                                              
24015KAKO AKO20190130164011001/30/19 16:40:31  5-MIN KAKO 302340Z AUTO 00000KT 10SM CLR 05/M13 A2982 4810 26 4800 000/00 RMK AO2 T00501128                                                              
24015KAKO AKO20190130171511001/30/19 17:15:31  5-MIN KAKO 310015Z AUTO 00000KT 10SM CLR 03/M13 A2982 4810 30 4600 000/00 RMK AO2 T00331128                                                              
24015KAKO AKO20190130175011701/30/19 17:50:31  5-MIN KAKO 310050Z AUTO 00000KT 10SM CLR 03/M13 A2982 4810 29 4500 000/00 RMK AO2 SLP140 T00281133                                                       
24015KAKO AKO20190130175511001/30/19 17:55:31  5-MIN KAKO 310055Z AUTO 00000KT 10SM CLR 03/M13 A2982 4810 29 4500 000/00 RMK AO2 T00281133                                                              
24015KAKO AKO20190130182011001/30/19 18:20:31  5-MIN KAKO 310120Z AUTO 00000KT 10SM CLR 02/M13 A2983 4800 32 4400 000/00 RMK AO2 T00171133                                                              
24015KAKO AKO20190130185511001/30/19 18:55:31  5-MIN KAKO 310155Z AUTO 00000KT 10SM CLR 01/M13 A2983 4800 33 4300 000/00 RMK AO2 T00111133                                                              
24015KAKO AKO20190130190011001/30/19 19:00:31  5-MIN KAKO 310200Z AUTO 00000KT 10SM CLR 02/M13 A2983 4800 32 4400 000/00 RMK AO2 T00171133                                                              
24015KAKO AKO20190131093011001/31/19 09:30:31  5-MIN KAKO 311630Z AUTO VRB03KT 10SM CLR 03/M11 A2992 4720 34 4500 VRB/03 RMK AO2 T00331111                                                              
24015KAKO AKO20190131094511001/31/19 09:45:31  5-MIN KAKO 311645Z AUTO VRB04KT 10SM CLR 04/M11 A2992 4720 31 4600 VRB/04 RMK AO2 T00441111                                                              
24015KAKO AKO20190131095511001/31/19 09:55:31  5-MIN KAKO 311655Z AUTO VRB03KT 10SM CLR 05/M11 A2993 4710 30 4700 VRB/03 RMK AO2 T00501111                                                              
24015KAKO AKO20190131101511001/31/19 10:15:31  5-MIN KAKO 311715Z AUTO 00000KT 10SM CLR 05/M11 A2993 4710 30 4700 000/00 RMK AO2 T00501111                                                              
24015KAKO AKO20190131102011001/31/19 10:20:31  5-MIN KAKO 311720Z AUTO VRB03KT 10SM CLR 06/M11 A2993 4710 29 4700 VRB/03 RMK AO2 T00561111                                                              
24015KAKO AKO20190131102511001/31/19 10:25:31  5-MIN KAKO 311725Z AUTO VRB04KT 10SM CLR 06/M11 A2994 4710 28 4800 VRB/04 RMK AO2 T00611111                                                              
24015KAKO AKO20190131103011001/31/19 10:30:31  5-MIN KAKO 311730Z AUTO VRB05KT 10SM CLR 06/M11 A2994 4700 29 4700 VRB/05 RMK AO2 T00561111                                                              
24015KAKO AKO20190131103511001/31/19 10:35:31  5-MIN KAKO 311735Z AUTO VRB03KT 10SM CLR 06/M11 A2994 4700 29 4700 VRB/03 RMK AO2 T00561111                                                              
24015KAKO AKO20190131111511001/31/19 11:15:31  5-MIN KAKO 311815Z AUTO VRB06KT 10SM CLR 07/M11 A2994 4700 27 4900 VRB/06 RMK AO2 T00671111                                                              
24015KAKO AKO20190131112011001/31/19 11:20:31  5-MIN KAKO 311820Z AUTO VRB05KT 10SM CLR 07/M11 A2994 4700 26 4900 VRB/05 RMK AO2 T00721111                                                              
24015KAKO AKO20190131112511001/31/19 11:25:31  5-MIN KAKO 311825Z AUTO VRB04KT 10SM CLR 07/M11 A2994 4700 27 4900 VRB/04 RMK AO2 T00671111                                                              
24015KAKO AKO20190131115511001/31/19 11:55:31  5-MIN KAKO 311855Z AUTO 00000KT 10SM CLR 07/M11 A2993 4710 27 4900 000/00 RMK AO2 T00721106                                                              
24015KAKO AKO20190131121011001/31/19 12:10:31  5-MIN KAKO 311910Z AUTO 00000KT 10SM CLR 07/M11 A2993 4710 27 4900 000/00 RMK AO2 T00721106                                                              
24015KAKO AKO20190131122011001/31/19 12:20:31  5-MIN KAKO 311920Z AUTO 00000KT 10SM CLR 08/M11 A2992 4720 26 5000 000/00 RMK AO2 T00781106                                                              
24015KAKO AKO20190131122511001/31/19 12:25:31  5-MIN KAKO 311925Z AUTO 00000KT 10SM CLR 08/M11 A2992 4720 26 5000 000/00 RMK AO2 T00781106                                                              
24015KAKO AKO20190131123011001/31/19 12:30:31  5-MIN KAKO 311930Z AUTO VRB03KT 10SM CLR 09/M11 A2992 4720 24 5100 VRB/03 RMK AO2 T00891106                                                              
24015KAKO AKO20190131124011001/31/19 12:40:31  5-MIN KAKO 311940Z AUTO 00000KT 10SM CLR 08/M11 A2992 4720 25 5100 000/00 RMK AO2 T00831106                                                              
24015KAKO AKO20190131125011701/31/19 12:50:31  5-MIN KAKO 311950Z AUTO 00000KT 10SM CLR 08/M11 A2991 4730 25 5100 000/00 RMK AO2 SLP132 T00831106                                                       
24015KAKO AKO20190131133511001/31/19 13:35:31  5-MIN KAKO 312035Z AUTO 00000KT 10SM CLR 10/M12 A2991 4730 20 5300 000/00 RMK AO2 T01001117                                                              
24015KAKO AKO20190131134511001/31/19 13:45:31  5-MIN KAKO 312045Z AUTO 00000KT 10SM CLR 10/M12 A2991 4730 20 5300 000/00 RMK AO2 T01001117                                                              
24015KAKO AKO20190131135511001/31/19 13:55:31  5-MIN KAKO 312055Z AUTO VRB03KT 10SM CLR 10/M12 A2991 4730 20 5300 VRB/03 RMK AO2 T01001117                                                              
24015KAKO AKO20190131140011001/31/19 14:00:31  5-MIN KAKO 312100Z AUTO 00000KT 10SM CLR 10/M12 A2991 4730 20 5300 000/00 RMK AO2 T01001117                                                              
24015KAKO AKO20190131141511001/31/19 14:15:31  5-MIN KAKO 312115Z AUTO 00000KT 10SM CLR 10/M11 A2990 4730 21 5300 000/00 RMK AO2 T01001111                                                              
24015KAKO AKO20190131142011001/31/19 14:20:31  5-MIN KAKO 312120Z AUTO VRB04KT 10SM CLR 11/M11 A2990 4730 20 5300 VRB/04 RMK AO2 T01061111                                                              
24015KAKO AKO20190131142511001/31/19 14:25:31  5-MIN KAKO 312125Z AUTO VRB03KT 10SM CLR 10/M11 A2990 4730 21 5300 VRB/03 RMK AO2 T01001111                                                              
24015KAKO AKO20190131144011001/31/19 14:40:31  5-MIN KAKO 312140Z AUTO VRB03KT 10SM CLR 10/M12 A2991 4730 19 5300 VRB/03 RMK AO2 T01001122                                                              
24015KAKO AKO20190131144511001/31/19 14:45:31  5-MIN KAKO 312145Z AUTO 00000KT 10SM CLR 10/M12 A2991 4730 20 5300 000/00 RMK AO2 T01001117                                                              
24015KAKO AKO20190131152511001/31/19 15:25:31  5-MIN KAKO 312225Z AUTO VRB05KT 10SM CLR 10/M12 A2992 4720 20 5300 VRB/05 RMK AO2 T01001117                                                              
24015KAKO AKO20190131184511001/31/19 18:45:31  5-MIN KAKO 010145Z AUTO 00000KT 10SM CLR 01/M11 A2996 4680 40 4200 000/00 RMK AO2 T00111111                                                              
24015KAKO AKO20190131185011701/31/19 18:50:31  5-MIN KAKO 010150Z AUTO 00000KT 10SM CLR 02/M11 A2996 4680 38 4200 000/00 RMK AO2 SLP177 T00171111                                                       
24015KAKO AKO20190131185511001/31/19 18:55:31  5-MIN KAKO 010155Z AUTO 00000KT 10SM CLR 02/M12 A2996 4680 36 4200 000/00 RMK AO2 T00171117                                                              
24015KAKO AKO20190131204011101/31/19 20:40:31  5-MIN KAKO 010340Z AUTO 00000KT 10SM CLR M03/M11 A2997 4670 53 3700 000/00 RMK AO2 T10281111                                                             
24015KAKO AKO20190131205011801/31/19 20:50:31  5-MIN KAKO 010350Z AUTO 00000KT 10SM CLR M03/M11 A2997 4670 53 3700 000/00 RMK AO2 SLP171 T10281111                                                      
24015KAKO AKO20190131210011101/31/19 21:00:31  5-MIN KAKO 010400Z AUTO 00000KT 10SM CLR M01/M11 A2997 4670 47 3900 000/00 RMK AO2 T10111111                                                             
24015KAKO AKO20190131210511101/31/19 21:05:31  5-MIN KAKO 010405Z AUTO 00000KT 10SM CLR M03/M11 A2997 4670 53 3700 000/00 RMK AO2 T10281111                                                             
24015KAKO AKO20190131212011101/31/19 21:20:31  5-MIN KAKO 010420Z AUTO 00000KT 10SM CLR M01/M11 A2997 4670 47 3900 000/00 RMK AO2 T10111111                                                             
24015KAKO AKO20190131212511101/31/19 21:25:31  5-MIN KAKO 010425Z AUTO 00000KT 10SM CLR M03/M11 A2998 4670 55 3600 000/00 RMK AO2 T10331111                                                             
24015KAKO AKO20190201124011002/01/19 12:40:31  5-MIN KAKO 011940Z AUTO VRB04KT 10SM CLR 12/M07 A2997 4670 25 5500 VRB/04 RMK AO2 T01221072                                                              
24015KAKO AKO20190201124511002/01/19 12:45:31  5-MIN KAKO 011945Z AUTO 00000KT 10SM CLR 12/M08 A2997 4670 24 5500 000/00 RMK AO2 T01221078                                                              
24015KAKO AKO20190201125511002/01/19 12:55:31  5-MIN KAKO 011955Z AUTO VRB03KT 10SM CLR 13/M08 A2997 4680 23 5500 VRB/03 RMK AO2 T01281078                                                              
24015KAKO AKO20190201130011002/01/19 13:00:31  5-MIN KAKO 012000Z AUTO 00000KT 10SM CLR 13/M08 A2996 4680 23 5500 000/00 RMK AO2 T01281078                                                              
24015KAKO AKO20190201130511002/01/19 13:05:31  5-MIN KAKO 012005Z AUTO 00000KT 10SM CLR 13/M08 A2996 4680 23 5500 000/00 RMK AO2 T01281078                                                              
24015KAKO AKO20190201131011002/01/19 13:10:31  5-MIN KAKO 012010Z AUTO 00000KT 10SM CLR 13/M08 A2996 4680 23 5500 000/00 RMK AO2 T01281078                                                              
24015KAKO AKO20190201132011002/01/19 13:20:31  5-MIN KAKO 012020Z AUTO 00000KT 10SM CLR 13/M08 A2995 4690 22 5600 000/00 RMK AO2 T01331078                                                              
24015KAKO AKO20190201132511002/01/19 13:25:31  5-MIN KAKO 012025Z AUTO 00000KT 10SM CLR 14/M08 A2995 4690 21 5700 000/00 RMK AO2 T01391078                                                              
24015KAKO AKO20190201133011002/01/19 13:30:31  5-MIN KAKO 012030Z AUTO VRB03KT 10SM CLR 14/M08 A2995 4690 21 5700 VRB/03 RMK AO2 T01391078                                                              
24015KAKO AKO20190201133511002/01/19 13:35:31  5-MIN KAKO 012035Z AUTO 00000KT 10SM CLR 14/M08 A2995 4690 21 5700 000/00 RMK AO2 T01391078                                                              
24015KAKO AKO20190201134011002/01/19 13:40:31  5-MIN KAKO 012040Z AUTO 00000KT 10SM CLR 14/M08 A2995 4690 21 5700 000/00 RMK AO2 T01391078                                                              
24015KAKO AKO20190201134511002/01/19 13:45:31  5-MIN KAKO 012045Z AUTO VRB05KT 10SM CLR 14/M08 A2995 4690 20 5700 VRB/05 RMK AO2 T01441078                                                              
24015KAKO AKO20190201141011002/01/19 14:10:31  5-MIN KAKO 012110Z AUTO VRB03KT 10SM CLR 14/M08 A2994 4700 20 5800 VRB/03 RMK AO2 T01441083                                                              
24015KAKO AKO20190201141511002/01/19 14:15:31  5-MIN KAKO 012115Z AUTO 00000KT 10SM CLR 15/M08 A2994 4700 20 5800 000/00 RMK AO2 T01501078                                                              
24015KAKO AKO20190202114511002/02/19 11:45:31  5-MIN KAKO 021845Z AUTO VRB04KT 10SM CLR 14/M10 A2980 4830 18 5900 VRB/04 RMK AO2 T01391100                                                              
24015KAKO AKO20190202120011002/02/19 12:00:31  5-MIN KAKO 021900Z AUTO 00000KT 10SM CLR 14/M09 A2978 4850 19 5900 000/00 RMK AO2 T01391094                                                              
24015KAKO AKO20190202120511002/02/19 12:05:31  5-MIN KAKO 021905Z AUTO VRB03KT 10SM CLR 14/M09 A2978 4850 19 5900 VRB/03 RMK AO2 T01391094                                                              
24015KAKO AKO20190202121511002/02/19 12:15:31  5-MIN KAKO 021915Z AUTO 00000KT 10SM CLR 14/M09 A2978 4850 19 5900 000/00 RMK AO2 T01391094                                                              
24015KAKO AKO20190202122011002/02/19 12:20:31  5-MIN KAKO 021920Z AUTO 00000KT 10SM CLR 14/M09 A2977 4850 19 5900 000/00 RMK AO2 T01391094                                                              
24015KAKO AKO20190202122511002/02/19 12:25:31  5-MIN KAKO 021925Z AUTO 00000KT 10SM CLR 14/M09 A2977 4860 19 5900 000/00 RMK AO2 T01441089                                                              
24015KAKO AKO20190202124011002/02/19 12:40:31  5-MIN KAKO 021940Z AUTO VRB03KT 10SM CLR 14/M09 A2977 4860 18 6000 VRB/03 RMK AO2 T01441094                                                              
24015KAKO AKO20190202125011702/02/19 12:50:31  5-MIN KAKO 021950Z AUTO VRB04KT 10SM CLR 14/M09 A2976 4870 18 6000 VRB/04 RMK AO2 SLP067 T01441094                                                       
24015KAKO AKO20190202125511002/02/19 12:55:31  5-MIN KAKO 021955Z AUTO 00000KT 10SM CLR 14/M09 A2976 4870 19 6000 000/00 RMK AO2 T01441089                                                              
24015KAKO AKO20190202130511002/02/19 13:05:31  5-MIN KAKO 022005Z AUTO 00000KT 10SM CLR 14/M09 A2975 4870 18 6000 000/00 RMK AO2 T01441094                                                              
24015KAKO AKO20190202131011002/02/19 13:10:31  5-MIN KAKO 022010Z AUTO 00000KT 10SM CLR 15/M10 A2975 4880 17 6000 000/00 RMK AO2 T01501100                                                              
24015KAKO AKO20190202131511002/02/19 13:15:31  5-MIN KAKO 022015Z AUTO 00000KT 10SM CLR 15/M10 A2975 4880 17 6000 000/00 RMK AO2 T01501100                                                              
24015KAKO AKO20190202132011002/02/19 13:20:31  5-MIN KAKO 022020Z AUTO VRB04KT 10SM CLR 15/M10 A2975 4880 17 6000 VRB/04 RMK AO2 T01501100                                                              
24015KAKO AKO20190202132511002/02/19 13:25:31  5-MIN KAKO 022025Z AUTO 00000KT 10SM CLR 15/M11 A2974 4880 16 6000 000/00 RMK AO2 T01501106                                                              
24015KAKO AKO20190202134511002/02/19 13:45:31  5-MIN KAKO 022045Z AUTO VRB03KT 10SM CLR 15/M09 A2973 4890 17 6100 VRB/03 RMK AO2 T01501094                                                              
24015KAKO AKO20190202135012302/02/19 13:50:31  5-MIN KAKO 022050Z AUTO 00000KT 10SM CLR 16/M10 A2973 4900 16 6100 000/00 RMK AO2 SLP054 T01561100 50001                                                 
24015KAKO AKO20190202140511002/02/19 14:05:31  5-MIN KAKO 022105Z AUTO VRB03KT 10SM CLR 16/M11 A2973 4900 15 6100 VRB/03 RMK AO2 T01561106                                                              
24015KAKO AKO20190202141511002/02/19 14:15:31  5-MIN KAKO 022115Z AUTO VRB03KT 10SM CLR 16/M11 A2973 4900 15 6100 VRB/03 RMK AO2 T01561106                                                              
24015KAKO AKO20190202142511002/02/19 14:25:31  5-MIN KAKO 022125Z AUTO 00000KT 10SM CLR 16/M10 A2973 4900 15 6200 000/00 RMK AO2 T01611100                                                              
24015KAKO AKO20190202145011702/02/19 14:50:31  5-MIN KAKO 022150Z AUTO VRB03KT 10SM CLR 16/M11 A2973 4900 15 6100 VRB/03 RMK AO2 SLP056 T01561111                                                       
24015KAKO AKO20190202145511002/02/19 14:55:31  5-MIN KAKO 022155Z AUTO 00000KT 10SM CLR 16/M11 A2973 4900 15 6100 000/00 RMK AO2 T01561111                                                              
24015KAKO AKO20190202150011002/02/19 15:00:31  5-MIN KAKO 022200Z AUTO VRB03KT 10SM CLR 16/M11 A2973 4900 15 6200 VRB/03 RMK AO2 T01611106                                                              
24015KAKO AKO20190202150511002/02/19 15:05:31  5-MIN KAKO 022205Z AUTO VRB06KT 10SM CLR 17/M11 A2973 4900 14 6200 VRB/06 RMK AO2 T01671106                                                              
24015KAKO AKO20190203081011002/03/19 08:10:31  5-MIN KAKO 031510Z AUTO 00000KT 10SM CLR 04/M04 A2954 5070 54 5000 000/00 RMK AO2 T00391044                                                              
24015KAKO AKO20190203082011002/03/19 08:20:31  5-MIN KAKO 031520Z AUTO 00000KT 10SM CLR 04/M03 A2954 5080 57 5100 000/00 RMK AO2 T00441033                                                              
24015KAKO AKO20190203083511002/03/19 08:35:31  5-MIN KAKO 031535Z AUTO 00000KT 10SM CLR 05/M03 A2954 5070 55 5100 000/00 RMK AO2 T00501033                                                              
24015KAKO AKO20190203085511002/03/19 08:55:31  5-MIN KAKO 031555Z AUTO 00000KT 10SM CLR 06/M03 A2952 5090 51 5300 000/00 RMK AO2 T00611033                                                              
24015KAKO AKO20190203090511002/03/19 09:05:31  5-MIN KAKO 031605Z AUTO 00000KT 10SM CLR 07/M03 A2952 5090 51 5300 000/00 RMK AO2 T00671028                                                              
24015KAKO AKO20190203091011002/03/19 09:10:31  5-MIN KAKO 031610Z AUTO 00000KT 10SM CLR 07/M03 A2952 5090 49 5400 000/00 RMK AO2 T00721028                                                              
24015KAKO AKO20190203091511002/03/19 09:15:31  5-MIN KAKO 031615Z AUTO 00000KT 10SM CLR 07/M02 A2952 5090 51 5400 000/00 RMK AO2 T00721022                                                              
24015KAKO AKO20190203092011002/03/19 09:20:31  5-MIN KAKO 031620Z AUTO 00000KT 10SM CLR 07/M02 A2952 5100 53 5300 000/00 RMK AO2 T00671022                                                              
24015KAKO AKO20190203092511002/03/19 09:25:31  5-MIN KAKO 031625Z AUTO 00000KT 10SM CLR 07/M02 A2952 5090 53 5300 000/00 RMK AO2 T00671022                                                              
24015KAKO AKO20190203093011002/03/19 09:30:31  5-MIN KAKO 031630Z AUTO 00000KT 10SM CLR 07/M02 A2952 5090 53 5300 000/00 RMK AO2 T00671022                                                              
24015KAKO AKO20190203093511002/03/19 09:35:31  5-MIN KAKO 031635Z AUTO 00000KT 10SM CLR 07/M03 A2952 5090 51 5300 000/00 RMK AO2 T00671028                                                              
24015KAKO AKO20190203094511002/03/19 09:45:31  5-MIN KAKO 031645Z AUTO 00000KT 10SM CLR 08/M03 A2952 5090 45 5500 000/00 RMK AO2 T00831028                                                              
24015KAKO AKO20190203095011702/03/19 09:50:31  5-MIN KAKO 031650Z AUTO 00000KT 10SM CLR 09/M03 A2952 5090 43 5600 000/00 RMK AO2 SLP981 T00891028                                                       
24015KAKO AKO20190203095511002/03/19 09:55:31  5-MIN KAKO 031655Z AUTO 00000KT 10SM CLR 09/M03 A2951 5100 40 5700 000/00 RMK AO2 T00941033                                                              
24015KAKO AKO20190203100011002/03/19 10:00:31  5-MIN KAKO 031700Z AUTO 00000KT 10SM CLR 10/M04 A2952 5100 37 5700 000/00 RMK AO2 T01001039                                                              
24015KAKO AKO20190203100511002/03/19 10:05:31  5-MIN KAKO 031705Z AUTO 00000KT 10SM CLR 11/M05 A2952 5090 33 5800 000/00 RMK AO2 T01061050                                                              
24015KAKO AKO20190203102011002/03/19 10:20:31  5-MIN KAKO 031720Z AUTO 00000KT 10SM CLR 11/M05 A2952 5090 33 5800 000/00 RMK AO2 T01061050                                                              
24015KAKO AKO20190203125011702/03/19 12:50:31  5-MIN KAKO 031950Z AUTO VRB05KT 10SM CLR 17/M03 A2941 5190 24 6700 VRB/05 RMK AO2 SLP931 T01721033                                                       
24015KAKO AKO20190203125511002/03/19 12:55:31  5-MIN KAKO 031955Z AUTO VRB05KT 10SM CLR 17/M03 A2941 5190 24 6700 VRB/05 RMK AO2 T01721033                                                              
24015KAKO AKO20190203130011002/03/19 13:00:31  5-MIN KAKO 032000Z AUTO VRB06KT 10SM CLR 17/M03 A2941 5200 25 6600 VRB/06 RMK AO2 T01671033                                                              
24015KAKO AKO20190203204511302/03/19 20:45:31  5-MIN KAKO 040345Z AUTO 00000KT 10SM BKN100 05/M02 A2963 4990 62 5000 000/00 RMK AO2 T00501017                                                           
24015KAKO AKO20190203211011302/03/19 21:10:31  5-MIN KAKO 040410Z AUTO 00000KT 10SM OVC100 05/M02 A2963 4990 62 5000 000/00 RMK AO2 T00501017                                                           
24015KAKO AKO20190203211511302/03/19 21:15:31  5-MIN KAKO 040415Z AUTO 00000KT 10SM OVC100 04/M02 A2964 4980 64 4900 000/00 RMK AO2 T00441017                                                           
24015KAKO AKO20190203212011302/03/19 21:20:31  5-MIN KAKO 040420Z AUTO 00000KT 10SM OVC100 05/M02 A2963 4990 62 5000 000/00 RMK AO2 T00501017                                                           
24015KAKO AKO20190203213511302/03/19 21:35:31  5-MIN KAKO 040435Z AUTO 00000KT 10SM BKN100 05/M02 A2964 4980 59 5000 000/00 RMK AO2 T00501022                                                           
24015KAKO AKO20190203215511002/03/19 21:55:31  5-MIN KAKO 040455Z AUTO 00000KT 10SM CLR 02/M03 A2965 4970 69 4700 000/00 RMK AO2 T00221028                                                              
24015KAKO AKO20190203220011002/03/19 22:00:31  5-MIN KAKO 040500Z AUTO 00000KT 10SM CLR 02/M03 A2965 4970 69 4700 000/00 RMK AO2 T00221028                                                              
24015KAKO AKO20190203220511002/03/19 22:05:31  5-MIN KAKO 040505Z AUTO 00000KT 10SM CLR 02/M03 A2965 4970 69 4700 000/00 RMK AO2 T00221028                                                              
24015KAKO AKO20190204035511102/04/19 03:55:31  5-MIN KAKO 041055Z AUTO VRB05KT 10SM CLR M05/M06 A2973 4890 92 3700 VRB/05 RMK AO2 T10501061                                                             
24015KAKO AKO20190205124511402/05/19 12:45:31  5-MIN KAKO 051945Z AUTO VRB06KT 10SM FEW012 M01/M03 A2963 4990 85 4300 VRB/06 RMK AO2 T10061028                                                          
24015KAKO AKO20190205133511002/05/19 13:35:31  5-MIN KAKO 052035Z AUTO VRB04KT 10SM CLR 03/M03 A2961 5010 64 4800 VRB/04 RMK AO2 T00281033                                                              
24015KAKO AKO20190205134011002/05/19 13:40:31  5-MIN KAKO 052040Z AUTO 00000KT 10SM CLR 03/M03 A2961 5010 64 4800 000/00 RMK AO2 T00281033                                                              
24015KAKO AKO20190205135511002/05/19 13:55:31  5-MIN KAKO 052055Z AUTO VRB03KT 10SM CLR 04/M03 A2962 5000 59 4900 VRB/03 RMK AO2 T00391033                                                              
24015KAKO AKO20190205140011002/05/19 14:00:31  5-MIN KAKO 052100Z AUTO VRB03KT 10SM CLR 04/M03 A2962 5000 57 5000 VRB/03 RMK AO2 T00441033                                                              
24015KAKO AKO20190205140511002/05/19 14:05:31  5-MIN KAKO 052105Z AUTO VRB04KT 10SM CLR 04/M03 A2962 5000 57 5000 VRB/04 RMK AO2 T00441033                                                              
24015KAKO AKO20190208015012402/08/19 01:50:31  5-MIN KAKO 080850Z AUTO 00000KT 10SM CLR M15/M19 A3022 4440 72 1800 000/00 RMK AO2 SLP328 T11501189 51004                                                
24015KAKO AKO20190208102511102/08/19 10:25:31  5-MIN KAKO 081725Z AUTO 00000KT 10SM CLR M12/M14 A3020 4460 84 2200 000/00 RMK AO2 T11221144                                                             
24015KAKO AKO20190208103011102/08/19 10:30:31  5-MIN KAKO 081730Z AUTO 00000KT 10SM CLR M12/M14 A3020 4460 87 2200 000/00 RMK AO2 T11221139                                                             
24015KAKO AKO20190208104011102/08/19 10:40:31  5-MIN KAKO 081740Z AUTO 00000KT 10SM CLR M11/M13 A3021 4460 84 2400 000/00 RMK AO2 T11061128                                                             
24015KAKO AKO20190210065013902/10/19 06:50:31  5-MIN KAKO 101350Z AUTO 00000KT 3/4SM BR VV003 M14/M14 A2995 4690 96 2300 000/00 RMK AO2 SNB02E48 SLP204 P0000 T11391144                                 
24015KAKO AKO20190210070512502/10/19 07:05:31  5-MIN KAKO 101405Z AUTO 00000KT 1/4SM FZFG VV003 M14/M15 A2995 4690 91 2300 000/00 RMK AO2 I1000 T11391150                                               
24015KAKO AKO20190210071012502/10/19 07:10:31  5-MIN KAKO 101410Z AUTO 00000KT 1/4SM FZFG VV003 M14/M15 A2995 4690 91 2300 000/00 RMK AO2 I1000 T11391150                                               
24015KAKO AKO20190210071512502/10/19 07:15:31  5-MIN KAKO 101415Z AUTO 00000KT 1/4SM FZFG VV003 M14/M14 A2996 4690 96 2300 000/00 RMK AO2 I1000 T11391144                                               
24015KAKO AKO20190210072012502/10/19 07:20:31  5-MIN KAKO 101420Z AUTO 00000KT 1/4SM FZFG VV003 M14/M14 A2996 4690 96 2300 000/00 RMK AO2 I1001 T11391144                                               
24015KAKO AKO20190210072512502/10/19 07:25:31  5-MIN KAKO 101425Z AUTO 00000KT 1/4SM FZFG VV003 M13/M14 A2996 4680 91 2400 000/00 RMK AO2 I1001 T11331144                                               
24015KAKO AKO20190210073012502/10/19 07:30:31  5-MIN KAKO 101430Z AUTO 00000KT 1/4SM FZFG VV003 M13/M14 A2996 4680 91 2400 000/00 RMK AO2 I1001 T11331144                                               
24015KAKO AKO20190210073512502/10/19 07:35:31  5-MIN KAKO 101435Z AUTO 00000KT 1/4SM FZFG VV003 M13/M14 A2996 4680 91 2400 000/00 RMK AO2 I1001 T11331144                                               
24015KAKO AKO20190210074012502/10/19 07:40:31  5-MIN KAKO 101440Z AUTO 00000KT 1/4SM FZFG VV003 M13/M14 A2996 4690 91 2400 000/00 RMK AO2 I1001 T11331144                                               
24015KAKO AKO20190210074512502/10/19 07:45:31  5-MIN KAKO 101445Z AUTO 00000KT 1/4SM FZFG VV003 M13/M14 A2996 4690 91 2400 000/00 RMK AO2 I1001 T11331144                                               
24015KAKO AKO20190210075015002/10/19 07:50:31  5-MIN KAKO 101450Z AUTO 00000KT 1/4SM FZFG VV003 M13/M14 A2996 4680 91 2400 000/00 RMK AO2 SLP207 60000 I1001 I3/// T11331144 57001                      
24015KAKO AKO20190210075511902/10/19 07:55:31  5-MIN KAKO 101455Z AUTO 00000KT 1/4SM FZFG VV003 M13/M14 A2996 4680 91 2400 000/00 RMK AO2 T11331144                                                     
24015KAKO AKO20190210080011902/10/19 08:00:31  5-MIN KAKO 101500Z AUTO 00000KT 1/4SM FZFG VV003 M13/M14 A2997 4680 96 2400 000/00 RMK AO2 T11331139                                                     
24015KAKO AKO20190210080511902/10/19 08:05:31  5-MIN KAKO 101505Z AUTO 00000KT 1/4SM FZFG VV003 M13/M13 A2997 4680 96 2400 000/00 RMK AO2 T11281133                                                     
24015KAKO AKO20190210081011902/10/19 08:10:31  5-MIN KAKO 101510Z AUTO 00000KT 1/4SM FZFG VV003 M13/M13 A2997 4680 96 2400 000/00 RMK AO2 T11281133                                                     
24015KAKO AKO20190210081512002/10/19 08:15:31  5-MIN KAKO 101515Z AUTO 00000KT 1/2SM FZFG VV003 M13/M13 A2996 4680 100 2400 000/00 RMK AO2 T11281128                                                    
24015KAKO AKO20190210082012002/10/19 08:20:31  5-MIN KAKO 101520Z AUTO 00000KT 1/2SM FZFG OVC003 M13/M13 A2996 4680 96 2400 000/00 RMK AO2 T11281133                                                    
24015KAKO AKO20190210082512102/10/19 08:25:31  5-MIN KAKO 101525Z AUTO 00000KT 1/2SM FZFG OVC003 M13/M13 A2997 4680 100 2400 000/00 RMK AO2 T11281128                                                   
24015KAKO AKO20190210083012102/10/19 08:30:31  5-MIN KAKO 101530Z AUTO 00000KT 1/2SM FZFG OVC003 M13/M13 A2997 4680 100 2400 000/00 RMK AO2 T11281128                                                   
24015KAKO AKO20190210083512002/10/19 08:35:31  5-MIN KAKO 101535Z AUTO 00000KT 1/2SM FZFG OVC003 M12/M13 A2996 4680 96 2500 000/00 RMK AO2 T11221128                                                    
24015KAKO AKO20190210084012102/10/19 08:40:31  5-MIN KAKO 101540Z AUTO 00000KT 1/2SM FZFG OVC003 M12/M12 A2997 4670 100 2500 000/00 RMK AO2 T11221122                                                   
24015KAKO AKO20190210084513502/10/19 08:45:31  5-MIN KAKO 101545Z AUTO 00000KT 3/4SM -SN BR OVC003 M12/M12 A2997 4670 100 2500 000/00 RMK AO2 SNB45 P0000 T11221122                                     
24015KAKO AKO20190210085513002/10/19 08:55:31  5-MIN KAKO 101555Z AUTO 00000KT 1/2SM -SN FZFG OVC002 M12/M12 A2997 4670 96 2600 000/00 RMK AO2 P0000 T11171122                                          
24015KAKO AKO20190210090012902/10/19 09:00:31  5-MIN KAKO 101600Z AUTO VRB04KT 3/4SM -SN BR OVC002 M12/M12 A2997 4670 100 2600 VRB/04 RMK AO2 P0000 T11171117                                           
24015KAKO AKO20190210100011702/10/19 10:00:31  5-MIN KAKO 101700Z AUTO VRB03KT 1SM BR OVC002 M11/M11 A2997 4670 100 2700 VRB/03 RMK AO2 T11061106                                                       
24015KAKO AKO20190210100511702/10/19 10:05:31  5-MIN KAKO 101705Z AUTO 00000KT 1SM BR OVC002 M11/M11 A2997 4670 100 2700 000/00 RMK AO2 T11061106                                                       
24015KAKO AKO20190210101512102/10/19 10:15:31  5-MIN KAKO 101715Z AUTO 00000KT 1 1/4SM BR OVC002 M11/M11 A2996 4680 100 2700 000/00 RMK AO2 T11061106                                                   
24015KAKO AKO20190210102012102/10/19 10:20:31  5-MIN KAKO 101720Z AUTO 00000KT 1 1/2SM BR OVC002 M11/M11 A2996 4680 100 2700 000/00 RMK AO2 T11061106                                                   
24015KAKO AKO20190210102512102/10/19 10:25:31  5-MIN KAKO 101725Z AUTO 00000KT 1 3/4SM BR OVC002 M11/M11 A2996 4680 100 2700 000/00 RMK AO2 T11061106                                                   
24015KAKO AKO20190210103512102/10/19 10:35:31  5-MIN KAKO 101735Z AUTO 00000KT 2 1/2SM BR OVC002 M10/M10 A2996 4680 100 2800 000/00 RMK AO2 T11001100                                                   
24015KAKO AKO20190210104012102/10/19 10:40:31  5-MIN KAKO 101740Z AUTO 00000KT 2 1/2SM BR OVC002 M09/M09 A2996 4680 100 2900 000/00 RMK AO2 T10941094                                                   
24015KAKO AKO20190210105010602/10/19 10:50:31  5-MIN KAKO 101750Z AUTO 00000KT 3SM BR OVC002 M10/M11 A2996 4690 96 2800 000/00 RMK AO2                                                                  
24015KAKO AKO20190210105511702/10/19 10:55:31  5-MIN KAKO 101755Z AUTO 00000KT 3SM BR OVC002 M10/M10 A2996 4680 100 2800 000/00 RMK AO2 T11001100                                                       
24015KAKO AKO20190210110511702/10/19 11:05:31  5-MIN KAKO 101805Z AUTO 00000KT 4SM BR OVC002 M10/M10 A2997 4670 100 2800 000/00 RMK AO2 T11001100                                                       
24015KAKO AKO20190210113011702/10/19 11:30:31  5-MIN KAKO 101830Z AUTO VRB03KT 6SM BR OVC003 M09/M09 A2996 4690 100 2900 VRB/03 RMK AO2 T10941094                                                       
24015KAKO AKO20190211202511102/11/19 20:25:31  5-MIN KAKO 120325Z AUTO VRB04KT 10SM CLR M07/M14 A2991 4730 56 3200 VRB/04 RMK AO2 T10721144                                                             
24015KAKO AKO20190212160511002/12/19 16:05:31  5-MIN KAKO 122305Z AUTO 00000KT 10SM CLR 07/M07 A3001 4630 36 4800 000/00 RMK AO2 T00721067                                                              
24015KAKO AKO20190212161011002/12/19 16:10:31  5-MIN KAKO 122310Z AUTO 00000KT 10SM CLR 07/M08 A3001 4630 33 4800 000/00 RMK AO2 T00721078                                                              
24015KAKO AKO20190212161511002/12/19 16:15:31  5-MIN KAKO 122315Z AUTO 00000KT 10SM CLR 07/M07 A3002 4630 35 4800 000/00 RMK AO2 T00721072                                                              
24015KAKO AKO20190212162011002/12/19 16:20:31  5-MIN KAKO 122320Z AUTO 00000KT 10SM CLR 07/M07 A3002 4630 38 4800 000/00 RMK AO2 T00671067                                                              
24015KAKO AKO20190212173011002/12/19 17:30:31  5-MIN KAKO 130030Z AUTO VRB05KT 10SM CLR 03/M08 A3001 4640 42 4400 VRB/05 RMK AO2 T00331083                                                              
24015KAKO AKO20190212185511002/12/19 18:55:31  5-MIN KAKO 130155Z AUTO 00000KT 10SM CLR 02/M09 A3001 4640 45 4200 000/00 RMK AO2 T00171089                                                              
24015KAKO AKO20190212234511102/12/19 23:45:31  5-MIN KAKO 130645Z AUTO 00000KT 10SM CLR M01/M08 A2992 4720 56 4000 000/00 RMK AO2 T10061083                                                             
24015KAKO AKO20190212235012802/12/19 23:50:31  5-MIN KAKO 130650Z AUTO 00000KT 10SM CLR M01/M08 A2993 4710 58 3900 000/00 RMK AO2 SLP149 T10111083 400781128                                            
24015KAKO AKO20190213152011002/13/19 15:20:31  5-MIN KAKO 132220Z AUTO 00000KT 10SM CLR 16/M13 A2951 5100 12 6400 000/00 RMK AO2 T01561133                                                              
24015KAKO AKO20190213152511002/13/19 15:25:31  5-MIN KAKO 132225Z AUTO 00000KT 10SM CLR 17/M13 A2950 5110 12 6500 000/00 RMK AO2 T01671128                                                              
24015KAKO AKO20190213154011002/13/19 15:40:31  5-MIN KAKO 132240Z AUTO VRB04KT 10SM CLR 16/M12 A2950 5110 13 6400 VRB/04 RMK AO2 T01611122                                                              
24015KAKO AKO20190213154511002/13/19 15:45:31  5-MIN KAKO 132245Z AUTO 00000KT 10SM CLR 16/M13 A2950 5110 12 6400 000/00 RMK AO2 T01611128                                                              
24015KAKO AKO20190213155011702/13/19 15:50:31  5-MIN KAKO 132250Z AUTO 00000KT 10SM CLR 16/M13 A2950 5110 12 6400 000/00 RMK AO2 SLP973 T01611128                                                       
24015KAKO AKO20190213155511002/13/19 15:55:31  5-MIN KAKO 132255Z AUTO VRB03KT 10SM CLR 16/M12 A2950 5110 14 6400 VRB/03 RMK AO2 T01611117                                                              
24015KAKO AKO20190213184012002/13/19 18:40:31  5-MIN KAKO 140140Z AUTO VRB05KT 10SM FEW080 BKN095 09/M08 A2951 5100 28 5600 VRB/05 RMK AO2 T00891083                                                    
24015KAKO AKO20190216095010302/16/19 09:50:31  5-MIN KAKO 161650Z AUTO 00000KT 9SM OVC006 M06/M06 A2952 5090 96 3900 000/00 RMK AO2                                                                     
24015KAKO AKO20190216095512002/16/19 09:55:31  5-MIN KAKO 161655Z AUTO 00000KT 9SM BKN006 OVC110 M06/M06 A2952 5090 96 3900 000/00 RMK AO2 T10561061                                                    
24015KAKO AKO20190216100512102/16/19 10:05:31  5-MIN KAKO 161705Z AUTO VRB06KT 10SM BKN006 OVC100 M06/M06 A2951 5100 96 3900 VRB/06 RMK AO2 T10561061                                                   
24015KAKO AKO20190216102512802/16/19 10:25:31  5-MIN KAKO 161725Z AUTO VRB03KT 10SM FEW006 BKN090 OVC100 M05/M06 A2950 5110 92 3900 VRB/03 RMK AO2 T10501061                                            
24015KAKO AKO20190216121011102/16/19 12:10:31  5-MIN KAKO 161910Z AUTO VRB03KT 10SM CLR M02/M06 A2948 5130 75 4300 VRB/03 RMK AO2 T10221061                                                             
24015KAKO AKO20190216123011102/16/19 12:30:31  5-MIN KAKO 161930Z AUTO VRB05KT 10SM CLR M01/M06 A2947 5130 69 4500 VRB/05 RMK AO2 T10111061                                                             
24015KAKO AKO20190216134011402/16/19 13:40:31  5-MIN KAKO 162040Z AUTO VRB04KT 10SM OVC080 M02/M07 A2948 5130 69 4400 VRB/04 RMK AO2 T10171067                                                          
24015KAKO AKO20190217225511402/17/19 22:55:31  5-MIN KAKO 180555Z AUTO 00000KT 10SM BKN090 M16/M18 A3013 4530 83 1900 000/00 RMK AO2 T11561178                                                          
24015KAKO AKO20190217231011402/17/19 23:10:31  5-MIN KAKO 180610Z AUTO 00000KT 10SM BKN095 M16/M18 A3014 4510 83 1900 000/00 RMK AO2 T11561178                                                          
24015KAKO AKO20190218070512602/18/19 07:05:31  5-MIN KAKO 181405Z AUTO 00000KT 6SM -SN BR OVC055 M17/M19 A3021 4460 83 1600 000/00 RMK AO2 P0000 T11671189                                              
24015KAKO AKO20190218074012302/18/19 07:40:31  5-MIN KAKO 181440Z AUTO VRB03KT 5SM -SN OVC060 M16/M19 A3021 4450 79 1700 VRB/03 RMK AO2 P0000 T11611189                                                 
24015KAKO AKO20190218075511302/18/19 07:55:31  5-MIN KAKO 181455Z AUTO VRB03KT 7SM OVC060 M16/M19 A3022 4440 79 1700 VRB/03 RMK AO2 T11611189                                                           
24015KAKO AKO20190218080011302/18/19 08:00:31  5-MIN KAKO 181500Z AUTO 00000KT 7SM OVC060 M16/M19 A3022 4440 79 1700 000/00 RMK AO2 T11611189                                                           
24015KAKO AKO20190218081511302/18/19 08:15:31  5-MIN KAKO 181515Z AUTO 00000KT 7SM OVC060 M16/M19 A3022 4440 79 1700 000/00 RMK AO2 T11611189                                                           
24015KAKO AKO20190218082012302/18/19 08:20:31  5-MIN KAKO 181520Z AUTO VRB03KT 6SM HZ SCT050 OVC060 M16/M19 A3022 4440 76 1800 VRB/03 RMK AO2 T11561189                                                 
24015KAKO AKO20190218083514302/18/19 08:35:31  5-MIN KAKO 181535Z AUTO 00000KT 3SM -SN FEW039 SCT049 OVC065 M16/M18 A3022 4440 79 1800 000/00 RMK AO2 SNB22 P0000 T11561183                             
24015KAKO AKO20190220001511302/20/19 00:15:31  5-MIN KAKO 200715Z AUTO 00000KT 7SM BKN120 M13/M14 A2965 4970 91 2800 000/00 RMK AO2 T11281139                                                           
24015KAKO AKO20190220011011302/20/19 01:10:31  5-MIN KAKO 200810Z AUTO 00000KT 7SM FEW120 M14/M15 A2963 4990 91 2700 000/00 RMK AO2 T11391150                                                           
24015KAKO AKO20190220011511302/20/19 01:15:31  5-MIN KAKO 200815Z AUTO 00000KT 7SM FEW120 M14/M15 A2963 4990 91 2700 000/00 RMK AO2 T11391150                                                           
24015KAKO AKO20190220012011302/20/19 01:20:31  5-MIN KAKO 200820Z AUTO 00000KT 7SM FEW120 M15/M17 A2962 4990 87 2500 000/00 RMK AO2 T11501167                                                           
24015KAKO AKO20190220151511002/20/19 15:15:31  5-MIN KAKO 202215Z AUTO VRB04KT 10SM CLR 01/M17 A2963 4990 25 4500 VRB/04 RMK AO2 T00111167                                                              
24015KAKO AKO20190220155511002/20/19 15:55:31  5-MIN KAKO 202255Z AUTO VRB06KT 10SM CLR 01/M17 A2965 4970 24 4500 VRB/06 RMK AO2 T00111172                                                              
24015KAKO AKO20190220160011002/20/19 16:00:31  5-MIN KAKO 202300Z AUTO VRB05KT 10SM CLR 01/M17 A2965 4970 24 4500 VRB/05 RMK AO2 T00111172                                                              
24015KAKO AKO20190220173011102/20/19 17:30:31  5-MIN KAKO 210030Z AUTO 00000KT 10SM CLR M01/M17 A2967 4950 28 4200 000/00 RMK AO2 T10111172                                                             
24015KAKO AKO20190220173511102/20/19 17:35:31  5-MIN KAKO 210035Z AUTO 00000KT 10SM CLR M01/M17 A2968 4950 30 4200 000/00 RMK AO2 T10111167                                                             
24015KAKO AKO20190220174011102/20/19 17:40:31  5-MIN KAKO 210040Z AUTO 00000KT 10SM CLR M02/M16 A2968 4940 34 4200 000/00 RMK AO2 T10171156                                                             
24015KAKO AKO20190220174511102/20/19 17:45:31  5-MIN KAKO 210045Z AUTO 00000KT 10SM CLR M01/M17 A2968 4940 30 4200 000/00 RMK AO2 T10111167                                                             
24015KAKO AKO20190220175011802/20/19 17:50:31  5-MIN KAKO 210050Z AUTO 00000KT 10SM CLR M01/M18 A2968 4940 27 4200 000/00 RMK AO2 SLP102 T10111178                                                      
24015KAKO AKO20190220175511102/20/19 17:55:31  5-MIN KAKO 210055Z AUTO 00000KT 10SM CLR M01/M18 A2968 4940 27 4200 000/00 RMK AO2 T10111178                                                             
24015KAKO AKO20190220180011102/20/19 18:00:31  5-MIN KAKO 210100Z AUTO 00000KT 10SM CLR M01/M18 A2968 4940 26 4200 000/00 RMK AO2 T10111183                                                             
24015KAKO AKO20190220180511102/20/19 18:05:31  5-MIN KAKO 210105Z AUTO 00000KT 10SM CLR M02/M18 A2969 4940 28 4100 000/00 RMK AO2 T10171178                                                             
24015KAKO AKO20190220181011102/20/19 18:10:31  5-MIN KAKO 210110Z AUTO 00000KT 10SM CLR M02/M18 A2969 4940 27 4100 000/00 RMK AO2 T10171183                                                             
24015KAKO AKO20190220181511102/20/19 18:15:31  5-MIN KAKO 210115Z AUTO 00000KT 10SM CLR M02/M18 A2969 4940 27 4100 000/00 RMK AO2 T10171183                                                             
24015KAKO AKO20190220182011102/20/19 18:20:31  5-MIN KAKO 210120Z AUTO 00000KT 10SM CLR M02/M18 A2969 4930 28 4100 000/00 RMK AO2 T10221183                                                             
24015KAKO AKO20190220182511102/20/19 18:25:31  5-MIN KAKO 210125Z AUTO 00000KT 10SM CLR M02/M18 A2969 4930 27 4100 000/00 RMK AO2 T10171183                                                             
24015KAKO AKO20190220211011402/20/19 21:10:31  5-MIN KAKO 210410Z AUTO VRB06KT 10SM SCT075 M06/M13 A2975 4870 57 3500 VRB/06 RMK AO2 T10611133                                                          
24015KAKO AKO20190221124511402/21/19 12:45:31  5-MIN KAKO 211945Z AUTO VRB06KT 10SM FEW019 M02/M08 A2976 4860 66 4000 VRB/06 RMK AO2 T10221078                                                          
24015KAKO AKO20190224041011102/24/19 04:10:31  5-MIN KAKO 241110Z AUTO VRB04KT 10SM CLR M11/M16 A3011 4540 67 2500 VRB/04 RMK AO2 T11061156                                                             
24015KAKO AKO20190224042011102/24/19 04:20:31  5-MIN KAKO 241120Z AUTO 00000KT 10SM CLR M08/M15 A3011 4550 59 2800 000/00 RMK AO2 T10831150                                                             
24015KAKO AKO20190225085511602/25/19 08:55:31  5-MIN KAKO 251555Z AUTO 00000KT 4SM BR OVC002 M09/M10 A2997 4670 92 2900 000/00 RMK AO2 T10891100                                                        
24015KAKO AKO20190225093512102/25/19 09:35:31  5-MIN KAKO 251635Z AUTO 00000KT 10SM FEW003 M08/M08 A2996 4680 100 3000 000/00 RMK AO2 I1001 T10831083                                                   
24015KAKO AKO20190225094011702/25/19 09:40:31  5-MIN KAKO 251640Z AUTO 00000KT 10SM CLR M08/M08 A2997 4680 96 3100 000/00 RMK AO2 I1001 T10781083                                                       
24015KAKO AKO20190225101511702/25/19 10:15:31  5-MIN KAKO 251715Z AUTO 00000KT 10SM CLR M07/M07 A2995 4690 96 3200 000/00 RMK AO2 I1000 T10671072                                                       
24015KAKO AKO20190225102011802/25/19 10:20:31  5-MIN KAKO 251720Z AUTO 00000KT 10SM CLR M07/M07 A2995 4690 100 3200 000/00 RMK AO2 I1000 T10671067                                                      
24015KAKO AKO20190225121511102/25/19 12:15:31  5-MIN KAKO 251915Z AUTO VRB05KT 10SM CLR M03/M04 A2996 4680 88 3700 VRB/05 RMK AO2 T10281044                                                             
24015KAKO AKO20190225122511102/25/19 12:25:31  5-MIN KAKO 251925Z AUTO 00000KT 10SM CLR M02/M04 A2995 4690 81 3800 000/00 RMK AO2 T10171044                                                             
24015KAKO AKO20190226123011102/26/19 12:30:31  5-MIN KAKO 261930Z AUTO VRB03KT 10SM CLR M03/M04 A2992 4720 88 3700 VRB/03 RMK AO2 T10281044                                                             
24015KAKO AKO20190226130511102/26/19 13:05:31  5-MIN KAKO 262005Z AUTO 00000KT 10SM CLR M02/M03 A2990 4730 88 3900 000/00 RMK AO2 T10171033                                                             
24015KAKO AKO20190226131011102/26/19 13:10:31  5-MIN KAKO 262010Z AUTO 00000KT 10SM CLR M01/M03 A2990 4740 85 4000 000/00 RMK AO2 T10111033                                                             
24015KAKO AKO20190226131511102/26/19 13:15:31  5-MIN KAKO 262015Z AUTO 00000KT 10SM CLR M01/M03 A2990 4740 85 4000 000/00 RMK AO2 T10111033                                                             
24015KAKO AKO20190226132011102/26/19 13:20:31  5-MIN KAKO 262020Z AUTO 00000KT 10SM CLR M01/M03 A2990 4740 81 4000 000/00 RMK AO2 T10061033                                                             
24015KAKO AKO20190226132511002/26/19 13:25:31  5-MIN KAKO 262025Z AUTO 00000KT 10SM CLR 01/M03 A2989 4740 78 4200 000/00 RMK AO2 T00061028                                                              
24015KAKO AKO20190226134011002/26/19 13:40:31  5-MIN KAKO 262040Z AUTO 00000KT 10SM CLR 01/M03 A2990 4740 75 4200 000/00 RMK AO2 T00061033                                                              
24015KAKO AKO20190226134511002/26/19 13:45:31  5-MIN KAKO 262045Z AUTO 00000KT 10SM CLR 02/M03 A2990 4740 72 4300 000/00 RMK AO2 T00171028                                                              
24015KAKO AKO20190226141011002/26/19 14:10:31  5-MIN KAKO 262110Z AUTO VRB06KT 10SM CLR 02/M03 A2990 4740 72 4300 VRB/06 RMK AO2 T00171028                                                              
24015KAKO AKO20190226141511002/26/19 14:15:31  5-MIN KAKO 262115Z AUTO VRB03KT 10SM CLR 01/M03 A2990 4740 72 4200 VRB/03 RMK AO2 T00111033                                                              
24015KAKO AKO20190226144011002/26/19 14:40:31  5-MIN KAKO 262140Z AUTO VRB03KT 10SM CLR 02/M03 A2990 4740 67 4400 VRB/03 RMK AO2 T00221033                                                              
24015KAKO AKO20190226144511002/26/19 14:45:31  5-MIN KAKO 262145Z AUTO 00000KT 10SM CLR 02/M03 A2990 4740 67 4400 000/00 RMK AO2 T00221033                                                              
24015KAKO AKO20190226145511002/26/19 14:55:31  5-MIN KAKO 262155Z AUTO VRB04KT 10SM CLR 03/M03 A2990 4740 67 4400 VRB/04 RMK AO2 T00281028                                                              
24015KAKO AKO20190226150511002/26/19 15:05:31  5-MIN KAKO 262205Z AUTO 00000KT 10SM CLR 03/M03 A2990 4740 67 4400 000/00 RMK AO2 T00281028                                                              
24015KAKO AKO20190226151011002/26/19 15:10:31  5-MIN KAKO 262210Z AUTO 00000KT 10SM CLR 03/M03 A2989 4750 67 4400 000/00 RMK AO2 T00281028                                                              
24015KAKO AKO20190226170011702/26/19 17:00:31  5-MIN KAKO 270000Z AUTO 00000KT 10SM CLR 01/M03 A2991 4730 75 4200 000/00 RMK AO2 PRESRR T00061033                                                       
24015KAKO AKO20190226170511002/26/19 17:05:31  5-MIN KAKO 270005Z AUTO 00000KT 10SM CLR 01/M04 A2991 4730 69 4200 000/00 RMK AO2 T00111039                                                              
24015KAKO AKO20190227073514002/27/19 07:35:31  5-MIN KAKO 271435Z AUTO 00000KT 7SM OVC009 M16/M18 A3020 4460 83 1800 000/00 RMK AO2 SNB21E29 CIG 008V012 P0000 T11561178                                
24015KAKO AKO20190227092011102/27/19 09:20:31  5-MIN KAKO 271620Z AUTO VRB04KT 10SM CLR M12/M13 A3019 4470 91 2300 VRB/04 RMK AO2 T11171128                                                             
24015KAKO AKO20190227095011802/27/19 09:50:31  5-MIN KAKO 271650Z AUTO VRB04KT 10SM CLR M10/M12 A3018 4480 84 2500 VRB/04 RMK AO2 SLP286 T11001122                                                      
24015KAKO AKO20190227101511402/27/19 10:15:31  5-MIN KAKO 271715Z AUTO 00000KT 10SM BKN014 M09/M12 A3018 4480 84 2600 000/00 RMK AO2 T10941117                                                          
24015KAKO AKO20190227103011402/27/19 10:30:31  5-MIN KAKO 271730Z AUTO VRB04KT 10SM OVC014 M09/M11 A3016 4490 84 2700 VRB/04 RMK AO2 T10891111                                                          
24015KAKO AKO20190227105511402/27/19 10:55:31  5-MIN KAKO 271755Z AUTO VRB03KT 10SM BKN013 M08/M11 A3016 4500 77 2800 VRB/03 RMK AO2 T10781111                                                          
24015KAKO AKO20190227110011402/27/19 11:00:31  5-MIN KAKO 271800Z AUTO 00000KT 10SM BKN014 M08/M11 A3016 4500 80 2800 000/00 RMK AO2 T10781106                                                          
24015KAKO AKO20190227110511402/27/19 11:05:31  5-MIN KAKO 271805Z AUTO 00000KT 10SM BKN014 M08/M11 A3015 4500 80 2800 000/00 RMK AO2 T10781106                                                          
24015KAKO AKO20190227111011402/27/19 11:10:31  5-MIN KAKO 271810Z AUTO VRB04KT 10SM BKN014 M08/M11 A3016 4500 80 2800 VRB/04 RMK AO2 T10781106                                                          
24015KAKO AKO20190227111511402/27/19 11:15:31  5-MIN KAKO 271815Z AUTO 00000KT 10SM BKN014 M08/M11 A3016 4500 80 2800 000/00 RMK AO2 T10781106                                                          
24015KAKO AKO20190227112011402/27/19 11:20:31  5-MIN KAKO 271820Z AUTO 00000KT 10SM BKN014 M08/M11 A3016 4500 80 2800 000/00 RMK AO2 T10781106                                                          
24015KAKO AKO20190227112511402/27/19 11:25:31  5-MIN KAKO 271825Z AUTO 00000KT 10SM BKN015 M08/M11 A3015 4500 80 2800 000/00 RMK AO2 T10781106                                                          
24015KAKO AKO20190227113011402/27/19 11:30:31  5-MIN KAKO 271830Z AUTO VRB03KT 10SM OVC015 M08/M11 A3015 4510 80 2800 VRB/03 RMK AO2 T10781106                                                          
24015KAKO AKO20190227114011402/27/19 11:40:31  5-MIN KAKO 271840Z AUTO VRB03KT 10SM OVC016 M07/M10 A3015 4510 81 2900 VRB/03 RMK AO2 T10721100                                                          
24015KAKO AKO20190227115012102/27/19 11:50:31  5-MIN KAKO 271850Z AUTO VRB04KT 10SM OVC016 M07/M09 A3015 4510 81 3000 VRB/04 RMK AO2 SLP275 T10671094                                                   
24015KAKO AKO20190227120511402/27/19 12:05:31  5-MIN KAKO 271905Z AUTO 00000KT 10SM OVC016 M07/M10 A3014 4520 77 3000 000/00 RMK AO2 T10671100                                                          
24015KAKO AKO20190227121511402/27/19 12:15:31  5-MIN KAKO 271915Z AUTO 00000KT 10SM OVC016 M06/M09 A3013 4530 77 3100 000/00 RMK AO2 T10611094                                                          
24015KAKO AKO20190227122011402/27/19 12:20:31  5-MIN KAKO 271920Z AUTO VRB03KT 10SM OVC016 M06/M09 A3013 4530 77 3200 VRB/03 RMK AO2 T10561089                                                          
24015KAKO AKO20190227123511402/27/19 12:35:31  5-MIN KAKO 271935Z AUTO VRB03KT 10SM BKN017 M06/M09 A3011 4540 77 3200 VRB/03 RMK AO2 T10561089                                                          
24015KAKO AKO20190228092011102/28/19 09:20:31  5-MIN KAKO 281620Z AUTO 00000KT 10SM CLR M01/M05 A2998 4660 72 3900 000/00 RMK AO2 T10061050                                                             
24015KAKO AKO20190228092511002/28/19 09:25:31  5-MIN KAKO 281625Z AUTO 00000KT 10SM CLR 00/M04 A2998 4670 72 4000 000/00 RMK AO2 T00001044                                                              
24015KAKO AKO20190228093011002/28/19 09:30:31  5-MIN KAKO 281630Z AUTO 00000KT 10SM CLR 01/M04 A2998 4670 69 4100 000/00 RMK AO2 T00061044                                                              
24015KAKO AKO20190228093511002/28/19 09:35:31  5-MIN KAKO 281635Z AUTO 00000KT 10SM CLR 01/M04 A2998 4670 72 4100 000/00 RMK AO2 T00061039                                                              
24015KAKO AKO20190228094011002/28/19 09:40:31  5-MIN KAKO 281640Z AUTO VRB03KT 10SM CLR 01/M04 A2997 4670 69 4200 VRB/03 RMK AO2 T00111039                                                              
24015KAKO AKO20190228095011702/28/19 09:50:31  5-MIN KAKO 281650Z AUTO VRB03KT 10SM CLR 02/M04 A2997 4670 66 4200 VRB/03 RMK AO2 SLP187 T00171039                                                       
24015KAKO AKO20190228102511002/28/19 10:25:31  5-MIN KAKO 281725Z AUTO VRB03KT 10SM CLR 03/M04 A2996 4680 61 4400 VRB/03 RMK AO2 T00281039                                                              
24015KAKO AKO20190228104511002/28/19 10:45:31  5-MIN KAKO 281745Z AUTO VRB04KT 10SM CLR 03/M04 A2996 4680 61 4400 VRB/04 RMK AO2 T00281039                                                              
24015KAKO AKO20190228105014102/28/19 10:50:31  5-MIN KAKO 281750Z AUTO VRB03KT 10SM CLR 03/M04 A2996 4680 61 4400 VRB/03 RMK AO2 SLP179 I6000 T00281039 10028 21083 52011                               
24015KAKO AKO20190228111011002/28/19 11:10:31  5-MIN KAKO 281810Z AUTO 00000KT 10SM CLR 03/M03 A2996 4680 61 4400 000/00 RMK AO2 T00331033                                                              
24015KAKO AKO20190301012011103/01/19 01:20:31  5-MIN KAKO 010820Z AUTO VRB03KT 10SM CLR M02/M04 A2982 4820 88 3900 VRB/03 RMK AO2 T10221039                                                             
24015KAKO AKO20190301012511103/01/19 01:25:31  5-MIN KAKO 010825Z AUTO VRB03KT 10SM CLR M02/M04 A2982 4810 85 3900 VRB/03 RMK AO2 T10221044                                                             
24015KAKO AKO20190303071512103/03/19 07:15:31  5-MIN KAKO 031415Z AUTO 00000KT 10SM BKN041 OVC085 M20/M22 A3025 4420 83 1200 000/00 RMK AO2 T12001222                                                   
24015KAKO AKO20190303072012103/03/19 07:20:31  5-MIN KAKO 031420Z AUTO 00000KT 10SM BKN045 OVC085 M20/M22 A3025 4420 83 1100 000/00 RMK AO2 T12001222                                                   
24015KAKO AKO20190303072512703/03/19 07:25:31  5-MIN KAKO 031425Z AUTO 00000KT 9SM BKN045 BKN070 OVC085 M20/M22 A3025 4420 83 1200 000/00 RMK AO2 T12001222                                             
24015KAKO AKO20190303073012703/03/19 07:30:31  5-MIN KAKO 031430Z AUTO 00000KT 9SM BKN047 BKN070 OVC080 M20/M22 A3025 4420 83 1200 000/00 RMK AO2 T12001222                                             
24015KAKO AKO20190303073512103/03/19 07:35:31  5-MIN KAKO 031435Z AUTO 00000KT 10SM SCT047 OVC080 M20/M22 A3025 4420 83 1200 000/00 RMK AO2 T12001222                                                   
24015KAKO AKO20190303084511403/03/19 08:45:31  5-MIN KAKO 031545Z AUTO VRB03KT 10SM OVC035 M18/M22 A3026 4410 75 1400 VRB/03 RMK AO2 T11831217                                                          
24015KAKO AKO20190303094011103/03/19 09:40:31  5-MIN KAKO 031640Z AUTO VRB05KT 10SM CLR M18/M22 A3025 4410 72 1400 VRB/05 RMK AO2 T11781217                                                             
24015KAKO AKO20190303100511403/03/19 10:05:31  5-MIN KAKO 031705Z AUTO VRB05KT 10SM FEW110 M18/M21 A3025 4410 79 1400 VRB/05 RMK AO2 T11831211                                                          
24015KAKO AKO20190303104011403/03/19 10:40:31  5-MIN KAKO 031740Z AUTO VRB04KT 10SM BKN110 M17/M21 A3025 4420 72 1500 VRB/04 RMK AO2 T11721211                                                          
24015KAKO AKO20190303111011103/03/19 11:10:31  5-MIN KAKO 031810Z AUTO 00000KT 10SM CLR M17/M21 A3024 4420 72 1600 000/00 RMK AO2 T11671206                                                             
24015KAKO AKO20190303113511103/03/19 11:35:31  5-MIN KAKO 031835Z AUTO VRB03KT 10SM CLR M17/M21 A3023 4430 72 1600 VRB/03 RMK AO2 T11671206                                                             
24015KAKO AKO20190303114011103/03/19 11:40:31  5-MIN KAKO 031840Z AUTO VRB04KT 10SM CLR M17/M19 A3024 4430 79 1600 VRB/04 RMK AO2 T11671194                                                             
24015KAKO AKO20190303115511103/03/19 11:55:31  5-MIN KAKO 031855Z AUTO VRB04KT 10SM CLR M17/M21 A3022 4440 72 1600 VRB/04 RMK AO2 T11671206                                                             
24015KAKO AKO20190303123512103/03/19 12:35:31  5-MIN KAKO 031935Z AUTO VRB04KT 10SM FEW016 OVC090 M16/M19 A3021 4450 76 1700 VRB/04 RMK AO2 T11611194                                                   
24015KAKO AKO20190305103511303/05/19 10:35:31  5-MIN KAKO 051735Z AUTO VRB04KT 10SM CLR M07/M13 A3034 4330 62 2700 VRB/04 RMK AO2 T10721133 $                                                           
24015KAKO AKO20190305105511303/05/19 10:55:31  5-MIN KAKO 051755Z AUTO 00000KT 10SM CLR M07/M13 A3034 4340 59 2800 000/00 RMK AO2 T10671133 $                                                           
24015KAKO AKO20190305110011303/05/19 11:00:31  5-MIN KAKO 051800Z AUTO 00000KT 10SM CLR M07/M13 A3034 4340 62 2800 000/00 RMK AO2 T10671128 $                                                           
24015KAKO AKO20190305110511303/05/19 11:05:31  5-MIN KAKO 051805Z AUTO VRB03KT 10SM CLR M07/M13 A3034 4340 59 2800 VRB/03 RMK AO2 T10671133 $                                                           
24015KAKO AKO20190305111011303/05/19 11:10:31  5-MIN KAKO 051810Z AUTO 00000KT 10SM CLR M06/M13 A3033 4340 57 2900 000/00 RMK AO2 T10561128 $                                                           
24015KAKO AKO20190305111511303/05/19 11:15:31  5-MIN KAKO 051815Z AUTO 00000KT 10SM CLR M06/M12 A3033 4340 62 2900 000/00 RMK AO2 T10611122 $                                                           
24015KAKO AKO20190305112011303/05/19 11:20:31  5-MIN KAKO 051820Z AUTO VRB04KT 10SM CLR M06/M12 A3033 4350 62 2900 VRB/04 RMK AO2 T10611122 $                                                           
24015KAKO AKO20190305112511303/05/19 11:25:31  5-MIN KAKO 051825Z AUTO 00000KT 10SM CLR M06/M13 A3032 4350 57 2900 000/00 RMK AO2 T10561128 $                                                           
24015KAKO AKO20190305113011303/05/19 11:30:31  5-MIN KAKO 051830Z AUTO 00000KT 10SM CLR M06/M12 A3032 4350 59 2900 000/00 RMK AO2 T10561122 $                                                           
24015KAKO AKO20190305113511303/05/19 11:35:31  5-MIN KAKO 051835Z AUTO 00000KT 10SM CLR M06/M12 A3032 4350 59 2900 000/00 RMK AO2 T10561122 $                                                           
24015KAKO AKO20190305114011303/05/19 11:40:31  5-MIN KAKO 051840Z AUTO 00000KT 10SM CLR M05/M12 A3032 4350 60 3000 000/00 RMK AO2 T10501117 $                                                           
24015KAKO AKO20190305115012003/05/19 11:50:31  5-MIN KAKO 051850Z AUTO VRB03KT 10SM CLR M05/M12 A3032 4350 60 3000 VRB/03 RMK AO2 SLP337 T10501117 $                                                    
24015KAKO AKO20190305121011303/05/19 12:10:31  5-MIN KAKO 051910Z AUTO VRB05KT 10SM CLR M04/M12 A3031 4360 55 3200 VRB/05 RMK AO2 T10391117 $                                                           
24015KAKO AKO20190305122011303/05/19 12:20:31  5-MIN KAKO 051920Z AUTO 00000KT 10SM CLR M04/M12 A3031 4360 57 3100 000/00 RMK AO2 T10441117 $                                                           
24015KAKO AKO20190305123511303/05/19 12:35:31  5-MIN KAKO 051935Z AUTO VRB03KT 10SM CLR M04/M11 A3030 4370 57 3200 VRB/03 RMK AO2 T10391111 $                                                           
24015KAKO AKO20190305124011303/05/19 12:40:31  5-MIN KAKO 051940Z AUTO VRB03KT 10SM CLR M04/M11 A3030 4370 57 3200 VRB/03 RMK AO2 T10391111 $                                                           
24015KAKO AKO20190305130011303/05/19 13:00:31  5-MIN KAKO 052000Z AUTO 00000KT 10SM CLR M03/M11 A3028 4380 57 3300 000/00 RMK AO2 T10331106 $                                                           
24015KAKO AKO20190305131011303/05/19 13:10:31  5-MIN KAKO 052010Z AUTO 00000KT 10SM CLR M04/M11 A3028 4390 60 3200 000/00 RMK AO2 T10391106 $                                                           
24015KAKO AKO20190306100011103/06/19 10:00:31  5-MIN KAKO 061700Z AUTO VRB04KT 10SM CLR M01/M06 A2994 4700 69 4000 VRB/04 RMK AO2 T10061056                                                             
24015KAKO AKO20190306100511103/06/19 10:05:31  5-MIN KAKO 061705Z AUTO VRB04KT 10SM CLR M01/M06 A2994 4700 69 4000 VRB/04 RMK AO2 T10061056                                                             
24015KAKO AKO20190306104011003/06/19 10:40:31  5-MIN KAKO 061740Z AUTO VRB04KT 10SM CLR 01/M04 A2995 4690 66 4200 VRB/04 RMK AO2 T00111044                                                              
24015KAKO AKO20190306105013503/06/19 10:50:31  5-MIN KAKO 061750Z AUTO 00000KT 10SM CLR 02/M04 A2996 4680 64 4200 000/00 RMK AO2 SLP174 T00171044 10017 21083 58003                                     
24015KAKO AKO20190306105511003/06/19 10:55:31  5-MIN KAKO 061755Z AUTO 00000KT 10SM CLR 02/M04 A2996 4690 64 4200 000/00 RMK AO2 T00171044                                                              
24015KAKO AKO20190306110011003/06/19 11:00:31  5-MIN KAKO 061800Z AUTO 00000KT 10SM CLR 02/M04 A2995 4690 64 4300 000/00 RMK AO2 T00221039                                                              
24015KAKO AKO20190306110511003/06/19 11:05:31  5-MIN KAKO 061805Z AUTO VRB03KT 10SM CLR 02/M04 A2995 4690 64 4300 VRB/03 RMK AO2 T00221039                                                              
24015KAKO AKO20190306111011003/06/19 11:10:31  5-MIN KAKO 061810Z AUTO VRB04KT 10SM CLR 03/M04 A2994 4700 61 4400 VRB/04 RMK AO2 T00281039                                                              
24015KAKO AKO20190306111511003/06/19 11:15:31  5-MIN KAKO 061815Z AUTO 00000KT 10SM CLR 02/M03 A2994 4700 67 4300 000/00 RMK AO2 T00221033                                                              
24015KAKO AKO20190306112011003/06/19 11:20:31  5-MIN KAKO 061820Z AUTO 00000KT 10SM CLR 02/M03 A2994 4710 67 4300 000/00 RMK AO2 T00221033                                                              
24015KAKO AKO20190306112511003/06/19 11:25:31  5-MIN KAKO 061825Z AUTO 00000KT 10SM CLR 03/M03 A2993 4710 61 4500 000/00 RMK AO2 T00331033                                                              
24015KAKO AKO20190306120511003/06/19 12:05:31  5-MIN KAKO 061905Z AUTO VRB05KT 10SM CLR 04/M03 A2992 4720 59 4600 VRB/05 RMK AO2 T00391033                                                              
24015KAKO AKO20190308043011903/08/19 04:30:31  5-MIN KAKO 081130Z AUTO 00000KT 6SM BR CLR M01/M01 A2977 4860 96 4200 000/00 RMK AO2 I1000 T10061011                                                     
24015KAKO AKO20190308043512003/08/19 04:35:31  5-MIN KAKO 081135Z AUTO 00000KT 6SM BR CLR M01/M01 A2977 4860 100 4100 000/00 RMK AO2 I1000 T10111011                                                    
24015KAKO AKO20190308044011603/08/19 04:40:31  5-MIN KAKO 081140Z AUTO 00000KT 7SM CLR M01/M01 A2977 4860 96 4200 000/00 RMK AO2 I1000 T10061011                                                        
24015KAKO AKO20190308044511603/08/19 04:45:31  5-MIN KAKO 081145Z AUTO 00000KT 7SM CLR M01/M02 A2978 4850 96 4100 000/00 RMK AO2 I1000 T10111017                                                        
24015KAKO AKO20190308073010803/08/19 07:30:31  5-MIN KAKO 081430Z AUTO 00000KT 9SM CLR 03/01 A2977 4860 89 4600 000/00 RMK AO2 T00280011                                                                
24015KAKO AKO20190308074010903/08/19 07:40:31  5-MIN KAKO 081440Z AUTO 00000KT 10SM CLR 04/02 A2977 4860 85 4700 000/00 RMK AO2 T00390017                                                               
24015KAKO AKO20190308194511803/08/19 19:45:31  5-MIN KAKO 090245Z AUTO VRB05KT 2SM BR CLR 01/00 A2940 5200 96 4700 VRB/05 RMK AO2 PRESRR T00060000                                                      
24015KAKO AKO20190308213511103/08/19 21:35:31  5-MIN KAKO 090435Z AUTO VRB05KT 9SM SCT110 01/01 A2936 5240 96 4900 VRB/05 RMK AO2 T00110006                                                             
24015KAKO AKO20190309225511403/09/19 22:55:31  5-MIN KAKO 100555Z AUTO 00000KT 10SM OVC100 M03/M07 A2997 4670 78 3600 000/00 RMK AO2 T10331067                                                          
24015KAKO AKO20190309230011403/09/19 23:00:31  5-MIN KAKO 100600Z AUTO 00000KT 10SM OVC100 M03/M07 A2997 4670 78 3600 000/00 RMK AO2 T10331067                                                          
24015KAKO AKO20190309230511403/09/19 23:05:31  5-MIN KAKO 100605Z AUTO 00000KT 10SM OVC100 M04/M07 A2997 4670 81 3500 000/00 RMK AO2 T10391067                                                          
24015KAKO AKO20190309231011403/09/19 23:10:31  5-MIN KAKO 100610Z AUTO 00000KT 10SM OVC100 M04/M07 A2997 4670 84 3500 000/00 RMK AO2 T10441067                                                          
24015KAKO AKO20190309233512103/09/19 23:35:31  5-MIN KAKO 100635Z AUTO 00000KT 10SM SCT085 OVC100 M04/M06 A2997 4670 85 3500 000/00 RMK AO2 T10391061                                                   
24015KAKO AKO20190311082011103/11/19 08:20:31  5-MIN KAKO 111520Z AUTO 00000KT 10SM CLR M02/M04 A3018 4480 85 3600 000/00 RMK AO2 T10171039                                                             
24015KAKO AKO20190311082511403/11/19 08:25:31  5-MIN KAKO 111525Z AUTO 00000KT 10SM FEW120 M01/M04 A3018 4480 81 3600 000/00 RMK AO2 T10111039                                                          
24015KAKO AKO20190311083011403/11/19 08:30:31  5-MIN KAKO 111530Z AUTO 00000KT 10SM SCT120 M01/M04 A3019 4470 81 3600 000/00 RMK AO2 T10111039                                                          
24015KAKO AKO20190311083511403/11/19 08:35:31  5-MIN KAKO 111535Z AUTO 00000KT 10SM SCT110 M01/M04 A3018 4480 81 3600 000/00 RMK AO2 T10111039                                                          
24015KAKO AKO20190311084511303/11/19 08:45:31  5-MIN KAKO 111545Z AUTO VRB03KT 10SM BKN110 00/M03 A3018 4480 78 3800 VRB/03 RMK AO2 T00001033                                                           
24015KAKO AKO20190311093011003/11/19 09:30:31  5-MIN KAKO 111630Z AUTO VRB03KT 10SM CLR 02/M03 A3017 4490 69 4100 VRB/03 RMK AO2 T00221028                                                              
24015KAKO AKO20190311094011003/11/19 09:40:31  5-MIN KAKO 111640Z AUTO 00000KT 10SM CLR 02/M03 A3018 4480 72 4000 000/00 RMK AO2 T00171028                                                              
24015KAKO AKO20190311095011703/11/19 09:50:31  5-MIN KAKO 111650Z AUTO 00000KT 10SM CLR 02/M03 A3017 4490 69 4100 000/00 RMK AO2 SLP235 T00221028                                                       
24015KAKO AKO20190311095511303/11/19 09:55:31  5-MIN KAKO 111655Z AUTO 00000KT 10SM FEW110 03/M03 A3016 4500 67 4100 000/00 RMK AO2 T00281028                                                           
24015KAKO AKO20190311100011303/11/19 10:00:31  5-MIN KAKO 111700Z AUTO 00000KT 10SM SCT110 03/M02 A3017 4490 67 4200 000/00 RMK AO2 T00331022                                                           
24015KAKO AKO20190311100511303/11/19 10:05:31  5-MIN KAKO 111705Z AUTO 00000KT 10SM BKN100 03/M02 A3017 4490 67 4200 000/00 RMK AO2 T00331022                                                           
24015KAKO AKO20190311101011303/11/19 10:10:31  5-MIN KAKO 111710Z AUTO 00000KT 10SM BKN100 03/M02 A3017 4490 69 4100 000/00 RMK AO2 T00281022                                                           
24015KAKO AKO20190311101511303/11/19 10:15:31  5-MIN KAKO 111715Z AUTO 00000KT 10SM BKN100 03/M03 A3017 4490 64 4200 000/00 RMK AO2 T00331028                                                           
24015KAKO AKO20190311102011303/11/19 10:20:31  5-MIN KAKO 111720Z AUTO 00000KT 10SM OVC100 04/M03 A3017 4490 62 4300 000/00 RMK AO2 T00391028                                                           
24015KAKO AKO20190311102511303/11/19 10:25:31  5-MIN KAKO 111725Z AUTO VRB03KT 10SM OVC100 04/M02 A3018 4480 64 4300 VRB/03 RMK AO2 T00391022                                                           
24015KAKO AKO20190311103011303/11/19 10:30:31  5-MIN KAKO 111730Z AUTO 00000KT 10SM OVC110 04/M03 A3018 4480 62 4300 000/00 RMK AO2 T00391028                                                           
24015KAKO AKO20190311103511303/11/19 10:35:31  5-MIN KAKO 111735Z AUTO 00000KT 10SM BKN110 04/M03 A3018 4480 62 4300 000/00 RMK AO2 T00391028                                                           
24015KAKO AKO20190311104011303/11/19 10:40:31  5-MIN KAKO 111740Z AUTO 00000KT 10SM BKN110 04/M03 A3018 4480 59 4300 000/00 RMK AO2 T00441028                                                           
24015KAKO AKO20190311104511303/11/19 10:45:31  5-MIN KAKO 111745Z AUTO 00000KT 10SM BKN110 04/M03 A3017 4490 59 4300 000/00 RMK AO2 T00441028                                                           
24015KAKO AKO20190311110011303/11/19 11:00:31  5-MIN KAKO 111800Z AUTO VRB03KT 10SM SCT110 06/M02 A3017 4490 57 4500 VRB/03 RMK AO2 T00561022                                                           
24015KAKO AKO20190311110511303/11/19 11:05:31  5-MIN KAKO 111805Z AUTO VRB04KT 10SM SCT110 05/M02 A3017 4490 59 4400 VRB/04 RMK AO2 T00501022                                                           
24015KAKO AKO20190311112012703/11/19 11:20:31  5-MIN KAKO 111820Z AUTO 00000KT 10SM FEW060 SCT075 BKN090 05/M02 A3016 4490 59 4400 000/00 RMK AO2 T00501022                                             
24015KAKO AKO20190311113511303/11/19 11:35:31  5-MIN KAKO 111835Z AUTO VRB03KT 10SM OVC090 06/M02 A3015 4510 57 4500 VRB/03 RMK AO2 T00561022                                                           
24015KAKO AKO20190311114011303/11/19 11:40:31  5-MIN KAKO 111840Z AUTO 00000KT 10SM OVC085 06/M02 A3015 4510 55 4600 000/00 RMK AO2 T00611022                                                           
24015KAKO AKO20190311114511303/11/19 11:45:31  5-MIN KAKO 111845Z AUTO 00000KT 10SM OVC090 06/M02 A3015 4510 55 4600 000/00 RMK AO2 T00611022                                                           
24015KAKO AKO20190311115012003/11/19 11:50:31  5-MIN KAKO 111850Z AUTO 00000KT 10SM OVC090 06/M02 A3014 4510 55 4600 000/00 RMK AO2 SLP219 T00611022                                                    
24015KAKO AKO20190311121011303/11/19 12:10:31  5-MIN KAKO 111910Z AUTO VRB03KT 10SM SCT090 06/M02 A3012 4530 57 4500 VRB/03 RMK AO2 T00561022                                                           
24015KAKO AKO20190311122012003/11/19 12:20:31  5-MIN KAKO 111920Z AUTO VRB03KT 10SM FEW090 BKN110 06/M02 A3012 4540 57 4600 VRB/03 RMK AO2 T00611017                                                    
24015KAKO AKO20190311122511303/11/19 12:25:31  5-MIN KAKO 111925Z AUTO 00000KT 10SM BKN110 07/M02 A3011 4540 55 4700 000/00 RMK AO2 T00671017                                                           
24015KAKO AKO20190311123011303/11/19 12:30:31  5-MIN KAKO 111930Z AUTO 00000KT 10SM BKN110 07/M02 A3011 4540 55 4700 000/00 RMK AO2 T00671017                                                           
24015KAKO AKO20190311123511303/11/19 12:35:31  5-MIN KAKO 111935Z AUTO 00000KT 10SM BKN110 07/M02 A3010 4550 53 4700 000/00 RMK AO2 T00721017                                                           
24015KAKO AKO20190311125511303/11/19 12:55:31  5-MIN KAKO 111955Z AUTO VRB06KT 10SM BKN100 08/M01 A3009 4570 51 4900 VRB/06 RMK AO2 T00831011                                                           
24015KAKO AKO20190312013511003/12/19 01:35:31  5-MIN KAKO 120835Z AUTO VRB03KT 10SM CLR 01/M02 A2995 4690 85 4100 VRB/03 RMK AO2 T00061017                                                              
24015KAKO AKO20190312014011003/12/19 01:40:31  5-MIN KAKO 120840Z AUTO 00000KT 10SM CLR 00/M02 A2995 4690 85 4000 000/00 RMK AO2 T00001022                                                              
24015KAKO AKO20190312014511003/12/19 01:45:31  5-MIN KAKO 120845Z AUTO 00000KT 10SM CLR 02/M02 A2995 4690 78 4200 000/00 RMK AO2 T00171017                                                              
24015KAKO AKO20190312040012603/12/19 04:00:31  5-MIN KAKO 121100Z AUTO VRB04KT 10SM FEW055 SCT070 BKN090 04/00 A2987 4770 76 4600 VRB/04 RMK AO2 T00390000                                              
24015KAKO AKO20190312045511903/12/19 04:55:31  5-MIN KAKO 121155Z AUTO 00000KT 10SM BKN070 OVC085 03/01 A2986 4770 82 4500 000/00 RMK AO2 T00330006                                                     
24015KAKO AKO20190312054011203/12/19 05:40:31  5-MIN KAKO 121240Z AUTO 00000KT 10SM FEW065 02/00 A2985 4790 85 4400 000/00 RMK AO2 T00220000                                                            
24015KAKO AKO20190312060511203/12/19 06:05:31  5-MIN KAKO 121305Z AUTO 00000KT 10SM FEW120 01/00 A2983 4800 92 4300 000/00 RMK AO2 T00110000                                                            
24015KAKO AKO20190312061011203/12/19 06:10:31  5-MIN KAKO 121310Z AUTO 00000KT 10SM FEW120 01/00 A2984 4800 92 4300 000/00 RMK AO2 T00110000                                                            
24015KAKO AKO20190312073510903/12/19 07:35:31  5-MIN KAKO 121435Z AUTO 00000KT 10SM CLR 03/02 A2982 4810 92 4500 000/00 RMK AO2 T00280017                                                               
24015KAKO AKO20190312110510903/12/19 11:05:31  5-MIN KAKO 121805Z AUTO VRB05KT 10SM CLR 12/02 A2975 4880 52 5700 VRB/05 RMK AO2 T01170022                                                               
24015KAKO AKO20190312111510903/12/19 11:15:31  5-MIN KAKO 121815Z AUTO VRB03KT 10SM CLR 12/02 A2974 4890 50 5700 VRB/03 RMK AO2 T01220022                                                               
24015KAKO AKO20190312112010903/12/19 11:20:31  5-MIN KAKO 121820Z AUTO VRB06KT 10SM CLR 12/02 A2974 4890 50 5700 VRB/06 RMK AO2 T01220022                                                               
24015KAKO AKO20190312115011603/12/19 11:50:31  5-MIN KAKO 121850Z AUTO VRB04KT 10SM CLR 14/02 A2971 4910 45 5900 VRB/04 RMK AO2 SLP047 T01390022                                                        
24015KAKO AKO20190312121010903/12/19 12:10:31  5-MIN KAKO 121910Z AUTO 00000KT 10SM CLR 14/02 A2970 4920 45 6000 000/00 RMK AO2 T01390022                                                               
24015KAKO AKO20190312122010903/12/19 12:20:31  5-MIN KAKO 121920Z AUTO VRB03KT 10SM CLR 14/02 A2969 4930 45 6000 VRB/03 RMK AO2 T01390022                                                               
24015KAKO AKO20190312123510903/12/19 12:35:31  5-MIN KAKO 121935Z AUTO VRB04KT 10SM CLR 14/02 A2968 4940 43 6000 VRB/04 RMK AO2 T01440022                                                               
24015KAKO AKO20190312124510903/12/19 12:45:31  5-MIN KAKO 121945Z AUTO VRB03KT 10SM CLR 15/02 A2967 4950 42 6100 VRB/03 RMK AO2 T01500022                                                               
24015KAKO AKO20190312125011603/12/19 12:50:31  5-MIN KAKO 121950Z AUTO 00000KT 10SM CLR 15/02 A2966 4960 42 6100 000/00 RMK AO2 SLP025 T01500022                                                        
24015KAKO AKO20190312130510903/12/19 13:05:31  5-MIN KAKO 122005Z AUTO VRB05KT 10SM CLR 16/02 A2966 4960 40 6200 VRB/05 RMK AO2 T01560022                                                               
24015KAKO AKO20190312131510903/12/19 13:15:31  5-MIN KAKO 122015Z AUTO VRB04KT 10SM CLR 16/02 A2966 4960 39 6300 VRB/04 RMK AO2 T01610022                                                               
24015KAKO AKO20190312133011603/12/19 13:30:31  5-MIN KAKO 122030Z AUTO VRB04KT 10SM CLR 17/02 A2964 4980 36 6400 VRB/04 RMK AO2 PRESFR T01720022                                                        
24015KAKO AKO20190312134510903/12/19 13:45:31  5-MIN KAKO 122045Z AUTO VRB03KT 10SM CLR 16/02 A2963 4990 39 6300 VRB/03 RMK AO2 T01610022                                                               
24015KAKO AKO20190312135012203/12/19 13:50:31  5-MIN KAKO 122050Z AUTO 00000KT 10SM CLR 17/03 A2963 4990 39 6400 000/00 RMK AO2 SLP014 T01670028 58019                                                  
24015KAKO AKO20190312135510903/12/19 13:55:31  5-MIN KAKO 122055Z AUTO 00000KT 10SM CLR 17/03 A2963 4990 39 6400 000/00 RMK AO2 T01670028                                                               
24015KAKO AKO20190312140010903/12/19 14:00:31  5-MIN KAKO 122100Z AUTO VRB03KT 10SM CLR 18/03 A2962 5000 36 6500 VRB/03 RMK AO2 T01780028                                                               
24015KAKO AKO20190312140510903/12/19 14:05:31  5-MIN KAKO 122105Z AUTO VRB03KT 10SM CLR 18/03 A2961 5010 38 6500 VRB/03 RMK AO2 T01780033                                                               
24015KAKO AKO20190312141010903/12/19 14:10:31  5-MIN KAKO 122110Z AUTO VRB05KT 10SM CLR 18/03 A2961 5010 35 6600 VRB/05 RMK AO2 T01830028                                                               
24015KAKO AKO20190312141510903/12/19 14:15:31  5-MIN KAKO 122115Z AUTO VRB04KT 10SM CLR 18/03 A2961 5010 36 6500 VRB/04 RMK AO2 T01780028                                                               
24015KAKO AKO20190312142510903/12/19 14:25:31  5-MIN KAKO 122125Z AUTO VRB03KT 10SM CLR 17/03 A2961 5010 37 6400 VRB/03 RMK AO2 T01720028                                                               
24015KAKO AKO20190312143510903/12/19 14:35:31  5-MIN KAKO 122135Z AUTO 00000KT 10SM CLR 18/03 A2961 5010 35 6600 000/00 RMK AO2 T01830028                                                               
24015KAKO AKO20190312144510903/12/19 14:45:31  5-MIN KAKO 122145Z AUTO VRB03KT 10SM CLR 18/03 A2960 5020 36 6600 VRB/03 RMK AO2 T01830033                                                               
24015KAKO AKO20190312145510903/12/19 14:55:31  5-MIN KAKO 122155Z AUTO VRB04KT 10SM CLR 17/03 A2959 5020 37 6500 VRB/04 RMK AO2 T01720028                                                               
24015KAKO AKO20190315131011003/15/19 13:10:31  5-MIN KAKO 152010Z AUTO VRB05KT 10SM CLR 04/M07 A3030 4370 44 4100 VRB/05 RMK AO2 T00391072                                                              
24015KAKO AKO20190315133511003/15/19 13:35:31  5-MIN KAKO 152035Z AUTO VRB04KT 10SM CLR 04/M08 A3029 4380 41 4200 VRB/04 RMK AO2 T00441078                                                              
24015KAKO AKO20190315143011003/15/19 14:30:31  5-MIN KAKO 152130Z AUTO 00000KT 10SM CLR 05/M10 A3028 4390 33 4300 000/00 RMK AO2 T00501100                                                              
24015KAKO AKO20190315144011003/15/19 14:40:31  5-MIN KAKO 152140Z AUTO 00000KT 10SM CLR 06/M09 A3028 4390 33 4300 000/00 RMK AO2 T00561094                                                              
24015KAKO AKO20190315145511003/15/19 14:55:31  5-MIN KAKO 152155Z AUTO 00000KT 10SM CLR 06/M10 A3028 4390 32 4300 000/00 RMK AO2 T00561100                                                              
24015KAKO AKO20190315150011003/15/19 15:00:31  5-MIN KAKO 152200Z AUTO 00000KT 10SM CLR 06/M11 A3027 4390 30 4300 000/00 RMK AO2 T00561106                                                              
24015KAKO AKO20190315151011003/15/19 15:10:31  5-MIN KAKO 152210Z AUTO 00000KT 10SM CLR 06/M11 A3027 4400 29 4300 000/00 RMK AO2 T00561111                                                              
24015KAKO AKO20190315153511003/15/19 15:35:31  5-MIN KAKO 152235Z AUTO 00000KT 10SM CLR 06/M11 A3027 4400 29 4300 000/00 RMK AO2 T00561111                                                              
24015KAKO AKO20190315154011003/15/19 15:40:31  5-MIN KAKO 152240Z AUTO 00000KT 10SM CLR 06/M11 A3027 4400 29 4400 000/00 RMK AO2 T00611106                                                              
24015KAKO AKO20190315154511003/15/19 15:45:31  5-MIN KAKO 152245Z AUTO 00000KT 10SM CLR 06/M11 A3027 4400 28 4400 000/00 RMK AO2 T00611111                                                              
24015KAKO AKO20190315155511003/15/19 15:55:31  5-MIN KAKO 152255Z AUTO 00000KT 10SM CLR 06/M11 A3027 4400 29 4300 000/00 RMK AO2 T00561111                                                              
24015KAKO AKO20190315160511003/15/19 16:05:31  5-MIN KAKO 152305Z AUTO 00000KT 10SM CLR 06/M11 A3027 4400 29 4400 000/00 RMK AO2 T00561111                                                              
24015KAKO AKO20190315161011003/15/19 16:10:31  5-MIN KAKO 152310Z AUTO VRB03KT 10SM CLR 06/M11 A3026 4400 28 4400 VRB/03 RMK AO2 T00611111                                                              
24015KAKO AKO20190315162011003/15/19 16:20:31  5-MIN KAKO 152320Z AUTO 00000KT 10SM CLR 06/M11 A3026 4410 30 4400 000/00 RMK AO2 T00561106                                                              
24015KAKO AKO20190315162511003/15/19 16:25:31  5-MIN KAKO 152325Z AUTO VRB03KT 10SM CLR 06/M10 A3026 4410 30 4400 VRB/03 RMK AO2 T00611100                                                              
24015KAKO AKO20190315163511003/15/19 16:35:31  5-MIN KAKO 152335Z AUTO VRB03KT 10SM CLR 06/M11 A3026 4410 29 4400 VRB/03 RMK AO2 T00561111                                                              
24015KAKO AKO20190315183011003/15/19 18:30:31  5-MIN KAKO 160130Z AUTO 00000KT 10SM CLR 01/M08 A3026 4400 49 3800 000/00 RMK AO2 T00111083                                                              
24015KAKO AKO20190315183511003/15/19 18:35:31  5-MIN KAKO 160135Z AUTO 00000KT 10SM CLR 01/M08 A3026 4400 51 3800 000/00 RMK AO2 T00111078                                                              
24015KAKO AKO20190315184011003/15/19 18:40:31  5-MIN KAKO 160140Z AUTO 00000KT 10SM CLR 02/M09 A3027 4400 45 3900 000/00 RMK AO2 T00171089                                                              
24015KAKO AKO20190315185011703/15/19 18:50:31  5-MIN KAKO 160150Z AUTO 00000KT 10SM CLR 02/M08 A3027 4400 47 3900 000/00 RMK AO2 SLP282 T00171083                                                       
24015KAKO AKO20190315185511003/15/19 18:55:31  5-MIN KAKO 160155Z AUTO 00000KT 10SM CLR 01/M08 A3027 4400 51 3800 000/00 RMK AO2 T00111078                                                              
24015KAKO AKO20190316022011103/16/19 02:20:31  5-MIN KAKO 160920Z AUTO 00000KT 10SM CLR M05/M09 A3029 4380 71 3000 000/00 RMK AO2 T10501094                                                             
24015KAKO AKO20190316022511103/16/19 02:25:31  5-MIN KAKO 160925Z AUTO 00000KT 10SM CLR M04/M09 A3029 4380 71 3100 000/00 RMK AO2 T10441089                                                             
24015KAKO AKO20190316023511103/16/19 02:35:31  5-MIN KAKO 160935Z AUTO 00000KT 10SM CLR M04/M09 A3029 4380 71 3100 000/00 RMK AO2 T10441089                                                             
24015KAKO AKO20190316024511103/16/19 02:45:31  5-MIN KAKO 160945Z AUTO 00000KT 10SM CLR M04/M09 A3028 4380 71 3100 000/00 RMK AO2 T10441089                                                             
24015KAKO AKO20190316025011803/16/19 02:50:31  5-MIN KAKO 160950Z AUTO 00000KT 10SM CLR M04/M09 A3028 4390 68 3200 000/00 RMK AO2 SLP276 T10391089                                                      
24015KAKO AKO20190316025511103/16/19 02:55:31  5-MIN KAKO 160955Z AUTO 00000KT 10SM CLR M03/M09 A3028 4390 65 3300 000/00 RMK AO2 T10331089                                                             
24015KAKO AKO20190316030011103/16/19 03:00:31  5-MIN KAKO 161000Z AUTO 00000KT 10SM CLR M03/M09 A3028 4390 63 3300 000/00 RMK AO2 T10281089                                                             
24015KAKO AKO20190316030511103/16/19 03:05:31  5-MIN KAKO 161005Z AUTO 00000KT 10SM CLR M03/M09 A3028 4390 65 3300 000/00 RMK AO2 T10331089                                                             
24015KAKO AKO20190316031011103/16/19 03:10:31  5-MIN KAKO 161010Z AUTO 00000KT 10SM CLR M04/M09 A3028 4390 71 3100 000/00 RMK AO2 T10441089                                                             
24015KAKO AKO20190316031511103/16/19 03:15:31  5-MIN KAKO 161015Z AUTO 00000KT 10SM CLR M04/M09 A3028 4390 68 3200 000/00 RMK AO2 T10391089                                                             
24015KAKO AKO20190316032511103/16/19 03:25:31  5-MIN KAKO 161025Z AUTO 00000KT 10SM CLR M04/M09 A3028 4390 68 3200 000/00 RMK AO2 T10391089                                                             
24015KAKO AKO20190316033011103/16/19 03:30:31  5-MIN KAKO 161030Z AUTO 00000KT 10SM CLR M03/M09 A3028 4390 65 3300 000/00 RMK AO2 T10331089                                                             
24015KAKO AKO20190316033511103/16/19 03:35:31  5-MIN KAKO 161035Z AUTO 00000KT 10SM CLR M03/M09 A3028 4390 63 3300 000/00 RMK AO2 T10281089                                                             
24015KAKO AKO20190316041011103/16/19 04:10:31  5-MIN KAKO 161110Z AUTO 00000KT 10SM CLR M04/M09 A3029 4380 68 3100 000/00 RMK AO2 T10441094                                                             
24015KAKO AKO20190316041511103/16/19 04:15:31  5-MIN KAKO 161115Z AUTO 00000KT 10SM CLR M03/M09 A3029 4380 63 3200 000/00 RMK AO2 T10331094                                                             
24015KAKO AKO20190316042011103/16/19 04:20:31  5-MIN KAKO 161120Z AUTO 00000KT 10SM CLR M03/M09 A3029 4380 63 3200 000/00 RMK AO2 T10331094                                                             
24015KAKO AKO20190316042511103/16/19 04:25:31  5-MIN KAKO 161125Z AUTO 00000KT 10SM CLR M04/M09 A3029 4380 65 3200 000/00 RMK AO2 T10391094                                                             
24015KAKO AKO20190316043011103/16/19 04:30:31  5-MIN KAKO 161130Z AUTO 00000KT 10SM CLR M03/M09 A3029 4380 63 3200 000/00 RMK AO2 T10331094                                                             
24015KAKO AKO20190316043511103/16/19 04:35:31  5-MIN KAKO 161135Z AUTO 00000KT 10SM CLR M04/M09 A3029 4380 65 3200 000/00 RMK AO2 T10391094                                                             
24015KAKO AKO20190316044511103/16/19 04:45:31  5-MIN KAKO 161145Z AUTO 00000KT 10SM CLR M04/M09 A3030 4370 68 3100 000/00 RMK AO2 T10441094                                                             
24015KAKO AKO20190316045511103/16/19 04:55:31  5-MIN KAKO 161155Z AUTO 00000KT 10SM CLR M05/M09 A3030 4370 74 3000 000/00 RMK AO2 T10501089                                                             
24015KAKO AKO20190316050011103/16/19 05:00:31  5-MIN KAKO 161200Z AUTO 00000KT 10SM CLR M05/M09 A3030 4370 71 3000 000/00 RMK AO2 T10501094                                                             
24015KAKO AKO20190316050511103/16/19 05:05:31  5-MIN KAKO 161205Z AUTO 00000KT 10SM CLR M04/M09 A3030 4370 68 3100 000/00 RMK AO2 T10441094                                                             
24015KAKO AKO20190316051011103/16/19 05:10:31  5-MIN KAKO 161210Z AUTO 00000KT 10SM CLR M05/M09 A3030 4370 71 3000 000/00 RMK AO2 T10501094                                                             
24015KAKO AKO20190316051511103/16/19 05:15:31  5-MIN KAKO 161215Z AUTO 00000KT 10SM CLR M05/M09 A3030 4370 71 3000 000/00 RMK AO2 T10501094                                                             
24015KAKO AKO20190316052011103/16/19 05:20:31  5-MIN KAKO 161220Z AUTO 00000KT 10SM CLR M05/M09 A3030 4370 71 3000 000/00 RMK AO2 T10501094                                                             
24015KAKO AKO20190316052511103/16/19 05:25:31  5-MIN KAKO 161225Z AUTO 00000KT 10SM CLR M04/M09 A3030 4370 65 3200 000/00 RMK AO2 T10391094                                                             
24015KAKO AKO20190316053011103/16/19 05:30:31  5-MIN KAKO 161230Z AUTO 00000KT 10SM CLR M03/M09 A3030 4370 60 3300 000/00 RMK AO2 T10281094                                                             
24015KAKO AKO20190316083011003/16/19 08:30:31  5-MIN KAKO 161530Z AUTO 00000KT 10SM CLR 01/M04 A3036 4320 66 3700 000/00 RMK AO2 T00111044                                                              
24015KAKO AKO20190316092011003/16/19 09:20:31  5-MIN KAKO 161620Z AUTO VRB05KT 10SM CLR 03/M06 A3036 4310 52 4000 VRB/05 RMK AO2 T00331056                                                              
24015KAKO AKO20190316110011003/16/19 11:00:31  5-MIN KAKO 161800Z AUTO VRB06KT 10SM CLR 05/M06 A3036 4320 44 4200 VRB/06 RMK AO2 T00501061                                                              
24015KAKO AKO20190316112011003/16/19 11:20:31  5-MIN KAKO 161820Z AUTO VRB06KT 10SM CLR 06/M07 A3035 4320 41 4300 VRB/06 RMK AO2 T00561067                                                              
24015KAKO AKO20190316112511003/16/19 11:25:31  5-MIN KAKO 161825Z AUTO VRB03KT 10SM CLR 06/M06 A3035 4320 43 4300 VRB/03 RMK AO2 T00561061                                                              
24015KAKO AKO20190316114511003/16/19 11:45:31  5-MIN KAKO 161845Z AUTO VRB05KT 10SM CLR 06/M06 A3035 4330 43 4300 VRB/05 RMK AO2 T00611056                                                              
24015KAKO AKO20190316115511003/16/19 11:55:31  5-MIN KAKO 161855Z AUTO VRB04KT 10SM CLR 06/M07 A3035 4330 39 4300 VRB/04 RMK AO2 T00611067                                                              
24015KAKO AKO20190316120011003/16/19 12:00:31  5-MIN KAKO 161900Z AUTO VRB03KT 10SM CLR 07/M07 A3034 4330 38 4400 VRB/03 RMK AO2 T00671067                                                              
24015KAKO AKO20190316120511003/16/19 12:05:31  5-MIN KAKO 161905Z AUTO 00000KT 10SM CLR 07/M07 A3034 4330 38 4400 000/00 RMK AO2 T00671067                                                              
24015KAKO AKO20190316121011003/16/19 12:10:31  5-MIN KAKO 161910Z AUTO VRB05KT 10SM CLR 07/M06 A3034 4330 39 4400 VRB/05 RMK AO2 T00671061                                                              
24015KAKO AKO20190316122511003/16/19 12:25:31  5-MIN KAKO 161925Z AUTO VRB04KT 10SM CLR 07/M07 A3034 4340 38 4400 VRB/04 RMK AO2 T00671067                                                              
24015KAKO AKO20190316123511003/16/19 12:35:31  5-MIN KAKO 161935Z AUTO VRB03KT 10SM CLR 07/M07 A3033 4340 38 4400 VRB/03 RMK AO2 T00671067                                                              
24015KAKO AKO20190316132511003/16/19 13:25:31  5-MIN KAKO 162025Z AUTO VRB03KT 10SM CLR 08/M06 A3032 4350 36 4600 VRB/03 RMK AO2 T00781061                                                              
24015KAKO AKO20190316133511003/16/19 13:35:31  5-MIN KAKO 162035Z AUTO VRB05KT 10SM CLR 08/M06 A3032 4360 37 4600 VRB/05 RMK AO2 T00831056                                                              
24015KAKO AKO20190316134011003/16/19 13:40:31  5-MIN KAKO 162040Z AUTO VRB06KT 10SM CLR 08/M06 A3031 4360 37 4600 VRB/06 RMK AO2 T00831056                                                              
24015KAKO AKO20190316140011003/16/19 14:00:31  5-MIN KAKO 162100Z AUTO VRB03KT 10SM CLR 08/M06 A3031 4360 35 4600 VRB/03 RMK AO2 T00831061                                                              
24015KAKO AKO20190316140511003/16/19 14:05:31  5-MIN KAKO 162105Z AUTO VRB03KT 10SM CLR 08/M06 A3031 4360 36 4600 VRB/03 RMK AO2 T00781061                                                              
24015KAKO AKO20190316141511003/16/19 14:15:31  5-MIN KAKO 162115Z AUTO VRB04KT 10SM CLR 08/M06 A3030 4370 35 4600 VRB/04 RMK AO2 T00831061                                                              
24015KAKO AKO20190316142511003/16/19 14:25:31  5-MIN KAKO 162125Z AUTO VRB03KT 10SM CLR 08/M06 A3030 4370 36 4600 VRB/03 RMK AO2 T00781061                                                              
24015KAKO AKO20190316143511003/16/19 14:35:31  5-MIN KAKO 162135Z AUTO 00000KT 10SM CLR 08/M06 A3030 4370 35 4600 000/00 RMK AO2 T00831061                                                              
24015KAKO AKO20190316144011003/16/19 14:40:31  5-MIN KAKO 162140Z AUTO 00000KT 10SM CLR 08/M06 A3030 4370 36 4600 000/00 RMK AO2 T00781061                                                              
24015KAKO AKO20190316144511003/16/19 14:45:31  5-MIN KAKO 162145Z AUTO 00000KT 10SM CLR 08/M06 A3030 4370 36 4600 000/00 RMK AO2 T00781061                                                              
24015KAKO AKO20190316150011003/16/19 15:00:31  5-MIN KAKO 162200Z AUTO VRB03KT 10SM CLR 09/M06 A3030 4370 35 4700 VRB/03 RMK AO2 T00891056                                                              
24015KAKO AKO20190316153511003/16/19 15:35:31  5-MIN KAKO 162235Z AUTO VRB03KT 10SM CLR 08/M06 A3029 4380 35 4700 VRB/03 RMK AO2 T00831061                                                              
24015KAKO AKO20190316154011003/16/19 15:40:31  5-MIN KAKO 162240Z AUTO VRB03KT 10SM CLR 09/M06 A3029 4380 34 4700 VRB/03 RMK AO2 T00891061                                                              
24015KAKO AKO20190316154511003/16/19 15:45:31  5-MIN KAKO 162245Z AUTO 00000KT 10SM CLR 08/M07 A3029 4380 34 4700 000/00 RMK AO2 T00831067                                                              
24015KAKO AKO20190316155011703/16/19 15:50:31  5-MIN KAKO 162250Z AUTO VRB04KT 10SM CLR 09/M06 A3029 4380 35 4700 VRB/04 RMK AO2 SLP268 T00891056                                                       
24015KAKO AKO20190316163011003/16/19 16:30:31  5-MIN KAKO 162330Z AUTO VRB04KT 10SM CLR 09/M06 A3029 4380 34 4700 VRB/04 RMK AO2 T00891061                                                              
24015KAKO AKO20190316163511003/16/19 16:35:31  5-MIN KAKO 162335Z AUTO VRB04KT 10SM CLR 08/M07 A3029 4380 34 4700 VRB/04 RMK AO2 T00831067                                                              
24015KAKO AKO20190316164011003/16/19 16:40:31  5-MIN KAKO 162340Z AUTO VRB03KT 10SM CLR 08/M07 A3029 4380 34 4700 VRB/03 RMK AO2 T00831067                                                              
24015KAKO AKO20190318223012003/18/19 22:30:31  5-MIN KAKO 190530Z AUTO VRB04KT 10SM FEW055 OVC070 04/M01 A3015 4510 73 4300 VRB/04 RMK AO2 T00391006                                                    
24015KAKO AKO20190319194511103/19/19 19:45:31  5-MIN KAKO 200245Z AUTO 00000KT 10SM CLR M02/M06 A3026 4410 72 3500 000/00 RMK AO2 T10171061                                                             
24015KAKO AKO20190319195012403/19/19 19:50:31  5-MIN KAKO 200250Z AUTO 00000KT 10SM CLR M02/M06 A3026 4410 72 3500 000/00 RMK AO2 SLP271 T10171061 53002                                                
24015KAKO AKO20190319195511103/19/19 19:55:31  5-MIN KAKO 200255Z AUTO 00000KT 10SM CLR M02/M06 A3026 4410 72 3500 000/00 RMK AO2 T10171061                                                             
24015KAKO AKO20190319200511103/19/19 20:05:31  5-MIN KAKO 200305Z AUTO 00000KT 10SM CLR M02/M06 A3026 4400 75 3400 000/00 RMK AO2 T10221061                                                             
24015KAKO AKO20190319201011103/19/19 20:10:31  5-MIN KAKO 200310Z AUTO 00000KT 10SM CLR M02/M06 A3026 4400 75 3500 000/00 RMK AO2 T10171056                                                             
24015KAKO AKO20190319201511103/19/19 20:15:31  5-MIN KAKO 200315Z AUTO VRB03KT 10SM CLR M02/M06 A3027 4400 78 3400 VRB/03 RMK AO2 T10221056                                                             
24015KAKO AKO20190319204011103/19/19 20:40:31  5-MIN KAKO 200340Z AUTO 00000KT 10SM CLR M03/M06 A3027 4400 78 3300 000/00 RMK AO2 T10281061                                                             
24015KAKO AKO20190319204511103/19/19 20:45:31  5-MIN KAKO 200345Z AUTO 00000KT 10SM CLR M03/M06 A3027 4400 81 3300 000/00 RMK AO2 T10331061                                                             
24015KAKO AKO20190319205011803/19/19 20:50:31  5-MIN KAKO 200350Z AUTO 00000KT 10SM CLR M03/M06 A3027 4400 78 3300 000/00 RMK AO2 SLP276 T10281061                                                      
24015KAKO AKO20190319205511103/19/19 20:55:31  5-MIN KAKO 200355Z AUTO 00000KT 10SM CLR M03/M06 A3027 4390 81 3300 000/00 RMK AO2 T10281056                                                             
24015KAKO AKO20190319210011103/19/19 21:00:31  5-MIN KAKO 200400Z AUTO 00000KT 10SM CLR M03/M06 A3027 4390 81 3300 000/00 RMK AO2 T10281056                                                             
24015KAKO AKO20190319210511103/19/19 21:05:31  5-MIN KAKO 200405Z AUTO 00000KT 10SM CLR M03/M06 A3027 4390 81 3300 000/00 RMK AO2 T10281056                                                             
24015KAKO AKO20190320223011003/20/19 22:30:31  5-MIN KAKO 210530Z AUTO VRB03KT 10SM CLR 05/M04 A3026 4400 50 4300 VRB/03 RMK AO2 T00501044                                                              
24015KAKO AKO20190320225013503/20/19 22:50:31  5-MIN KAKO 210550Z AUTO 00000KT 10SM CLR 03/M04 A3026 4400 57 4100 000/00 RMK AO2 SLP244 T00331044 10133 20022 51011                                     
24015KAKO AKO20190322191513103/22/19 19:15:31  5-MIN KAKO 230215Z AUTO 00000KT 3SM RA BR OVC018 06/04 A2991 4730 89 4800 000/00 RMK AO2 RAB0156 P0004 T00610044                                         
24015KAKO AKO20190322192013603/22/19 19:20:31  5-MIN KAKO 230220Z AUTO 00000KT 2 1/2SM +RA BR OVC018 06/05 A2991 4720 93 4800 000/00 RMK AO2 RAB0156 P0007 T00610050                                    
24015KAKO AKO20190322192514303/22/19 19:25:31  5-MIN KAKO 230225Z AUTO 00000KT 2 1/2SM RA BR OVC017 06/05 A2991 4730 93 4800 000/00 RMK AO2 VIS 2V4 RAB0156 P0009 T00610050                             
24015KAKO AKO20190324091510903/24/19 09:15:31  5-MIN KAKO 241615Z AUTO VRB03KT 10SM CLR 08/03 A3010 4560 70 4800 VRB/03 RMK AO2 T00780028                                                               
24015KAKO AKO20190324093010903/24/19 09:30:31  5-MIN KAKO 241630Z AUTO VRB06KT 10SM CLR 08/03 A3010 4560 68 4900 VRB/06 RMK AO2 T00830028                                                               
24015KAKO AKO20190324094010903/24/19 09:40:31  5-MIN KAKO 241640Z AUTO VRB05KT 10SM CLR 09/03 A3010 4550 68 4900 VRB/05 RMK AO2 T00890033                                                               
24015KAKO AKO20190324100511203/24/19 10:05:31  5-MIN KAKO 241705Z AUTO VRB03KT 10SM FEW023 08/03 A3010 4550 68 4900 VRB/03 RMK AO2 T00830028                                                            
24015KAKO AKO20190324102011903/24/19 10:20:31  5-MIN KAKO 241720Z AUTO VRB04KT 10SM FEW022 FEW090 09/03 A3010 4560 65 5000 VRB/04 RMK AO2 T00940033                                                     
24015KAKO AKO20190324102511903/24/19 10:25:31  5-MIN KAKO 241725Z AUTO VRB06KT 10SM FEW022 FEW090 09/03 A3010 4560 65 5000 VRB/06 RMK AO2 T00940033                                                     
24015KAKO AKO20190324104010903/24/19 10:40:31  5-MIN KAKO 241740Z AUTO 00000KT 10SM CLR 09/03 A3009 4560 65 5000 000/00 RMK AO2 T00940033                                                               
24015KAKO AKO20190324104510903/24/19 10:45:31  5-MIN KAKO 241745Z AUTO 00000KT 10SM CLR 10/03 A3009 4560 60 5100 000/00 RMK AO2 T01000028                                                               
24015KAKO AKO20190324110510903/24/19 11:05:31  5-MIN KAKO 241805Z AUTO VRB05KT 10SM CLR 10/03 A3009 4570 63 5100 VRB/05 RMK AO2 T01000033                                                               
24015KAKO AKO20190324111010903/24/19 11:10:31  5-MIN KAKO 241810Z AUTO VRB03KT 10SM CLR 11/03 A3009 4570 61 5100 VRB/03 RMK AO2 T01060033                                                               
24015KAKO AKO20190324111510903/24/19 11:15:31  5-MIN KAKO 241815Z AUTO VRB04KT 10SM CLR 11/03 A3008 4570 58 5100 VRB/04 RMK AO2 T01060028                                                               
24015KAKO AKO20190324113510903/24/19 11:35:31  5-MIN KAKO 241835Z AUTO VRB03KT 10SM CLR 11/03 A3008 4570 58 5200 VRB/03 RMK AO2 T01110033                                                               
24015KAKO AKO20190324114010903/24/19 11:40:31  5-MIN KAKO 241840Z AUTO 00000KT 10SM CLR 11/03 A3008 4570 58 5100 000/00 RMK AO2 T01060028                                                               
24015KAKO AKO20190324115511203/24/19 11:55:31  5-MIN KAKO 241855Z AUTO VRB03KT 10SM SCT040 12/03 A3008 4570 54 5300 VRB/03 RMK AO2 T01170028                                                            
24015KAKO AKO20190324121011203/24/19 12:10:31  5-MIN KAKO 241910Z AUTO VRB03KT 10SM SCT040 11/02 A3008 4580 54 5200 VRB/03 RMK AO2 T01110022                                                            
24015KAKO AKO20190324122511903/24/19 12:25:31  5-MIN KAKO 241925Z AUTO VRB04KT 10SM SCT039 BKN047 11/02 A3007 4580 54 5200 VRB/04 RMK AO2 T01110022                                                     
24015KAKO AKO20190324123011903/24/19 12:30:31  5-MIN KAKO 241930Z AUTO VRB03KT 10SM BKN039 BKN046 12/02 A3007 4580 52 5300 VRB/03 RMK AO2 T01170022                                                     
24015KAKO AKO20190324131511203/24/19 13:15:31  5-MIN KAKO 242015Z AUTO VRB05KT 10SM BKN060 12/02 A3006 4590 50 5300 VRB/05 RMK AO2 T01170017                                                            
24015KAKO AKO20190325112510903/25/19 11:25:31  5-MIN KAKO 251825Z AUTO VRB04KT 10SM CLR 11/00 A3027 4400 48 4900 VRB/04 RMK AO2 T01060000                                                               
24015KAKO AKO20190325115011903/25/19 11:50:31  5-MIN KAKO 251850Z AUTO VRB06KT 10SM FEW080 11/01 A3026 4410 50 5000 VRB/06 RMK AO2 SLP239 T01110011                                                     
24015KAKO AKO20190325120511203/25/19 12:05:31  5-MIN KAKO 251905Z AUTO VRB05KT 10SM FEW080 12/01 A3026 4410 48 5100 VRB/05 RMK AO2 T01170011                                                            
24015KAKO AKO20190325122512603/25/19 12:25:31  5-MIN KAKO 251925Z AUTO VRB03KT 10SM FEW070 FEW080 SCT095 11/01 A3026 4410 50 5000 VRB/03 RMK AO2 T01110011                                              
24015KAKO AKO20190325124011503/25/19 12:40:31  5-MIN KAKO 251940Z AUTO VRB06G17KT 10SM CLR 12/02 A3025 4420 50 5100 VRB/06G17 RMK AO2 T01170017                                                         
24015KAKO AKO20190327082010903/27/19 08:20:31  5-MIN KAKO 271520Z AUTO VRB04KT 10SM CLR 13/01 A3002 4630 43 5500 VRB/04 RMK AO2 T01330011                                                               
24015KAKO AKO20190327122011003/27/19 12:20:31  5-MIN KAKO 271920Z AUTO VRB06KT 10SM CLR 19/M01 A3002 4630 25 6200 VRB/06 RMK AO2 T01891011                                                              
24015KAKO AKO20190327125011703/27/19 12:50:31  5-MIN KAKO 271950Z AUTO VRB04KT 10SM CLR 19/M02 A3000 4640 23 6200 VRB/04 RMK AO2 SLP126 T01941022                                                       
24015KAKO AKO20190327130011003/27/19 13:00:31  5-MIN KAKO 272000Z AUTO VRB04KT 10SM CLR 19/M01 A3000 4650 25 6200 VRB/04 RMK AO2 T01891011                                                              
24015KAKO AKO20190327131011003/27/19 13:10:31  5-MIN KAKO 272010Z AUTO VRB03KT 10SM CLR 19/M02 A3000 4650 23 6200 VRB/03 RMK AO2 T01891022                                                              
24015KAKO AKO20190327131511003/27/19 13:15:31  5-MIN KAKO 272015Z AUTO 00000KT 10SM CLR 19/M02 A2999 4650 23 6300 000/00 RMK AO2 T01941022                                                              
24015KAKO AKO20190327134011003/27/19 13:40:31  5-MIN KAKO 272040Z AUTO 00000KT 10SM CLR 20/M02 A2998 4660 23 6300 000/00 RMK AO2 T02001017                                                              
24015KAKO AKO20190327134511003/27/19 13:45:31  5-MIN KAKO 272045Z AUTO VRB05KT 10SM CLR 20/M02 A2998 4660 23 6300 VRB/05 RMK AO2 T02001017                                                              
24015KAKO AKO20190327140511003/27/19 14:05:31  5-MIN KAKO 272105Z AUTO VRB06KT 10SM CLR 21/M02 A2998 4670 22 6400 VRB/06 RMK AO2 T02061017                                                              
24015KAKO AKO20190327141511003/27/19 14:15:31  5-MIN KAKO 272115Z AUTO VRB03KT 10SM CLR 21/M02 A2997 4670 22 6400 VRB/03 RMK AO2 T02061017                                                              
24015KAKO AKO20190328035011603/28/19 03:50:31  5-MIN KAKO 281050Z AUTO 00000KT 10SM CLR 03/02 A2997 4680 96 4400 000/00 RMK AO2 SLP122 T00280022                                                        
24015KAKO AKO20190331090511003/31/19 09:05:31  5-MIN KAKO 311605Z AUTO VRB06KT 10SM CLR 05/M04 A3031 4360 52 4200 VRB/06 RMK AO2 T00501039                                                              
24015KAKO AKO20190331091511003/31/19 09:15:31  5-MIN KAKO 311615Z AUTO VRB06KT 10SM CLR 05/M04 A3031 4360 50 4200 VRB/06 RMK AO2 T00501044                                                              
24015KAKO AKO20190331092011003/31/19 09:20:31  5-MIN KAKO 311620Z AUTO VRB03KT 10SM CLR 05/M05 A3031 4360 48 4200 VRB/03 RMK AO2 T00501050                                                              
24015KAKO AKO20190331092511003/31/19 09:25:31  5-MIN KAKO 311625Z AUTO 00000KT 10SM CLR 06/M06 A3031 4360 44 4300 000/00 RMK AO2 T00561056                                                              
24015KAKO AKO20190331093011003/31/19 09:30:31  5-MIN KAKO 311630Z AUTO VRB04KT 10SM CLR 05/M04 A3031 4360 50 4200 VRB/04 RMK AO2 T00501044                                                              
24015KAKO AKO20190331100011303/31/19 10:00:31  5-MIN KAKO 311700Z AUTO VRB04KT 10SM BKN045 06/M04 A3030 4370 46 4400 VRB/04 RMK AO2 T00611044                                                           
24015KAKO AKO20190331100511303/31/19 10:05:31  5-MIN KAKO 311705Z AUTO VRB04KT 10SM SCT046 06/M04 A3030 4370 48 4400 VRB/04 RMK AO2 T00611039                                                           
24015KAKO AKO20190331101011303/31/19 10:10:31  5-MIN KAKO 311710Z AUTO VRB04KT 10SM FEW046 06/M04 A3030 4370 48 4300 VRB/04 RMK AO2 T00561044                                                           
24015KAKO AKO20190331102011303/31/19 10:20:31  5-MIN KAKO 311720Z AUTO VRB03KT 10SM FEW046 07/M04 A3030 4370 45 4400 VRB/03 RMK AO2 T00671044                                                           
24015KAKO AKO20190331104011303/31/19 10:40:31  5-MIN KAKO 311740Z AUTO VRB06KT 10SM BKN047 07/M04 A3029 4380 47 4500 VRB/06 RMK AO2 T00671039                                                           
24015KAKO AKO20190331105511303/31/19 10:55:31  5-MIN KAKO 311755Z AUTO VRB05KT 10SM BKN047 07/M04 A3028 4390 45 4500 VRB/05 RMK AO2 T00721039                                                           
24015KAKO AKO20190331112511303/31/19 11:25:31  5-MIN KAKO 311825Z AUTO VRB04KT 10SM BKN048 07/M04 A3027 4400 45 4500 VRB/04 RMK AO2 T00721039                                                           
24015KAKO AKO20190331114011303/31/19 11:40:31  5-MIN KAKO 311840Z AUTO VRB04KT 10SM SCT049 07/M04 A3026 4410 45 4600 VRB/04 RMK AO2 T00721039                                                           
24015KAKO AKO20190331115012003/31/19 11:50:31  5-MIN KAKO 311850Z AUTO VRB06KT 10SM BKN049 08/M03 A3026 4410 45 4600 VRB/06 RMK AO2 SLP259 T00781033                                                    
24015KAKO AKO20190331120011303/31/19 12:00:31  5-MIN KAKO 311900Z AUTO VRB03KT 10SM SCT049 08/M03 A3026 4410 45 4600 VRB/03 RMK AO2 T00781033                                                           
24015KAKO AKO20190331120511303/31/19 12:05:31  5-MIN KAKO 311905Z AUTO VRB03KT 10SM SCT049 07/M03 A3025 4410 47 4600 VRB/03 RMK AO2 T00721033                                                           
24015KAKO AKO20190331121011303/31/19 12:10:31  5-MIN KAKO 311910Z AUTO VRB04KT 10SM SCT049 08/M03 A3025 4420 45 4600 VRB/04 RMK AO2 T00781033                                                           
24015KAKO AKO20190331122511303/31/19 12:25:31  5-MIN KAKO 311925Z AUTO VRB05KT 10SM BKN050 08/M03 A3024 4420 43 4700 VRB/05 RMK AO2 T00831033                                                           
24015KAKO AKO20190331123511303/31/19 12:35:31  5-MIN KAKO 311935Z AUTO VRB05KT 10SM BKN050 09/M03 A3024 4430 42 4800 VRB/05 RMK AO2 T00891033                                                           
24015KAKO AKO20190331124011303/31/19 12:40:31  5-MIN KAKO 311940Z AUTO VRB03KT 10SM SCT050 08/M04 A3023 4430 43 4600 VRB/03 RMK AO2 T00781039                                                           
24015KAKO AKO20190331124511303/31/19 12:45:31  5-MIN KAKO 311945Z AUTO VRB06KT 10SM SCT050 08/M04 A3023 4430 42 4700 VRB/06 RMK AO2 T00831039                                                           
24015KAKO AKO20190331125511303/31/19 12:55:31  5-MIN KAKO 311955Z AUTO VRB04KT 10SM FEW050 08/M04 A3022 4440 43 4700 VRB/04 RMK AO2 T00781039                                                           
24015KAKO AKO20190331132011003/31/19 13:20:31  5-MIN KAKO 312020Z AUTO 00000KT 10SM CLR 09/M03 A3021 4450 40 4900 000/00 RMK AO2 T00941033                                                              
24015KAKO AKO20190331133011003/31/19 13:30:31  5-MIN KAKO 312030Z AUTO VRB03KT 10SM CLR 08/M04 A3021 4460 42 4700 VRB/03 RMK AO2 T00831039                                                              
24015KAKO AKO20190331133511003/31/19 13:35:31  5-MIN KAKO 312035Z AUTO VRB05KT 10SM CLR 09/M03 A3020 4460 42 4800 VRB/05 RMK AO2 T00891033                                                              
24015KAKO AKO20190331134011003/31/19 13:40:31  5-MIN KAKO 312040Z AUTO 00000KT 10SM CLR 09/M03 A3020 4460 40 4900 000/00 RMK AO2 T00941033                                                              
24015KAKO AKO20190331134511003/31/19 13:45:31  5-MIN KAKO 312045Z AUTO 00000KT 10SM CLR 09/M04 A3020 4460 39 4900 000/00 RMK AO2 T00941039                                                              
24015KAKO AKO20190331135012603/31/19 13:50:31  5-MIN KAKO 312050Z AUTO VRB04KT 10SM FEW055 09/M04 A3020 4460 39 4900 VRB/04 RMK AO2 SLP237 T00941039 58010                                              
24015KAKO AKO20190331140011303/31/19 14:00:31  5-MIN KAKO 312100Z AUTO VRB06KT 10SM FEW055 09/M04 A3019 4470 39 4900 VRB/06 RMK AO2 T00941039                                                           
24015KAKO AKO20190331142511303/31/19 14:25:31  5-MIN KAKO 312125Z AUTO 00000KT 10SM FEW055 09/M04 A3019 4470 38 4800 000/00 RMK AO2 T00891044                                                           
24015KAKO AKO20190331143011303/31/19 14:30:31  5-MIN KAKO 312130Z AUTO 00000KT 10SM FEW055 09/M04 A3018 4480 37 4900 000/00 RMK AO2 T00941044                                                           
24015KAKO AKO20190331143511003/31/19 14:35:31  5-MIN KAKO 312135Z AUTO VRB03KT 10SM CLR 10/M04 A3018 4480 37 5000 VRB/03 RMK AO2 T01001039                                                              
24015KAKO AKO20190331144011003/31/19 14:40:31  5-MIN KAKO 312140Z AUTO VRB03KT 10SM CLR 09/M04 A3018 4480 39 4900 VRB/03 RMK AO2 T00941039                                                              
24015KAKO AKO20190331145511003/31/19 14:55:31  5-MIN KAKO 312155Z AUTO 00000KT 10SM CLR 09/M04 A3017 4480 40 4800 000/00 RMK AO2 T00891039                                                              
24015KAKO AKO20190331160511003/31/19 16:05:31  5-MIN KAKO 312305Z AUTO 00000KT 10SM CLR 09/M04 A3015 4500 37 4900 000/00 RMK AO2 T00941044                                                              
24015KAKO AKO20190331161011003/31/19 16:10:31  5-MIN KAKO 312310Z AUTO 00000KT 10SM CLR 09/M05 A3015 4500 37 4900 000/00 RMK AO2 T00891050                                                              
24015KAKO AKO20190331161511003/31/19 16:15:31  5-MIN KAKO 312315Z AUTO 00000KT 10SM CLR 09/M05 A3015 4500 37 4900 000/00 RMK AO2 T00891050                                                              
24015KAKO AKO20190331162011003/31/19 16:20:31  5-MIN KAKO 312320Z AUTO 00000KT 10SM CLR 09/M04 A3015 4500 38 4900 000/00 RMK AO2 T00891044                                                              
24015KAKO AKO20190331164011303/31/19 16:40:31  5-MIN KAKO 312340Z AUTO 00000KT 10SM FEW070 09/M04 A3015 4510 38 4900 000/00 RMK AO2 T00891044                                                           
24015KAKO AKO20190331164511303/31/19 16:45:31  5-MIN KAKO 312345Z AUTO 00000KT 10SM FEW070 09/M04 A3015 4510 38 4900 000/00 RMK AO2 T00891044                                                           
24015KAKO AKO20190331165013803/31/19 16:50:31  5-MIN KAKO 312350Z AUTO 00000KT 10SM SCT070 09/M04 A3015 4510 38 4900 000/00 RMK AO2 SLP221 T00891044 10106 20061 58026                                  
24015KAKO AKO20190331170011303/31/19 17:00:31  5-MIN KAKO 010000Z AUTO 00000KT 10SM SCT070 10/M04 A3015 4510 36 5000 000/00 RMK AO2 T01001044                                                           
24015KAKO AKO20190331171511303/31/19 17:15:31  5-MIN KAKO 010015Z AUTO 00000KT 10SM FEW070 08/M05 A3015 4510 38 4800 000/00 RMK AO2 T00831050                                                           
24015KAKO AKO20190331172011303/31/19 17:20:31  5-MIN KAKO 010020Z AUTO 00000KT 10SM FEW070 08/M04 A3015 4510 40 4800 000/00 RMK AO2 T00831044                                                           
24015KAKO AKO20190402024011304/02/19 02:40:31  5-MIN KAKO 020940Z AUTO 00000KT 10SM OVC095 01/M02 A3005 4600 85 4000 000/00 RMK AO2 T00061017                                                           
24015KAKO AKO20190402025012004/02/19 02:50:31  5-MIN KAKO 020950Z AUTO 00000KT 10SM OVC095 00/M02 A3005 4600 85 3900 000/00 RMK AO2 SLP171 T00001022                                                    
24015KAKO AKO20190402025511304/02/19 02:55:31  5-MIN KAKO 020955Z AUTO 00000KT 10SM OVC095 00/M02 A3005 4600 88 3900 000/00 RMK AO2 T00001017                                                           
24015KAKO AKO20190402030011304/02/19 03:00:31  5-MIN KAKO 021000Z AUTO 00000KT 10SM OVC095 01/M02 A3005 4600 85 4000 000/00 RMK AO2 T00061017                                                           
24015KAKO AKO20190402030511304/02/19 03:05:31  5-MIN KAKO 021005Z AUTO 00000KT 10SM OVC095 01/M02 A3005 4600 85 4000 000/00 RMK AO2 T00061017                                                           
24015KAKO AKO20190402031011304/02/19 03:10:31  5-MIN KAKO 021010Z AUTO 00000KT 10SM OVC090 01/M02 A3005 4600 85 4000 000/00 RMK AO2 T00061017                                                           
24015KAKO AKO20190402042511304/02/19 04:25:31  5-MIN KAKO 021125Z AUTO 00000KT 10SM OVC090 01/M01 A3005 4600 85 4100 000/00 RMK AO2 T00111011                                                           
24015KAKO AKO20190402043011304/02/19 04:30:31  5-MIN KAKO 021130Z AUTO 00000KT 10SM OVC090 01/M01 A3005 4600 85 4100 000/00 RMK AO2 T00111011                                                           
24015KAKO AKO20190402043511304/02/19 04:35:31  5-MIN KAKO 021135Z AUTO 00000KT 10SM OVC090 01/M01 A3005 4600 85 4100 000/00 RMK AO2 T00111011                                                           
24015KAKO AKO20190402044011304/02/19 04:40:31  5-MIN KAKO 021140Z AUTO 00000KT 10SM OVC090 01/M01 A3005 4600 85 4100 000/00 RMK AO2 T00111011                                                           
24015KAKO AKO20190402044511304/02/19 04:45:31  5-MIN KAKO 021145Z AUTO 00000KT 10SM OVC095 01/M01 A3005 4600 85 4100 000/00 RMK AO2 T00111011                                                           
24015KAKO AKO20190402045013804/02/19 04:50:31  5-MIN KAKO 021150Z AUTO 00000KT 10SM OVC090 01/M01 A3005 4600 85 4100 000/00 RMK AO2 SLP176 T00111011 10017 20000 57007                                  
24015KAKO AKO20190402045511304/02/19 04:55:31  5-MIN KAKO 021155Z AUTO 00000KT 10SM OVC090 01/M01 A3005 4600 89 4000 000/00 RMK AO2 T00061011                                                           
24015KAKO AKO20190402050011304/02/19 05:00:31  5-MIN KAKO 021200Z AUTO 00000KT 10SM OVC090 00/M02 A3006 4590 88 3900 000/00 RMK AO2 T00001017                                                           
24015KAKO AKO20190402050511304/02/19 05:05:31  5-MIN KAKO 021205Z AUTO 00000KT 10SM OVC090 00/M01 A3006 4590 92 3900 000/00 RMK AO2 T00001011                                                           
24015KAKO AKO20190402051011304/02/19 05:10:31  5-MIN KAKO 021210Z AUTO 00000KT 10SM OVC090 01/M02 A3006 4590 85 4000 000/00 RMK AO2 T00061017                                                           
24015KAKO AKO20190402051511304/02/19 05:15:31  5-MIN KAKO 021215Z AUTO 00000KT 10SM OVC090 01/M02 A3006 4590 85 4000 000/00 RMK AO2 T00061017                                                           
24015KAKO AKO20190402052011304/02/19 05:20:31  5-MIN KAKO 021220Z AUTO 00000KT 10SM OVC090 01/M02 A3005 4600 85 4000 000/00 RMK AO2 T00061017                                                           
24015KAKO AKO20190402052511304/02/19 05:25:31  5-MIN KAKO 021225Z AUTO 00000KT 10SM OVC090 01/M02 A3005 4600 85 4000 000/00 RMK AO2 T00061017                                                           
24015KAKO AKO20190402053011304/02/19 05:30:31  5-MIN KAKO 021230Z AUTO 00000KT 10SM OVC090 01/M02 A3005 4600 85 4000 000/00 RMK AO2 T00061017                                                           
24015KAKO AKO20190402053511304/02/19 05:35:31  5-MIN KAKO 021235Z AUTO 00000KT 10SM OVC090 01/M02 A3005 4600 85 4000 000/00 RMK AO2 T00061017                                                           
24015KAKO AKO20190402054011304/02/19 05:40:31  5-MIN KAKO 021240Z AUTO 00000KT 10SM OVC090 01/M02 A3005 4600 85 4000 000/00 RMK AO2 T00061017                                                           
24015KAKO AKO20190402054511304/02/19 05:45:31  5-MIN KAKO 021245Z AUTO 00000KT 10SM OVC095 01/M02 A3005 4600 82 4100 000/00 RMK AO2 T00111017                                                           
24015KAKO AKO20190402055012704/02/19 05:50:31  5-MIN KAKO 021250Z AUTO 00000KT 10SM BKN095 OVC110 01/M01 A3006 4590 85 4100 000/00 RMK AO2 SLP182 T00111011                                             
24015KAKO AKO20190402055512004/02/19 05:55:31  5-MIN KAKO 021255Z AUTO 00000KT 10SM BKN095 OVC110 01/M01 A3006 4590 85 4100 000/00 RMK AO2 T00111011                                                    
24015KAKO AKO20190402060012004/02/19 06:00:31  5-MIN KAKO 021300Z AUTO 00000KT 10SM BKN095 OVC110 01/M01 A3006 4590 89 4000 000/00 RMK AO2 T00061011                                                    
24015KAKO AKO20190402060512004/02/19 06:05:31  5-MIN KAKO 021305Z AUTO 00000KT 10SM BKN100 OVC110 01/M01 A3006 4590 89 4100 000/00 RMK AO2 T00111006                                                    
24015KAKO AKO20190402061012004/02/19 06:10:31  5-MIN KAKO 021310Z AUTO 00000KT 10SM BKN095 OVC110 01/M01 A3006 4590 89 4100 000/00 RMK AO2 T00111006                                                    
24015KAKO AKO20190402061512004/02/19 06:15:31  5-MIN KAKO 021315Z AUTO 00000KT 10SM BKN095 OVC110 02/M01 A3006 4590 85 4100 000/00 RMK AO2 T00171006                                                    
24015KAKO AKO20190402062011304/02/19 06:20:31  5-MIN KAKO 021320Z AUTO 00000KT 10SM OVC095 02/M01 A3006 4590 85 4100 000/00 RMK AO2 T00171006                                                           
24015KAKO AKO20190402062511304/02/19 06:25:31  5-MIN KAKO 021325Z AUTO 00000KT 10SM OVC090 02/M01 A3006 4590 85 4100 000/00 RMK AO2 T00171006                                                           
24015KAKO AKO20190402063011304/02/19 06:30:31  5-MIN KAKO 021330Z AUTO 00000KT 10SM OVC090 02/M01 A3007 4580 85 4100 000/00 RMK AO2 T00171006                                                           
24015KAKO AKO20190402063511304/02/19 06:35:31  5-MIN KAKO 021335Z AUTO 00000KT 10SM OVC090 02/M01 A3007 4580 82 4200 000/00 RMK AO2 T00221006                                                           
24015KAKO AKO20190402064011304/02/19 06:40:31  5-MIN KAKO 021340Z AUTO 00000KT 10SM OVC090 02/M01 A3007 4580 82 4200 000/00 RMK AO2 T00221006                                                           
24015KAKO AKO20190402064511204/02/19 06:45:31  5-MIN KAKO 021345Z AUTO 00000KT 10SM OVC085 02/00 A3007 4580 85 4200 000/00 RMK AO2 T00220000                                                            
24015KAKO AKO20190402065012004/02/19 06:50:31  5-MIN KAKO 021350Z AUTO 00000KT 10SM OVC090 03/M01 A3007 4580 79 4200 000/00 RMK AO2 SLP190 T00281006                                                    
24015KAKO AKO20190402065511304/02/19 06:55:31  5-MIN KAKO 021355Z AUTO 00000KT 10SM OVC090 03/M01 A3007 4580 79 4200 000/00 RMK AO2 T00281006                                                           
24015KAKO AKO20190402070011304/02/19 07:00:31  5-MIN KAKO 021400Z AUTO 00000KT 10SM OVC090 03/M01 A3007 4580 79 4200 000/00 RMK AO2 T00281006                                                           
24015KAKO AKO20190402070511304/02/19 07:05:31  5-MIN KAKO 021405Z AUTO 00000KT 10SM OVC090 03/M01 A3007 4580 79 4200 000/00 RMK AO2 T00281006                                                           
24015KAKO AKO20190402071011304/02/19 07:10:31  5-MIN KAKO 021410Z AUTO 00000KT 10SM OVC090 03/M01 A3007 4580 79 4200 000/00 RMK AO2 T00281006                                                           
24015KAKO AKO20190402071511304/02/19 07:15:31  5-MIN KAKO 021415Z AUTO 00000KT 10SM OVC090 03/M01 A3007 4580 79 4200 000/00 RMK AO2 T00281006                                                           
24015KAKO AKO20190402093511304/02/19 09:35:31  5-MIN KAKO 021635Z AUTO VRB06KT 10SM OVC080 06/M01 A3008 4570 62 4600 VRB/06 RMK AO2 T00611006                                                           
24015KAKO AKO20190402102012004/02/19 10:20:31  5-MIN KAKO 021720Z AUTO 00000KT 10SM SCT080 BKN100 07/M01 A3007 4590 57 4800 000/00 RMK AO2 T00721006                                                    
24015KAKO AKO20190402103012004/02/19 10:30:31  5-MIN KAKO 021730Z AUTO VRB05KT 10SM FEW075 BKN110 08/M01 A3006 4590 55 4800 VRB/05 RMK AO2 T00781006                                                    
24015KAKO AKO20190402104012004/02/19 10:40:31  5-MIN KAKO 021740Z AUTO VRB03KT 10SM FEW080 OVC110 09/M01 A3005 4600 51 5000 VRB/03 RMK AO2 T00891006                                                    
24015KAKO AKO20190402110511304/02/19 11:05:31  5-MIN KAKO 021805Z AUTO VRB05KT 10SM SCT100 09/M01 A3004 4600 49 5000 VRB/05 RMK AO2 T00891011                                                           
24015KAKO AKO20190402111511304/02/19 11:15:31  5-MIN KAKO 021815Z AUTO VRB05KT 10SM BKN110 10/M01 A3004 4610 46 5100 VRB/05 RMK AO2 T01001011                                                           
24015KAKO AKO20190403123011104/03/19 12:30:31  5-MIN KAKO 031930Z AUTO VRB04KT 8SM SCT120 12/02 A2987 4760 52 5500 VRB/04 RMK AO2 T01170022                                                             
24015KAKO AKO20190404105013404/04/19 10:50:31  5-MIN KAKO 041750Z AUTO VRB05KT 10SM CLR 16/03 A3007 4580 40 5800 VRB/05 RMK AO2 SLP163 T01610028 10161 20011 53004                                      
24015KAKO AKO20190404110010904/04/19 11:00:31  5-MIN KAKO 041800Z AUTO VRB03KT 10SM CLR 17/03 A3006 4590 39 5900 VRB/03 RMK AO2 T01670028                                                               
24015KAKO AKO20190404122511204/04/19 12:25:31  5-MIN KAKO 041925Z AUTO VRB06KT 10SM FEW070 17/01 A3004 4610 32 6000 VRB/06 RMK AO2 T01720006                                                            
24015KAKO AKO20190404123511804/04/19 12:35:31  5-MIN KAKO 041935Z AUTO VRB06G19KT 10SM FEW070 17/01 A3003 4620 32 6000 VRB/06G19 RMK AO2 T01720006                                                      
24015KAKO AKO20190404141011504/04/19 14:10:31  5-MIN KAKO 042110Z AUTO VRB05G20KT 10SM CLR 19/01 A3000 4640 29 6200 VRB/05G20 RMK AO2 T01890006                                                         
24015KAKO AKO20190404143511504/04/19 14:35:31  5-MIN KAKO 042135Z AUTO VRB05G17KT 10SM CLR 19/01 A2999 4650 28 6300 VRB/05G17 RMK AO2 T01940006                                                         
24015KAKO AKO20190404145511004/04/19 14:55:31  5-MIN KAKO 042155Z AUTO VRB03KT 10SM CLR 19/M01 A2999 4660 26 6300 VRB/03 RMK AO2 T01941006                                                              
24015KAKO AKO20190404160011004/04/19 16:00:31  5-MIN KAKO 042300Z AUTO 00000KT 10SM CLR 18/M01 A2998 4670 27 6200 000/00 RMK AO2 T01831006                                                              
24015KAKO AKO20190404160511004/04/19 16:05:31  5-MIN KAKO 042305Z AUTO VRB06KT 10SM CLR 19/M01 A2998 4670 26 6200 VRB/06 RMK AO2 T01891006                                                              
24015KAKO AKO20190404162011004/04/19 16:20:31  5-MIN KAKO 042320Z AUTO VRB05KT 10SM CLR 19/M01 A2998 4670 26 6300 VRB/05 RMK AO2 T01941006                                                              
24015KAKO AKO20190404163511004/04/19 16:35:31  5-MIN KAKO 042335Z AUTO 00000KT 10SM CLR 19/M01 A2998 4670 26 6200 000/00 RMK AO2 T01891006                                                              
24015KAKO AKO20190404171011004/04/19 17:10:31  5-MIN KAKO 050010Z AUTO VRB05KT 10SM CLR 19/M01 A2998 4670 26 6200 VRB/05 RMK AO2 T01891006                                                              
24015KAKO AKO20190404173011004/04/19 17:30:31  5-MIN KAKO 050030Z AUTO 00000KT 10SM CLR 18/M01 A2998 4670 27 6200 000/00 RMK AO2 T01831006                                                              
24015KAKO AKO20190404180011004/04/19 18:00:31  5-MIN KAKO 050100Z AUTO 00000KT 10SM CLR 16/M01 A2998 4670 33 5800 000/00 RMK AO2 T01561006                                                              
24015KAKO AKO20190404181011004/04/19 18:10:31  5-MIN KAKO 050110Z AUTO 00000KT 10SM CLR 16/M01 A2998 4670 33 5800 000/00 RMK AO2 T01561006                                                              
24015KAKO AKO20190404181511004/04/19 18:15:31  5-MIN KAKO 050115Z AUTO 00000KT 10SM CLR 16/M01 A2998 4670 31 5800 000/00 RMK AO2 T01561011                                                              
24015KAKO AKO20190404182011304/04/19 18:20:31  5-MIN KAKO 050120Z AUTO 00000KT 10SM FEW120 15/M01 A2998 4670 33 5800 000/00 RMK AO2 T01501011                                                           
24015KAKO AKO20190404182512004/04/19 18:25:31  5-MIN KAKO 050125Z AUTO 00000KT 10SM FEW100 SCT120 16/M01 A2998 4670 31 5800 000/00 RMK AO2 T01561011                                                    
24015KAKO AKO20190404183512004/04/19 18:35:31  5-MIN KAKO 050135Z AUTO 00000KT 10SM FEW100 BKN120 16/M01 A2998 4670 31 5800 000/00 RMK AO2 T01561011                                                    
24015KAKO AKO20190404184012004/04/19 18:40:31  5-MIN KAKO 050140Z AUTO 00000KT 10SM SCT095 BKN120 16/M02 A2998 4670 30 5800 000/00 RMK AO2 T01561017                                                    
24015KAKO AKO20190404184512004/04/19 18:45:31  5-MIN KAKO 050145Z AUTO 00000KT 10SM SCT095 OVC120 15/M01 A2998 4660 33 5800 000/00 RMK AO2 T01501011                                                    
24015KAKO AKO20190404190012004/04/19 19:00:31  5-MIN KAKO 050200Z AUTO 00000KT 10SM BKN100 OVC120 14/M01 A2998 4660 35 5700 000/00 RMK AO2 T01441006                                                    
24015KAKO AKO20190405041010904/05/19 04:10:31  5-MIN KAKO 051110Z AUTO 00000KT 10SM CLR 06/02 A2992 4720 76 4800 000/00 RMK AO2 T00610022                                                               
24015KAKO AKO20190405043010904/05/19 04:30:31  5-MIN KAKO 051130Z AUTO 00000KT 10SM CLR 06/02 A2992 4720 79 4700 000/00 RMK AO2 T00560022                                                               
24015KAKO AKO20190405051510904/05/19 05:15:31  5-MIN KAKO 051215Z AUTO 00000KT 10SM CLR 05/02 A2992 4720 82 4700 000/00 RMK AO2 T00500022                                                               
24015KAKO AKO20190405052010904/05/19 05:20:31  5-MIN KAKO 051220Z AUTO 00000KT 10SM CLR 06/03 A2992 4720 79 4800 000/00 RMK AO2 T00610028                                                               
24015KAKO AKO20190405052510904/05/19 05:25:31  5-MIN KAKO 051225Z AUTO 00000KT 10SM CLR 06/03 A2992 4720 79 4800 000/00 RMK AO2 T00610028                                                               
24015KAKO AKO20190405053010904/05/19 05:30:31  5-MIN KAKO 051230Z AUTO 00000KT 10SM CLR 06/03 A2992 4720 79 4800 000/00 RMK AO2 T00610028                                                               
24015KAKO AKO20190405053510904/05/19 05:35:31  5-MIN KAKO 051235Z AUTO 00000KT 10SM CLR 06/03 A2992 4720 79 4800 000/00 RMK AO2 T00610028                                                               
24015KAKO AKO20190405054510904/05/19 05:45:31  5-MIN KAKO 051245Z AUTO 00000KT 10SM CLR 04/02 A2991 4720 82 4600 000/00 RMK AO2 T00440017                                                               
24015KAKO AKO20190405055011604/05/19 05:50:31  5-MIN KAKO 051250Z AUTO 00000KT 10SM CLR 04/02 A2992 4720 85 4600 000/00 RMK AO2 SLP112 T00390017                                                        
24015KAKO AKO20190405055510904/05/19 05:55:31  5-MIN KAKO 051255Z AUTO 00000KT 10SM CLR 04/02 A2992 4720 85 4500 000/00 RMK AO2 T00390017                                                               
24015KAKO AKO20190405061010904/05/19 06:10:31  5-MIN KAKO 051310Z AUTO 00000KT 10SM CLR 04/02 A2992 4720 85 4600 000/00 RMK AO2 T00390017                                                               
24015KAKO AKO20190405061510904/05/19 06:15:31  5-MIN KAKO 051315Z AUTO 00000KT 10SM CLR 04/02 A2992 4720 85 4600 000/00 RMK AO2 T00440022                                                               
24015KAKO AKO20190405062010904/05/19 06:20:31  5-MIN KAKO 051320Z AUTO 00000KT 10SM CLR 06/03 A2992 4720 82 4700 000/00 RMK AO2 T00560028                                                               
24015KAKO AKO20190405062510904/05/19 06:25:31  5-MIN KAKO 051325Z AUTO 00000KT 10SM CLR 06/03 A2992 4720 85 4700 000/00 RMK AO2 T00560033                                                               
24015KAKO AKO20190405063510904/05/19 06:35:31  5-MIN KAKO 051335Z AUTO 00000KT 10SM CLR 06/04 A2992 4720 86 4800 000/00 RMK AO2 T00610039                                                               
24015KAKO AKO20190405064010904/05/19 06:40:31  5-MIN KAKO 051340Z AUTO 00000KT 10SM CLR 07/04 A2992 4720 82 4900 000/00 RMK AO2 T00670039                                                               
24015KAKO AKO20190405064510904/05/19 06:45:31  5-MIN KAKO 051345Z AUTO 00000KT 10SM CLR 07/04 A2992 4720 82 4900 000/00 RMK AO2 T00670039                                                               
24015KAKO AKO20190405093510904/05/19 09:35:31  5-MIN KAKO 051635Z AUTO 00000KT 10SM CLR 15/05 A2992 4720 51 5800 000/00 RMK AO2 T01500050                                                               
24015KAKO AKO20190405094010904/05/19 09:40:31  5-MIN KAKO 051640Z AUTO VRB03KT 10SM CLR 15/05 A2992 4720 51 5800 VRB/03 RMK AO2 T01500050                                                               
24015KAKO AKO20190405095011604/05/19 09:50:31  5-MIN KAKO 051650Z AUTO 00000KT 10SM CLR 16/05 A2992 4720 49 5900 000/00 RMK AO2 SLP097 T01560050                                                        
24015KAKO AKO20190405095510904/05/19 09:55:31  5-MIN KAKO 051655Z AUTO 00000KT 10SM CLR 15/05 A2991 4720 51 5800 000/00 RMK AO2 T01500050                                                               
24015KAKO AKO20190405100010904/05/19 10:00:31  5-MIN KAKO 051700Z AUTO VRB03KT 10SM CLR 16/06 A2991 4730 49 6000 VRB/03 RMK AO2 T01610056                                                               
24015KAKO AKO20190405102510904/05/19 10:25:31  5-MIN KAKO 051725Z AUTO VRB04KT 10SM CLR 17/05 A2991 4730 44 6100 VRB/04 RMK AO2 T01720050                                                               
24015KAKO AKO20190405103510904/05/19 10:35:31  5-MIN KAKO 051735Z AUTO 00000KT 10SM CLR 18/04 A2991 4730 41 6200 000/00 RMK AO2 T01780044                                                               
24015KAKO AKO20190405110010904/05/19 11:00:31  5-MIN KAKO 051800Z AUTO VRB03KT 10SM CLR 19/05 A2990 4740 38 6400 VRB/03 RMK AO2 T01940050                                                               
24015KAKO AKO20190405110510904/05/19 11:05:31  5-MIN KAKO 051805Z AUTO VRB03KT 10SM CLR 19/04 A2990 4740 37 6400 VRB/03 RMK AO2 T01940044                                                               
24015KAKO AKO20190405112010904/05/19 11:20:31  5-MIN KAKO 051820Z AUTO VRB03KT 10SM CLR 19/04 A2989 4750 35 6400 VRB/03 RMK AO2 T01940039                                                               
24015KAKO AKO20190405112510904/05/19 11:25:31  5-MIN KAKO 051825Z AUTO VRB04KT 10SM CLR 21/03 A2989 4750 30 6500 VRB/04 RMK AO2 T02060028                                                               
24015KAKO AKO20190405113010904/05/19 11:30:31  5-MIN KAKO 051830Z AUTO VRB04KT 10SM CLR 21/02 A2988 4750 29 6500 VRB/04 RMK AO2 T02060022                                                               
24015KAKO AKO20190405113510904/05/19 11:35:31  5-MIN KAKO 051835Z AUTO 00000KT 10SM CLR 21/03 A2988 4760 30 6500 000/00 RMK AO2 T02060028                                                               
24015KAKO AKO20190405121010904/05/19 12:10:31  5-MIN KAKO 051910Z AUTO VRB04KT 10SM CLR 21/00 A2986 4780 24 6600 VRB/04 RMK AO2 T02110000                                                               
24015KAKO AKO20190405122010904/05/19 12:20:31  5-MIN KAKO 051920Z AUTO VRB04KT 10SM CLR 22/01 A2986 4780 24 6700 VRB/04 RMK AO2 T02170006                                                               
24015KAKO AKO20190405124510904/05/19 12:45:31  5-MIN KAKO 051945Z AUTO VRB03KT 10SM CLR 22/00 A2985 4790 23 6700 VRB/03 RMK AO2 T02170000                                                               
24015KAKO AKO20190405125011604/05/19 12:50:31  5-MIN KAKO 051950Z AUTO VRB06KT 10SM CLR 22/00 A2985 4790 23 6700 VRB/06 RMK AO2 SLP066 T02170000                                                        
24015KAKO AKO20190405125510904/05/19 12:55:31  5-MIN KAKO 051955Z AUTO VRB05KT 10SM CLR 22/00 A2984 4790 23 6700 VRB/05 RMK AO2 T02170000                                                               
24015KAKO AKO20190405131511004/05/19 13:15:31  5-MIN KAKO 052015Z AUTO 00000KT 10SM CLR 21/M01 A2984 4790 23 6600 000/00 RMK AO2 T02111006                                                              
24015KAKO AKO20190405132511004/05/19 13:25:31  5-MIN KAKO 052025Z AUTO VRB03KT 10SM CLR 21/M01 A2984 4800 22 6600 VRB/03 RMK AO2 T02111011                                                              
24015KAKO AKO20190405133511004/05/19 13:35:31  5-MIN KAKO 052035Z AUTO VRB06KT 10SM CLR 22/M01 A2983 4800 22 6700 VRB/06 RMK AO2 T02171006                                                              
24015KAKO AKO20190405134011004/05/19 13:40:31  5-MIN KAKO 052040Z AUTO VRB04KT 10SM CLR 22/M01 A2983 4800 22 6700 VRB/04 RMK AO2 T02171006                                                              
24015KAKO AKO20190405134511304/05/19 13:45:31  5-MIN KAKO 052045Z AUTO VRB05KT 10SM FEW100 22/M01 A2983 4800 22 6700 VRB/05 RMK AO2 T02171006                                                           
24015KAKO AKO20190405140511204/05/19 14:05:31  5-MIN KAKO 052105Z AUTO VRB06KT 10SM FEW100 22/00 A2982 4810 23 6700 VRB/06 RMK AO2 T02170000                                                            
24015KAKO AKO20190405143512504/05/19 14:35:31  5-MIN KAKO 052135Z AUTO VRB04G14KT 10SM BKN100 BKN110 22/01 A2981 4820 24 6700 VRB/04G14 RMK AO2 T02170006                                               
24015KAKO AKO20190405155510904/05/19 15:55:31  5-MIN KAKO 052255Z AUTO VRB03KT 10SM CLR 21/00 A2980 4830 24 6700 VRB/03 RMK AO2 T02110000                                                               
24015KAKO AKO20190406050011204/06/19 05:00:31  5-MIN KAKO 061200Z AUTO VRB04KT 10SM FEW075 09/03 A2982 4810 65 5300 VRB/04 RMK AO2 T00940033                                                            
24015KAKO AKO20190406050511604/06/19 05:05:31  5-MIN KAKO 061205Z AUTO VRB04KT 10SM CLR 09/03 A2983 4800 65 5300 VRB/04 RMK AO2 PRESRR T00940033                                                        
24015KAKO AKO20190406110512504/06/19 11:05:31  5-MIN KAKO 061805Z AUTO VRB04G18KT 10SM FEW075 BKN120 19/01 A2983 4800 30 6400 VRB/04G18 RMK AO2 T01890011                                               
24015KAKO AKO20190406120011204/06/19 12:00:31  5-MIN KAKO 061900Z AUTO VRB05KT 10SM BKN110 20/01 A2982 4810 27 6500 VRB/05 RMK AO2 T02000006                                                            
24015KAKO AKO20190406121511804/06/19 12:15:31  5-MIN KAKO 061915Z AUTO VRB06G18KT 10SM BKN120 21/00 A2982 4810 25 6600 VRB/06G18 RMK AO2 T02060000                                                      
24015KAKO AKO20190406122511204/06/19 12:25:31  5-MIN KAKO 061925Z AUTO 00000KT 10SM BKN120 20/00 A2981 4820 26 6500 000/00 RMK AO2 T02000000                                                            
24015KAKO AKO20190406123011304/06/19 12:30:31  5-MIN KAKO 061930Z AUTO VRB03KT 10SM BKN120 19/M01 A2981 4820 26 6500 VRB/03 RMK AO2 T01941006                                                           
24015KAKO AKO20190406131511904/06/19 13:15:31  5-MIN KAKO 062015Z AUTO VRB03G18KT 10SM FEW095 21/M01 A2981 4830 22 6700 VRB/03G18 RMK AO2 T02111011                                                     
24015KAKO AKO20190406132011304/06/19 13:20:31  5-MIN KAKO 062020Z AUTO 00000KT 10SM FEW095 21/M01 A2980 4830 23 6600 000/00 RMK AO2 T02061011                                                           
24015KAKO AKO20190406135012604/06/19 13:50:31  5-MIN KAKO 062050Z AUTO 00000KT 10SM FEW110 20/M03 A2979 4840 21 6500 000/00 RMK AO2 SLP054 T02001028 57009                                              
24015KAKO AKO20190406143011004/06/19 14:30:31  5-MIN KAKO 062130Z AUTO VRB04KT 10SM CLR 22/M02 A2978 4850 20 6700 VRB/04 RMK AO2 T02171022                                                              
24015KAKO AKO20190406145011704/06/19 14:50:31  5-MIN KAKO 062150Z AUTO VRB04KT 10SM CLR 21/M03 A2978 4850 19 6700 VRB/04 RMK AO2 SLP047 T02111033                                                       
24015KAKO AKO20190406150011004/06/19 15:00:31  5-MIN KAKO 062200Z AUTO 00000KT 10SM CLR 20/M04 A2978 4850 19 6600 000/00 RMK AO2 T02001039                                                              
24015KAKO AKO20190406152511604/06/19 15:25:31  5-MIN KAKO 062225Z AUTO VRB04G15KT 10SM CLR 22/M03 A2978 4850 19 6700 VRB/04G15 RMK AO2 T02171028                                                        
24015KAKO AKO20190406153511004/06/19 15:35:31  5-MIN KAKO 062235Z AUTO VRB06KT 10SM CLR 22/M02 A2978 4850 20 6800 VRB/06 RMK AO2 T02171022                                                              
24015KAKO AKO20190406154011004/06/19 15:40:31  5-MIN KAKO 062240Z AUTO VRB04KT 10SM CLR 21/M03 A2978 4850 19 6700 VRB/04 RMK AO2 T02111033                                                              
24015KAKO AKO20190406155511504/06/19 15:55:31  5-MIN KAKO 062255Z AUTO VRB05KT 4SM HZ SCT110 21/M03 A2978 4850 19 6700 VRB/05 RMK AO2 T02111033                                                         
24015KAKO AKO20190407124011004/07/19 12:40:31  5-MIN KAKO 071940Z AUTO VRB06KT 10SM CLR 18/M03 A3010 4550 23 6000 VRB/06 RMK AO2 T01831028                                                              
24015KAKO AKO20190407124511004/07/19 12:45:31  5-MIN KAKO 071945Z AUTO VRB04KT 10SM CLR 18/M03 A3009 4560 23 6000 VRB/04 RMK AO2 T01781033                                                              
24015KAKO AKO20190407130511004/07/19 13:05:31  5-MIN KAKO 072005Z AUTO VRB03KT 10SM CLR 18/M03 A3009 4560 23 6000 VRB/03 RMK AO2 T01781033                                                              
24015KAKO AKO20190407131011004/07/19 13:10:31  5-MIN KAKO 072010Z AUTO 00000KT 10SM CLR 18/M03 A3008 4570 23 6000 000/00 RMK AO2 T01831028                                                              
24015KAKO AKO20190407131511004/07/19 13:15:31  5-MIN KAKO 072015Z AUTO VRB04KT 10SM CLR 18/M03 A3008 4570 23 6000 VRB/04 RMK AO2 T01831028                                                              
24015KAKO AKO20190407132511004/07/19 13:25:31  5-MIN KAKO 072025Z AUTO 00000KT 10SM CLR 18/M03 A3008 4570 23 6000 000/00 RMK AO2 T01831028                                                              
24015KAKO AKO20190407133011004/07/19 13:30:31  5-MIN KAKO 072030Z AUTO VRB03KT 10SM CLR 18/M03 A3007 4580 23 6000 VRB/03 RMK AO2 T01831028                                                              
24015KAKO AKO20190407134011004/07/19 13:40:31  5-MIN KAKO 072040Z AUTO 00000KT 10SM CLR 19/M03 A3007 4580 22 6100 000/00 RMK AO2 T01891033                                                              
24015KAKO AKO20190407135012304/07/19 13:50:31  5-MIN KAKO 072050Z AUTO VRB03KT 10SM CLR 18/M03 A3007 4580 23 6100 VRB/03 RMK AO2 SLP148 T01831028 50000                                                 
24015KAKO AKO20190407141011004/07/19 14:10:31  5-MIN KAKO 072110Z AUTO VRB05KT 10SM CLR 19/M03 A3006 4590 21 6200 VRB/05 RMK AO2 T01941033                                                              
24015KAKO AKO20190407145011704/07/19 14:50:31  5-MIN KAKO 072150Z AUTO VRB03KT 10SM CLR 19/M04 A3005 4600 20 6200 VRB/03 RMK AO2 SLP142 T01941039                                                       
24015KAKO AKO20190407150011004/07/19 15:00:31  5-MIN KAKO 072200Z AUTO VRB04KT 10SM CLR 20/M03 A3004 4610 20 6300 VRB/04 RMK AO2 T02001033                                                              
24015KAKO AKO20190407150511004/07/19 15:05:31  5-MIN KAKO 072205Z AUTO VRB04KT 10SM CLR 20/M03 A3004 4610 20 6300 VRB/04 RMK AO2 T02001033                                                              
24015KAKO AKO20190407151011004/07/19 15:10:31  5-MIN KAKO 072210Z AUTO VRB04KT 10SM CLR 20/M04 A3004 4610 19 6300 VRB/04 RMK AO2 T02001039                                                              
24015KAKO AKO20190407153011004/07/19 15:30:31  5-MIN KAKO 072230Z AUTO VRB05KT 10SM CLR 20/M04 A3005 4600 19 6300 VRB/05 RMK AO2 T02001039                                                              
24015KAKO AKO20190407154511004/07/19 15:45:31  5-MIN KAKO 072245Z AUTO VRB05KT 10SM CLR 20/M04 A3004 4610 18 6300 VRB/05 RMK AO2 T02001044                                                              
24015KAKO AKO20190408115012304/08/19 11:50:31  5-MIN KAKO 081850Z AUTO VRB05G19KT 10SM CLR 22/M01 A3009 4560 22 6400 VRB/05G19 RMK AO2 SLP151 T02171006                                                 
24015KAKO AKO20190408121011304/08/19 12:10:31  5-MIN KAKO 081910Z AUTO VRB03KT 10SM SCT095 22/M01 A3008 4570 21 6500 VRB/03 RMK AO2 T02221006                                                           
24015KAKO AKO20190408131511304/08/19 13:15:31  5-MIN KAKO 082015Z AUTO VRB04KT 10SM FEW100 22/M02 A3005 4600 20 6500 VRB/04 RMK AO2 T02221017                                                           
24015KAKO AKO20190408132011304/08/19 13:20:31  5-MIN KAKO 082020Z AUTO 00000KT 10SM FEW100 22/M01 A3005 4600 21 6500 000/00 RMK AO2 T02221011                                                           
24015KAKO AKO20190408150011004/08/19 15:00:31  5-MIN KAKO 082200Z AUTO 00000KT 10SM CLR 23/M01 A3003 4620 20 6600 000/00 RMK AO2 T02281011                                                              
24015KAKO AKO20190408150511004/08/19 15:05:31  5-MIN KAKO 082205Z AUTO VRB06KT 10SM CLR 23/M01 A3003 4620 19 6600 VRB/06 RMK AO2 T02331011                                                              
24015KAKO AKO20190408154011004/08/19 15:40:31  5-MIN KAKO 082240Z AUTO VRB06KT 10SM CLR 23/M02 A3003 4620 19 6600 VRB/06 RMK AO2 T02281017                                                              
24015KAKO AKO20190412151011304/12/19 15:10:31  5-MIN KAKO 122210Z AUTO VRB06KT 10SM FEW039 05/M04 A2987 4770 52 4700 VRB/06 RMK AO2 T00501039                                                           
24015KAKO AKO20190412152511304/12/19 15:25:31  5-MIN KAKO 122225Z AUTO VRB03KT 10SM FEW038 05/M04 A2987 4770 52 4700 VRB/03 RMK AO2 T00501039                                                           
24015KAKO AKO20190412164511304/12/19 16:45:31  5-MIN KAKO 122345Z AUTO 00000KT 10SM BKN043 04/M04 A2989 4740 55 4600 000/00 RMK AO2 T00441039                                                           
24015KAKO AKO20190412170011304/12/19 17:00:31  5-MIN KAKO 130000Z AUTO 00000KT 10SM BKN043 04/M04 A2990 4740 55 4600 000/00 RMK AO2 T00441039                                                           
24015KAKO AKO20190412170511304/12/19 17:05:31  5-MIN KAKO 130005Z AUTO 00000KT 10SM SCT044 05/M04 A2990 4740 52 4700 000/00 RMK AO2 T00501039                                                           
24015KAKO AKO20190412171511304/12/19 17:15:31  5-MIN KAKO 130015Z AUTO VRB03KT 10SM FEW044 06/M04 A2990 4740 50 4800 VRB/03 RMK AO2 T00561039                                                           
24015KAKO AKO20190412172511304/12/19 17:25:31  5-MIN KAKO 130025Z AUTO 00000KT 10SM FEW046 04/M04 A2991 4730 52 4600 000/00 RMK AO2 T00441044                                                           
24015KAKO AKO20190412173011304/12/19 17:30:31  5-MIN KAKO 130030Z AUTO 00000KT 10SM FEW046 04/M04 A2991 4730 55 4600 000/00 RMK AO2 T00441039                                                           
24015KAKO AKO20190412173512704/12/19 17:35:31  5-MIN KAKO 130035Z AUTO 00000KT 10SM FEW040 FEW048 FEW070 04/M04 A2991 4730 52 4600 000/00 RMK AO2 T00441044                                             
24015KAKO AKO20190412174012704/12/19 17:40:31  5-MIN KAKO 130040Z AUTO 00000KT 10SM FEW040 FEW048 SCT075 04/M04 A2991 4730 52 4600 000/00 RMK AO2 T00441044                                             
24015KAKO AKO20190414145511304/14/19 14:55:31  5-MIN KAKO 142155Z AUTO 00000KT 10SM SCT110 15/M05 A2971 4920 24 6100 000/00 RMK AO2 T01501050                                                           
24015KAKO AKO20190414152011004/14/19 15:20:31  5-MIN KAKO 142220Z AUTO 00000KT 10SM CLR 16/M04 A2970 4920 25 6200 000/00 RMK AO2 T01561044                                                              
24015KAKO AKO20190414152511304/14/19 15:25:31  5-MIN KAKO 142225Z AUTO 00000KT 10SM FEW110 16/M04 A2970 4920 25 6200 000/00 RMK AO2 T01611039                                                           
24015KAKO AKO20190414154011004/14/19 15:40:31  5-MIN KAKO 142240Z AUTO VRB04KT 10SM CLR 16/M04 A2969 4930 25 6200 VRB/04 RMK AO2 T01611039                                                              
24015KAKO AKO20190415131510904/15/19 13:15:31  5-MIN KAKO 152015Z AUTO VRB06KT 10SM CLR 21/01 A2974 4890 26 6700 VRB/06 RMK AO2 T02110011                                                               
24015KAKO AKO20190415132510904/15/19 13:25:31  5-MIN KAKO 152025Z AUTO VRB04KT 10SM CLR 21/00 A2974 4890 25 6700 VRB/04 RMK AO2 T02060000                                                               
24015KAKO AKO20190415133510904/15/19 13:35:31  5-MIN KAKO 152035Z AUTO 00000KT 10SM CLR 21/00 A2974 4890 25 6700 000/00 RMK AO2 T02060000                                                               
24015KAKO AKO20190415135012204/15/19 13:50:31  5-MIN KAKO 152050Z AUTO VRB04KT 10SM CLR 21/M01 A2973 4890 23 6700 VRB/04 RMK AO2 SLPNO 6//// T02111006                                                  
24015KAKO AKO20190415144511004/15/19 14:45:31  5-MIN KAKO 152145Z AUTO VRB03KT 10SM CLR 22/M02 A2972 4900 20 6800 VRB/03 RMK AO2 T02171017                                                              
24015KAKO AKO20190415145511004/15/19 14:55:31  5-MIN KAKO 152155Z AUTO 00000KT 10SM CLR 21/M02 A2972 4910 22 6700 000/00 RMK AO2 T02061017                                                              
24015KAKO AKO20190415150011004/15/19 15:00:31  5-MIN KAKO 152200Z AUTO 00000KT 10SM CLR 22/M01 A2972 4910 21 6800 000/00 RMK AO2 T02171011                                                              
24015KAKO AKO20190416025510904/16/19 02:55:31  5-MIN KAKO 160955Z AUTO 00000KT 10SM CLR 03/01 A2985 4790 85 4600 000/00 RMK AO2 T00330011                                                               
24015KAKO AKO20190416030010904/16/19 03:00:31  5-MIN KAKO 161000Z AUTO 00000KT 10SM CLR 03/01 A2985 4780 85 4600 000/00 RMK AO2 T00330011                                                               
24015KAKO AKO20190416030510904/16/19 03:05:31  5-MIN KAKO 161005Z AUTO 00000KT 10SM CLR 03/01 A2985 4780 85 4600 000/00 RMK AO2 T00330011                                                               
24015KAKO AKO20190416031010904/16/19 03:10:31  5-MIN KAKO 161010Z AUTO 00000KT 10SM CLR 03/01 A2985 4780 89 4500 000/00 RMK AO2 T00280011                                                               
24015KAKO AKO20190416031510904/16/19 03:15:31  5-MIN KAKO 161015Z AUTO 00000KT 10SM CLR 02/01 A2985 4780 89 4400 000/00 RMK AO2 T00220006                                                               
24015KAKO AKO20190416032010904/16/19 03:20:31  5-MIN KAKO 161020Z AUTO 00000KT 10SM CLR 02/01 A2984 4790 89 4400 000/00 RMK AO2 T00220006                                                               
24015KAKO AKO20190416033010904/16/19 03:30:31  5-MIN KAKO 161030Z AUTO 00000KT 10SM CLR 02/01 A2985 4790 89 4400 000/00 RMK AO2 T00220006                                                               
24015KAKO AKO20190416040510904/16/19 04:05:31  5-MIN KAKO 161105Z AUTO 00000KT 10SM CLR 03/01 A2985 4780 85 4500 000/00 RMK AO2 T00280006                                                               
24015KAKO AKO20190416041010904/16/19 04:10:31  5-MIN KAKO 161110Z AUTO 00000KT 10SM CLR 02/01 A2986 4780 89 4400 000/00 RMK AO2 T00220006                                                               
24015KAKO AKO20190416041510904/16/19 04:15:31  5-MIN KAKO 161115Z AUTO 00000KT 10SM CLR 02/00 A2985 4780 89 4400 000/00 RMK AO2 T00170000                                                               
24015KAKO AKO20190416042010904/16/19 04:20:31  5-MIN KAKO 161120Z AUTO 00000KT 10SM CLR 02/00 A2985 4780 89 4400 000/00 RMK AO2 T00170000                                                               
24015KAKO AKO20190416042510904/16/19 04:25:31  5-MIN KAKO 161125Z AUTO 00000KT 10SM CLR 02/01 A2986 4780 89 4400 000/00 RMK AO2 T00220006                                                               
24015KAKO AKO20190416043010904/16/19 04:30:31  5-MIN KAKO 161130Z AUTO 00000KT 10SM CLR 02/01 A2986 4780 89 4400 000/00 RMK AO2 T00220006                                                               
24015KAKO AKO20190416043510904/16/19 04:35:31  5-MIN KAKO 161135Z AUTO 00000KT 10SM CLR 02/01 A2986 4780 92 4400 000/00 RMK AO2 T00170006                                                               
24015KAKO AKO20190416044010904/16/19 04:40:31  5-MIN KAKO 161140Z AUTO 00000KT 10SM CLR 02/00 A2985 4780 89 4400 000/00 RMK AO2 T00170000                                                               
24015KAKO AKO20190416044510904/16/19 04:45:31  5-MIN KAKO 161145Z AUTO 00000KT 10SM CLR 02/00 A2985 4780 89 4400 000/00 RMK AO2 T00170000                                                               
24015KAKO AKO20190416045014004/16/19 04:50:31  5-MIN KAKO 161150Z AUTO 00000KT 10SM CLR 02/00 A2985 4780 89 4400 000/00 RMK AO2 SLP087 7//// T00170000 10056 20011 51006                                
24015KAKO AKO20190416045510904/16/19 04:55:31  5-MIN KAKO 161155Z AUTO 00000KT 10SM CLR 02/00 A2985 4780 89 4400 000/00 RMK AO2 T00170000                                                               
24015KAKO AKO20190416050010904/16/19 05:00:31  5-MIN KAKO 161200Z AUTO 00000KT 10SM CLR 02/00 A2985 4780 89 4400 000/00 RMK AO2 T00170000                                                               
24015KAKO AKO20190416053010904/16/19 05:30:31  5-MIN KAKO 161230Z AUTO 00000KT 10SM CLR 03/01 A2985 4780 85 4500 000/00 RMK AO2 T00280006                                                               
24015KAKO AKO20190416053510904/16/19 05:35:31  5-MIN KAKO 161235Z AUTO 00000KT 10SM CLR 03/01 A2986 4780 85 4500 000/00 RMK AO2 T00280006                                                               
24015KAKO AKO20190416054010904/16/19 05:40:31  5-MIN KAKO 161240Z AUTO 00000KT 10SM CLR 02/00 A2986 4780 89 4300 000/00 RMK AO2 T00170000                                                               
24015KAKO AKO20190416054510904/16/19 05:45:31  5-MIN KAKO 161245Z AUTO 00000KT 10SM CLR 02/00 A2986 4770 89 4300 000/00 RMK AO2 T00170000                                                               
24015KAKO AKO20190416055011604/16/19 05:50:31  5-MIN KAKO 161250Z AUTO 00000KT 10SM CLR 02/01 A2986 4770 92 4300 000/00 RMK AO2 SLP093 T00170006                                                        
24015KAKO AKO20190416055510904/16/19 05:55:31  5-MIN KAKO 161255Z AUTO 00000KT 10SM CLR 02/01 A2986 4770 89 4400 000/00 RMK AO2 T00220006                                                               
24015KAKO AKO20190416060010904/16/19 06:00:31  5-MIN KAKO 161300Z AUTO 00000KT 10SM CLR 02/01 A2986 4770 89 4400 000/00 RMK AO2 T00220006                                                               
24015KAKO AKO20190416060510904/16/19 06:05:31  5-MIN KAKO 161305Z AUTO 00000KT 10SM CLR 02/01 A2987 4770 89 4400 000/00 RMK AO2 T00220006                                                               
24015KAKO AKO20190416061010904/16/19 06:10:31  5-MIN KAKO 161310Z AUTO 00000KT 10SM CLR 02/01 A2987 4770 89 4400 000/00 RMK AO2 T00220006                                                               
24015KAKO AKO20190416061510904/16/19 06:15:31  5-MIN KAKO 161315Z AUTO 00000KT 10SM CLR 03/01 A2987 4760 89 4500 000/00 RMK AO2 T00280011                                                               
24015KAKO AKO20190416062010904/16/19 06:20:31  5-MIN KAKO 161320Z AUTO 00000KT 10SM CLR 03/02 A2987 4760 89 4500 000/00 RMK AO2 T00330017                                                               
24015KAKO AKO20190416062510904/16/19 06:25:31  5-MIN KAKO 161325Z AUTO 00000KT 10SM CLR 03/02 A2987 4760 89 4500 000/00 RMK AO2 T00330017                                                               
24015KAKO AKO20190416063010904/16/19 06:30:31  5-MIN KAKO 161330Z AUTO 00000KT 10SM CLR 04/02 A2987 4760 85 4600 000/00 RMK AO2 T00390017                                                               
24015KAKO AKO20190416072010904/16/19 07:20:31  5-MIN KAKO 161420Z AUTO 00000KT 10SM CLR 06/02 A2987 4770 79 4800 000/00 RMK AO2 T00560022                                                               
24015KAKO AKO20190416072510904/16/19 07:25:31  5-MIN KAKO 161425Z AUTO 00000KT 10SM CLR 06/02 A2987 4770 79 4800 000/00 RMK AO2 T00560022                                                               
24015KAKO AKO20190416073010904/16/19 07:30:31  5-MIN KAKO 161430Z AUTO 00000KT 10SM CLR 06/02 A2987 4770 79 4800 000/00 RMK AO2 T00560022                                                               
24015KAKO AKO20190416073510904/16/19 07:35:31  5-MIN KAKO 161435Z AUTO 00000KT 10SM CLR 06/02 A2987 4770 76 4800 000/00 RMK AO2 T00560017                                                               
24015KAKO AKO20190416184513404/16/19 18:45:31  5-MIN KAKO 170145Z AUTO VRB06KT 7SM -RA SCT060 OVC075 17/07 A2973 4900 51 6200 VRB/06 RMK AO2 RAB16 P0002 T01670067                                      
24015KAKO AKO20190416193014504/16/19 19:30:31  5-MIN KAKO 170230Z AUTO 00000KT 10SM FEW075 BKN110 13/08 A2972 4900 71 5900 000/00 RMK AO2 LTG DSNT NE-S RAE04 P0000 T01330083                           
24015KAKO AKO20190419111511504/19/19 11:15:31  5-MIN KAKO 191815Z AUTO VRB05G16KT 10SM CLR 18/00 A3011 4540 29 6000 VRB/05G16 RMK AO2 T01830000                                                         
24015KAKO AKO20190419112010904/19/19 11:20:31  5-MIN KAKO 191820Z AUTO VRB06KT 10SM CLR 18/01 A3011 4540 30 6000 VRB/06 RMK AO2 T01830006                                                               
24015KAKO AKO20190419113011504/19/19 11:30:31  5-MIN KAKO 191830Z AUTO VRB04G15KT 10SM CLR 18/01 A3011 4550 30 6000 VRB/04G15 RMK AO2 T01830006                                                         
24015KAKO AKO20190419121510904/19/19 12:15:31  5-MIN KAKO 191915Z AUTO VRB03KT 10SM CLR 19/01 A3009 4570 29 6100 VRB/03 RMK AO2 T01890006                                                               
24015KAKO AKO20190419130010904/19/19 13:00:31  5-MIN KAKO 192000Z AUTO VRB04KT 10SM CLR 20/01 A3007 4580 27 6200 VRB/04 RMK AO2 T02000006                                                               
24015KAKO AKO20190419130510904/19/19 13:05:31  5-MIN KAKO 192005Z AUTO 00000KT 10SM CLR 21/01 A3007 4580 26 6300 000/00 RMK AO2 T02060006                                                               
24015KAKO AKO20190419131010904/19/19 13:10:31  5-MIN KAKO 192010Z AUTO VRB05KT 10SM CLR 21/01 A3007 4580 26 6400 VRB/05 RMK AO2 T02110011                                                               
24015KAKO AKO20190419131510904/19/19 13:15:31  5-MIN KAKO 192015Z AUTO VRB04KT 10SM CLR 22/01 A3006 4590 25 6400 VRB/04 RMK AO2 T02170011                                                               
24015KAKO AKO20190419134511504/19/19 13:45:31  5-MIN KAKO 192045Z AUTO VRB06G17KT 10SM CLR 21/01 A3005 4600 27 6300 VRB/06G17 RMK AO2 T02060011                                                         
24015KAKO AKO20190419135013104/19/19 13:50:31  5-MIN KAKO 192050Z AUTO VRB05G17KT 10SM FEW085 21/01 A3005 4600 26 6400 VRB/05G17 RMK AO2 SLP153 T02110011 58012                                         
24015KAKO AKO20190419135511204/19/19 13:55:31  5-MIN KAKO 192055Z AUTO VRB06KT 10SM FEW085 22/01 A3005 4600 25 6400 VRB/06 RMK AO2 T02170011                                                            
24015KAKO AKO20190419141011204/19/19 14:10:31  5-MIN KAKO 192110Z AUTO 00000KT 10SM SCT085 21/01 A3004 4610 25 6400 000/00 RMK AO2 T02110006                                                            
24015KAKO AKO20190419142011204/19/19 14:20:31  5-MIN KAKO 192120Z AUTO VRB03KT 10SM FEW085 22/01 A3004 4610 25 6500 VRB/03 RMK AO2 T02170011                                                            
24015KAKO AKO20190419142511204/19/19 14:25:31  5-MIN KAKO 192125Z AUTO 00000KT 10SM FEW085 21/01 A3003 4610 26 6400 000/00 RMK AO2 T02110011                                                            
24015KAKO AKO20190419143510904/19/19 14:35:31  5-MIN KAKO 192135Z AUTO 00000KT 10SM CLR 22/01 A3003 4620 25 6500 000/00 RMK AO2 T02170011                                                               
24015KAKO AKO20190419144010904/19/19 14:40:31  5-MIN KAKO 192140Z AUTO VRB03KT 10SM CLR 21/01 A3003 4620 26 6400 VRB/03 RMK AO2 T02110011                                                               
24015KAKO AKO20190419144510904/19/19 14:45:31  5-MIN KAKO 192145Z AUTO VRB03KT 10SM CLR 22/01 A3003 4620 24 6500 VRB/03 RMK AO2 T02220011                                                               
24015KAKO AKO20190419150010904/19/19 15:00:31  5-MIN KAKO 192200Z AUTO 00000KT 10SM CLR 22/01 A3003 4620 24 6500 000/00 RMK AO2 T02170006                                                               
24015KAKO AKO20190419153010904/19/19 15:30:31  5-MIN KAKO 192230Z AUTO VRB03KT 10SM CLR 22/01 A3002 4630 23 6500 VRB/03 RMK AO2 T02220006                                                               
24015KAKO AKO20190419153510904/19/19 15:35:31  5-MIN KAKO 192235Z AUTO VRB03KT 10SM CLR 22/01 A3001 4630 23 6500 VRB/03 RMK AO2 T02220006                                                               
24015KAKO AKO20190419154010904/19/19 15:40:31  5-MIN KAKO 192240Z AUTO VRB03KT 10SM CLR 22/01 A3001 4630 24 6500 VRB/03 RMK AO2 T02170006                                                               
24015KAKO AKO20190419160011504/19/19 16:00:31  5-MIN KAKO 192300Z AUTO VRB05G14KT 10SM CLR 22/01 A3001 4640 23 6600 VRB/05G14 RMK AO2 T02220006                                                         
24015KAKO AKO20190419165013404/19/19 16:50:31  5-MIN KAKO 192350Z AUTO 00000KT 10SM CLR 22/01 A3000 4650 23 6600 000/00 RMK AO2 SLP131 T02220006 10228 20183 56023                                      
24015KAKO AKO20190419165510904/19/19 16:55:31  5-MIN KAKO 192355Z AUTO 00000KT 10SM CLR 22/01 A3000 4650 24 6600 000/00 RMK AO2 T02220011                                                               
24015KAKO AKO20190420091011104/20/19 09:10:31  5-MIN KAKO 201610Z AUTO VRB05KT 10SM CLR 23/02 A2990 4740 24 6800 VRB/05 RMK AO2 T02330022 $                                                             
24015KAKO AKO20190420092511104/20/19 09:25:31  5-MIN KAKO 201625Z AUTO 00000KT 10SM CLR 24/01 A2990 4740 22 6900 000/00 RMK AO2 T02390011 $                                                             
24015KAKO AKO20190420093011104/20/19 09:30:31  5-MIN KAKO 201630Z AUTO 00000KT 10SM CLR 24/02 A2990 4740 22 6900 000/00 RMK AO2 T02440017 $                                                             
24015KAKO AKO20190420100511104/20/19 10:05:31  5-MIN KAKO 201705Z AUTO VRB04KT 10SM CLR 24/04 A2989 4750 26 6900 VRB/04 RMK AO2 T02440039 $                                                             
24015KAKO AKO20190420103011104/20/19 10:30:31  5-MIN KAKO 201730Z AUTO 00000KT 10SM CLR 25/02 A2988 4760 21 7000 000/00 RMK AO2 T02500017 $                                                             
24015KAKO AKO20190420110010904/20/19 11:00:31  5-MIN KAKO 201800Z AUTO VRB05KT 10SM CLR 26/02 A2986 4770 21 7100 VRB/05 RMK AO2 T02610022                                                               
24015KAKO AKO20190420110511004/20/19 11:05:31  5-MIN KAKO 201805Z AUTO VRB03KT 10SM CLR 26/M01 A2986 4780 17 7100 VRB/03 RMK AO2 T02561011                                                              
24015KAKO AKO20190420111011004/20/19 11:10:31  5-MIN KAKO 201810Z AUTO VRB05KT 10SM CLR 26/M02 A2985 4780 16 7100 VRB/05 RMK AO2 T02611017                                                              
24015KAKO AKO20190420111511004/20/19 11:15:31  5-MIN KAKO 201815Z AUTO VRB05KT 10SM CLR 26/M03 A2985 4780 14 7200 VRB/05 RMK AO2 T02611033                                                              
24015KAKO AKO20190420112011004/20/19 11:20:31  5-MIN KAKO 201820Z AUTO VRB05KT 10SM CLR 26/M04 A2985 4780 13 7100 VRB/05 RMK AO2 T02561044                                                              
24015KAKO AKO20190420112511004/20/19 11:25:31  5-MIN KAKO 201825Z AUTO VRB05KT 10SM CLR 26/M03 A2985 4790 14 7200 VRB/05 RMK AO2 T02611033                                                              
24015KAKO AKO20190420114011004/20/19 11:40:31  5-MIN KAKO 201840Z AUTO VRB04KT 10SM CLR 26/M03 A2984 4800 14 7200 VRB/04 RMK AO2 T02611028                                                              
24015KAKO AKO20190420120011004/20/19 12:00:31  5-MIN KAKO 201900Z AUTO 00000KT 10SM CLR 27/M02 A2983 4810 14 7300 000/00 RMK AO2 T02721022                                                              
24015KAKO AKO20190420121011004/20/19 12:10:31  5-MIN KAKO 201910Z AUTO VRB05KT 10SM CLR 27/M03 A2982 4810 13 7300 VRB/05 RMK AO2 T02721028                                                              
24015KAKO AKO20190420121511004/20/19 12:15:31  5-MIN KAKO 201915Z AUTO 00000KT 10SM CLR 27/M04 A2982 4810 13 7200 000/00 RMK AO2 T02671039                                                              
24015KAKO AKO20190420122011004/20/19 12:20:31  5-MIN KAKO 201920Z AUTO VRB03KT 10SM CLR 27/M03 A2982 4810 13 7300 VRB/03 RMK AO2 T02721033                                                              
24015KAKO AKO20190420122511004/20/19 12:25:31  5-MIN KAKO 201925Z AUTO VRB05KT 10SM CLR 28/M03 A2982 4820 13 7400 VRB/05 RMK AO2 T02781028                                                              
24015KAKO AKO20190420124011004/20/19 12:40:31  5-MIN KAKO 201940Z AUTO 00000KT 10SM CLR 27/M06 A2981 4820 11 7300 000/00 RMK AO2 T02721056                                                              
24015KAKO AKO20190420125011704/20/19 12:50:31  5-MIN KAKO 201950Z AUTO 00000KT 10SM CLR 27/M05 A2981 4820 11 7300 000/00 RMK AO2 SLP040 T02721050                                                       
24015KAKO AKO20190420125511004/20/19 12:55:31  5-MIN KAKO 201955Z AUTO 00000KT 10SM CLR 27/M06 A2981 4830 11 7300 000/00 RMK AO2 T02721056                                                              
24015KAKO AKO20190420130511604/20/19 13:05:31  5-MIN KAKO 202005Z AUTO VRB05G16KT 10SM CLR 27/M06 A2980 4830 11 7300 VRB/05G16 RMK AO2 T02721056                                                        
24015KAKO AKO20190420131511004/20/19 13:15:31  5-MIN KAKO 202015Z AUTO VRB03KT 10SM CLR 27/M06 A2980 4830 11 7300 VRB/03 RMK AO2 T02721056                                                              
24015KAKO AKO20190420133011004/20/19 13:30:31  5-MIN KAKO 202030Z AUTO VRB03KT 10SM CLR 27/M06 A2979 4840 11 7300 VRB/03 RMK AO2 T02721056                                                              
24015KAKO AKO20190420135012304/20/19 13:50:31  5-MIN KAKO 202050Z AUTO 00000KT 10SM CLR 27/M06 A2978 4850 10 7400 000/00 RMK AO2 SLP030 T02721061 58016                                                 
24015KAKO AKO20190420135511004/20/19 13:55:31  5-MIN KAKO 202055Z AUTO VRB03KT 10SM CLR 28/M04 A2978 4850 11 7400 VRB/03 RMK AO2 T02781044                                                              
24015KAKO AKO20190420140011004/20/19 14:00:31  5-MIN KAKO 202100Z AUTO VRB03KT 10SM CLR 27/M05 A2977 4860 11 7400 VRB/03 RMK AO2 T02721050                                                              
24015KAKO AKO20190420141011004/20/19 14:10:31  5-MIN KAKO 202110Z AUTO VRB04KT 10SM CLR 28/M06 A2977 4860 11 7400 VRB/04 RMK AO2 T02781056                                                              
24015KAKO AKO20190420141511004/20/19 14:15:31  5-MIN KAKO 202115Z AUTO VRB03KT 10SM CLR 28/M05 A2977 4860 11 7500 VRB/03 RMK AO2 T02831050                                                              
24015KAKO AKO20190420144011004/20/19 14:40:31  5-MIN KAKO 202140Z AUTO VRB05KT 10SM CLR 27/M06 A2975 4880 11 7400 VRB/05 RMK AO2 T02721056                                                              
24015KAKO AKO20190420144511004/20/19 14:45:31  5-MIN KAKO 202145Z AUTO 00000KT 10SM CLR 28/M06 A2975 4880 11 7400 000/00 RMK AO2 T02781056                                                              
24015KAKO AKO20190420160011004/20/19 16:00:31  5-MIN KAKO 202300Z AUTO 00000KT 10SM CLR 27/M07 A2972 4900 10 7400 000/00 RMK AO2 T02721067                                                              
24015KAKO AKO20190420162511004/20/19 16:25:31  5-MIN KAKO 202325Z AUTO 00000KT 10SM CLR 27/M06 A2972 4910 10 7400 000/00 RMK AO2 T02721061                                                              
24015KAKO AKO20190420164011004/20/19 16:40:31  5-MIN KAKO 202340Z AUTO 00000KT 10SM CLR 27/M07 A2972 4910 10 7400 000/00 RMK AO2 T02721067                                                              
24015KAKO AKO20190420165511004/20/19 16:55:31  5-MIN KAKO 202355Z AUTO 00000KT 10SM CLR 27/M06 A2972 4910 10 7400 000/00 RMK AO2 T02721061                                                              
24015KAKO AKO20190420170011004/20/19 17:00:31  5-MIN KAKO 210000Z AUTO 00000KT 10SM CLR 27/M07 A2972 4910 10 7400 000/00 RMK AO2 T02721067                                                              
24015KAKO AKO20190420170511004/20/19 17:05:31  5-MIN KAKO 210005Z AUTO 00000KT 10SM CLR 27/M07 A2972 4910 10 7400 000/00 RMK AO2 T02721067                                                              
24015KAKO AKO20190420171011004/20/19 17:10:31  5-MIN KAKO 210010Z AUTO 00000KT 10SM CLR 27/M06 A2972 4910 11 7400 000/00 RMK AO2 T02671061                                                              
24015KAKO AKO20190421030011904/21/19 03:00:31  5-MIN KAKO 211000Z AUTO VRB05KT 10SM SCT090 BKN110 14/01 A2970 4920 38 6000 VRB/05 RMK AO2 T01440006                                                     
24015KAKO AKO20190423022511204/23/19 02:25:31  5-MIN KAKO 230925Z AUTO 00000KT 10SM OVC055 03/01 A3020 4460 85 4200 000/00 RMK AO2 T00330011                                                            
24015KAKO AKO20190423023511204/23/19 02:35:31  5-MIN KAKO 230935Z AUTO 00000KT 10SM OVC055 04/02 A3020 4460 85 4200 000/00 RMK AO2 T00390017                                                            
24015KAKO AKO20190423024511204/23/19 02:45:31  5-MIN KAKO 230945Z AUTO 00000KT 10SM OVC055 04/02 A3020 4460 85 4200 000/00 RMK AO2 T00390017                                                            
24015KAKO AKO20190423025011904/23/19 02:50:31  5-MIN KAKO 230950Z AUTO 00000KT 10SM OVC055 04/02 A3020 4460 82 4300 000/00 RMK AO2 SLP222 T00440017                                                     
24015KAKO AKO20190423030011204/23/19 03:00:31  5-MIN KAKO 231000Z AUTO 00000KT 10SM OVC055 06/02 A3020 4460 76 4400 000/00 RMK AO2 T00560017                                                            
24015KAKO AKO20190423030511204/23/19 03:05:31  5-MIN KAKO 231005Z AUTO 00000KT 10SM OVC055 04/01 A3020 4460 82 4200 000/00 RMK AO2 T00390011                                                            
24015KAKO AKO20190423031511204/23/19 03:15:31  5-MIN KAKO 231015Z AUTO 00000KT 10SM OVC055 04/02 A3020 4460 82 4300 000/00 RMK AO2 T00440017                                                            
24015KAKO AKO20190423032011204/23/19 03:20:31  5-MIN KAKO 231020Z AUTO 00000KT 10SM OVC055 04/02 A3020 4460 82 4300 000/00 RMK AO2 T00440017                                                            
24015KAKO AKO20190423034011204/23/19 03:40:31  5-MIN KAKO 231040Z AUTO 00000KT 10SM SCT055 04/01 A3020 4460 79 4300 000/00 RMK AO2 T00440011                                                            
24015KAKO AKO20190423034511204/23/19 03:45:31  5-MIN KAKO 231045Z AUTO 00000KT 10SM SCT055 04/01 A3020 4460 79 4300 000/00 RMK AO2 T00440011                                                            
24015KAKO AKO20190423035011904/23/19 03:50:31  5-MIN KAKO 231050Z AUTO 00000KT 10SM SCT055 04/02 A3020 4460 82 4300 000/00 RMK AO2 SLP222 T00440017                                                     
24015KAKO AKO20190423102511504/23/19 10:25:31  5-MIN KAKO 231725Z AUTO VRB06G16KT 10SM CLR 14/03 A3015 4510 47 5500 VRB/06G16 RMK AO2 T01390028                                                         
24015KAKO AKO20190423113011204/23/19 11:30:31  5-MIN KAKO 231830Z AUTO VRB05KT 10SM FEW045 14/03 A3012 4540 45 5600 VRB/05 RMK AO2 T01440028                                                            
24015KAKO AKO20190423124011204/23/19 12:40:31  5-MIN KAKO 231940Z AUTO VRB05KT 10SM FEW050 16/04 A3008 4570 44 5800 VRB/05 RMK AO2 T01610039                                                            
24015KAKO AKO20190423130511504/23/19 13:05:31  5-MIN KAKO 232005Z AUTO VRB05G18KT 10SM CLR 17/04 A3007 4580 41 5900 VRB/05G18 RMK AO2 T01720039                                                         
24015KAKO AKO20190423141011204/23/19 14:10:31  5-MIN KAKO 232110Z AUTO 00000KT 10SM BKN055 18/04 A3004 4610 41 6000 000/00 RMK AO2 T01780044                                                            
24015KAKO AKO20190423142511204/23/19 14:25:31  5-MIN KAKO 232125Z AUTO 00000KT 10SM SCT055 17/04 A3003 4620 41 6000 000/00 RMK AO2 T01720039                                                            
24015KAKO AKO20190423143511204/23/19 14:35:31  5-MIN KAKO 232135Z AUTO VRB03KT 10SM FEW055 18/04 A3002 4620 39 6000 VRB/03 RMK AO2 T01780039                                                            
24015KAKO AKO20190423145012504/23/19 14:50:31  5-MIN KAKO 232150Z AUTO VRB04G18KT 10SM FEW055 18/04 A3002 4630 41 6000 VRB/04G18 RMK AO2 SLP141 T01780044                                               
24015KAKO AKO20190423145511204/23/19 14:55:31  5-MIN KAKO 232155Z AUTO VRB03KT 10SM FEW055 18/04 A3001 4630 39 6000 VRB/03 RMK AO2 T01780039                                                            
24015KAKO AKO20190423151511204/23/19 15:15:31  5-MIN KAKO 232215Z AUTO VRB06KT 10SM FEW055 18/04 A3001 4640 39 6100 VRB/06 RMK AO2 T01780039                                                            
24015KAKO AKO20190424094511204/24/19 09:45:31  5-MIN KAKO 241645Z AUTO VRB05KT 10SM SCT090 19/05 A2997 4670 38 6300 VRB/05 RMK AO2 T01940050                                                            
24015KAKO AKO20190424095511204/24/19 09:55:31  5-MIN KAKO 241655Z AUTO 00000KT 10SM FEW095 20/04 A2996 4680 35 6400 000/00 RMK AO2 T02000044                                                            
24015KAKO AKO20190424100511204/24/19 10:05:31  5-MIN KAKO 241705Z AUTO VRB03KT 10SM SCT100 20/04 A2996 4680 35 6400 VRB/03 RMK AO2 T02000044                                                            
24015KAKO AKO20190424101011204/24/19 10:10:31  5-MIN KAKO 241710Z AUTO 00000KT 10SM FEW100 21/04 A2996 4680 34 6400 000/00 RMK AO2 T02060044                                                            
24015KAKO AKO20190424103510904/24/19 10:35:31  5-MIN KAKO 241735Z AUTO VRB04KT 10SM CLR 21/03 A2995 4690 32 6400 VRB/04 RMK AO2 T02060033                                                               
24015KAKO AKO20190424104510904/24/19 10:45:31  5-MIN KAKO 241745Z AUTO VRB04KT 10SM CLR 21/03 A2995 4690 30 6400 VRB/04 RMK AO2 T02060028                                                               
24015KAKO AKO20190424113010904/24/19 11:30:31  5-MIN KAKO 241830Z AUTO VRB05KT 10SM CLR 22/02 A2994 4700 25 6600 VRB/05 RMK AO2 T02220017                                                               
24015KAKO AKO20190424120011904/24/19 12:00:31  5-MIN KAKO 241900Z AUTO VRB04KT 10SM SCT095 BKN120 21/01 A2993 4710 26 6500 VRB/04 RMK AO2 T02060006                                                     
24015KAKO AKO20190424131511204/24/19 13:15:31  5-MIN KAKO 242015Z AUTO VRB03KT 10SM OVC095 21/02 A2992 4720 28 6500 VRB/03 RMK AO2 T02110022                                                            
24015KAKO AKO20190424140511904/24/19 14:05:31  5-MIN KAKO 242105Z AUTO VRB04KT 10SM BKN095 BKN110 21/02 A2991 4730 28 6500 VRB/04 RMK AO2 T02110022                                                     
24015KAKO AKO20190424141011904/24/19 14:10:31  5-MIN KAKO 242110Z AUTO 00000KT 10SM BKN095 BKN110 22/03 A2991 4730 28 6600 000/00 RMK AO2 T02170028                                                     
24015KAKO AKO20190424142511904/24/19 14:25:31  5-MIN KAKO 242125Z AUTO VRB04KT 10SM SCT090 SCT110 21/03 A2990 4740 29 6500 VRB/04 RMK AO2 T02110028                                                     
24015KAKO AKO20190424143011904/24/19 14:30:31  5-MIN KAKO 242130Z AUTO VRB03KT 10SM FEW090 FEW110 22/03 A2990 4740 28 6600 VRB/03 RMK AO2 T02170028                                                     
24015KAKO AKO20190424143511904/24/19 14:35:31  5-MIN KAKO 242135Z AUTO VRB03KT 10SM FEW095 SCT120 22/03 A2989 4740 27 6700 VRB/03 RMK AO2 T02220028                                                     
24015KAKO AKO20190424144011904/24/19 14:40:31  5-MIN KAKO 242140Z AUTO VRB03KT 10SM FEW090 BKN120 22/03 A2989 4740 28 6600 VRB/03 RMK AO2 T02170028                                                     
24015KAKO AKO20190424151511904/24/19 15:15:31  5-MIN KAKO 242215Z AUTO VRB03KT 10SM FEW085 SCT120 21/02 A2989 4750 28 6600 VRB/03 RMK AO2 T02110022                                                     
24015KAKO AKO20190424152510904/24/19 15:25:31  5-MIN KAKO 242225Z AUTO 00000KT 10SM CLR 22/03 A2988 4750 28 6600 000/00 RMK AO2 T02170028                                                               
24015KAKO AKO20190424154010904/24/19 15:40:31  5-MIN KAKO 242240Z AUTO VRB03KT 10SM CLR 22/03 A2988 4750 28 6700 VRB/03 RMK AO2 T02220033                                                               
24015KAKO AKO20190424155510904/24/19 15:55:31  5-MIN KAKO 242255Z AUTO VRB03KT 10SM CLR 22/03 A2988 4750 27 6700 VRB/03 RMK AO2 T02220028                                                               
24015KAKO AKO20190424160011204/24/19 16:00:31  5-MIN KAKO 242300Z AUTO VRB04KT 10SM FEW085 22/03 A2989 4750 28 6700 VRB/04 RMK AO2 T02220033                                                            
24015KAKO AKO20190424165511204/24/19 16:55:31  5-MIN KAKO 242355Z AUTO 00000KT 10SM BKN120 21/02 A2988 4750 28 6600 000/00 RMK AO2 T02110022                                                            
24015KAKO AKO20190424170011204/24/19 17:00:31  5-MIN KAKO 250000Z AUTO 00000KT 10SM BKN120 21/02 A2988 4760 28 6600 000/00 RMK AO2 T02110022                                                            
24015KAKO AKO20190424170511204/24/19 17:05:31  5-MIN KAKO 250005Z AUTO 00000KT 10SM OVC120 21/02 A2988 4760 28 6600 000/00 RMK AO2 T02110022                                                            
24015KAKO AKO20190424171011204/24/19 17:10:31  5-MIN KAKO 250010Z AUTO 00000KT 10SM BKN120 22/03 A2988 4760 28 6600 000/00 RMK AO2 T02170028                                                            
24015KAKO AKO20190424173011204/24/19 17:30:31  5-MIN KAKO 250030Z AUTO 00000KT 10SM BKN120 21/03 A2987 4760 30 6500 000/00 RMK AO2 T02060028                                                            
24015KAKO AKO20190424221011904/24/19 22:10:31  5-MIN KAKO 250510Z AUTO 00000KT 10SM BKN090 OVC120 15/03 A2988 4750 43 5900 000/00 RMK AO2 T01500028                                                     
24015KAKO AKO20190425184511004/25/19 18:45:31  5-MIN KAKO 260145Z AUTO VRB06KT 10SM CLR 12/M02 A3018 4480 39 5200 VRB/06 RMK AO2 T01171017                                                              
24015KAKO AKO20190426091510904/26/19 09:15:31  5-MIN KAKO 261615Z AUTO VRB04KT 10SM CLR 18/06 A3000 4650 44 6100 VRB/04 RMK AO2 T01830061                                                               
24015KAKO AKO20190426093510904/26/19 09:35:31  5-MIN KAKO 261635Z AUTO VRB05KT 10SM CLR 19/06 A2999 4650 43 6200 VRB/05 RMK AO2 T01890061                                                               
24015KAKO AKO20190426095011604/26/19 09:50:31  5-MIN KAKO 261650Z AUTO VRB05KT 10SM CLR 19/07 A2998 4660 43 6300 VRB/05 RMK AO2 SLP122 T01940067                                                        
24015KAKO AKO20190426100010904/26/19 10:00:31  5-MIN KAKO 261700Z AUTO 00000KT 10SM CLR 19/06 A2998 4660 40 6300 000/00 RMK AO2 T01940056                                                               
24015KAKO AKO20190426100510904/26/19 10:05:31  5-MIN KAKO 261705Z AUTO VRB04KT 10SM CLR 20/06 A2998 4660 40 6300 VRB/04 RMK AO2 T02000061                                                               
24015KAKO AKO20190426101010904/26/19 10:10:31  5-MIN KAKO 261710Z AUTO 00000KT 10SM CLR 20/06 A2998 4670 38 6300 000/00 RMK AO2 T02000056                                                               
24015KAKO AKO20190426101510904/26/19 10:15:31  5-MIN KAKO 261715Z AUTO VRB03KT 10SM CLR 20/06 A2998 4670 40 6300 VRB/03 RMK AO2 T02000061                                                               
24015KAKO AKO20190426102510904/26/19 10:25:31  5-MIN KAKO 261725Z AUTO 00000KT 10SM CLR 21/06 A2997 4680 37 6500 000/00 RMK AO2 T02110061                                                               
24015KAKO AKO20190426103010904/26/19 10:30:31  5-MIN KAKO 261730Z AUTO VRB04KT 10SM CLR 21/06 A2996 4680 37 6500 VRB/04 RMK AO2 T02110061                                                               
24015KAKO AKO20190426105510904/26/19 10:55:31  5-MIN KAKO 261755Z AUTO 00000KT 10SM CLR 22/04 A2995 4690 32 6600 000/00 RMK AO2 T02170044                                                               
24015KAKO AKO20190426110010904/26/19 11:00:31  5-MIN KAKO 261800Z AUTO VRB04KT 10SM CLR 22/04 A2995 4690 31 6600 VRB/04 RMK AO2 T02220044                                                               
24015KAKO AKO20190426110510904/26/19 11:05:31  5-MIN KAKO 261805Z AUTO VRB03KT 10SM CLR 22/05 A2995 4690 32 6600 VRB/03 RMK AO2 T02220050                                                               
24015KAKO AKO20190426111010904/26/19 11:10:31  5-MIN KAKO 261810Z AUTO VRB03KT 10SM CLR 22/04 A2994 4700 31 6600 VRB/03 RMK AO2 T02220044                                                               
24015KAKO AKO20190426111510904/26/19 11:15:31  5-MIN KAKO 261815Z AUTO 00000KT 10SM CLR 22/04 A2994 4700 32 6600 000/00 RMK AO2 T02170044                                                               
24015KAKO AKO20190426113010904/26/19 11:30:31  5-MIN KAKO 261830Z AUTO 00000KT 10SM CLR 23/04 A2993 4710 29 6700 000/00 RMK AO2 T02280039                                                               
24015KAKO AKO20190426113510904/26/19 11:35:31  5-MIN KAKO 261835Z AUTO VRB03KT 10SM CLR 23/04 A2993 4710 30 6700 VRB/03 RMK AO2 T02280044                                                               
24015KAKO AKO20190426114510904/26/19 11:45:31  5-MIN KAKO 261845Z AUTO 00000KT 10SM CLR 24/02 A2993 4710 24 6800 000/00 RMK AO2 T02390022                                                               
24015KAKO AKO20190426124010904/26/19 12:40:31  5-MIN KAKO 261940Z AUTO VRB03KT 10SM CLR 23/01 A2989 4740 23 6800 VRB/03 RMK AO2 T02330011                                                               
24015KAKO AKO20190426125012204/26/19 12:50:31  5-MIN KAKO 261950Z AUTO VRB06G15KT 10SM CLR 24/01 A2989 4750 21 6900 VRB/06G15 RMK AO2 SLP081 T02440011                                                  
24015KAKO AKO20190426130010904/26/19 13:00:31  5-MIN KAKO 262000Z AUTO VRB03KT 10SM CLR 24/01 A2988 4760 21 6900 VRB/03 RMK AO2 T02440011                                                               
24015KAKO AKO20190426130510904/26/19 13:05:31  5-MIN KAKO 262005Z AUTO 00000KT 10SM CLR 24/01 A2988 4760 21 6900 000/00 RMK AO2 T02440011                                                               
24015KAKO AKO20190426132010904/26/19 13:20:31  5-MIN KAKO 262020Z AUTO VRB06KT 10SM CLR 25/01 A2987 4770 20 7000 VRB/06 RMK AO2 T02500006                                                               
24015KAKO AKO20190426141511904/26/19 14:15:31  5-MIN KAKO 262115Z AUTO VRB05G20KT 10SM FEW110 25/M01 A2983 4800 18 7100 VRB/05G20 RMK AO2 T02501006                                                     
24015KAKO AKO20190426142011304/26/19 14:20:31  5-MIN KAKO 262120Z AUTO VRB04KT 10SM FEW110 24/M01 A2983 4810 18 7000 VRB/04 RMK AO2 T02441011                                                           
24015KAKO AKO20190426201010904/26/19 20:10:31  5-MIN KAKO 270310Z AUTO 00000KT 10SM CLR 11/09 A2982 4810 93 5400 000/00 RMK AO2 T01060094                                                               
24015KAKO AKO20190427122011504/27/19 12:20:31  5-MIN KAKO 271920Z AUTO VRB04G19KT 10SM CLR 14/01 A2996 4680 38 5700 VRB/04G19 RMK AO2 T01440006                                                         
24015KAKO AKO20190427125011604/27/19 12:50:31  5-MIN KAKO 271950Z AUTO VRB03KT 10SM CLR 14/01 A2994 4700 38 5800 VRB/03 RMK AO2 SLP109 T01440006                                                        
24015KAKO AKO20190427130010904/27/19 13:00:31  5-MIN KAKO 272000Z AUTO VRB06KT 10SM CLR 16/01 A2994 4700 37 5900 VRB/06 RMK AO2 T01560011                                                               
24015KAKO AKO20190427134510904/27/19 13:45:31  5-MIN KAKO 272045Z AUTO VRB04KT 10SM CLR 16/01 A2991 4730 36 6000 VRB/04 RMK AO2 T01610011                                                               
24015KAKO AKO20190427140010904/27/19 14:00:31  5-MIN KAKO 272100Z AUTO VRB04KT 10SM CLR 17/01 A2991 4730 34 6000 VRB/04 RMK AO2 T01670011                                                               
24015KAKO AKO20190427140510904/27/19 14:05:31  5-MIN KAKO 272105Z AUTO VRB03KT 10SM CLR 16/01 A2991 4730 36 5900 VRB/03 RMK AO2 T01560006                                                               
24015KAKO AKO20190427141510904/27/19 14:15:31  5-MIN KAKO 272115Z AUTO VRB04KT 10SM CLR 17/02 A2991 4730 36 6000 VRB/04 RMK AO2 T01670017                                                               
24015KAKO AKO20190427143010904/27/19 14:30:31  5-MIN KAKO 272130Z AUTO 00000KT 10SM CLR 16/01 A2990 4740 36 6000 000/00 RMK AO2 T01610011                                                               
24015KAKO AKO20190427144010904/27/19 14:40:31  5-MIN KAKO 272140Z AUTO VRB03KT 10SM CLR 17/01 A2989 4740 34 6100 VRB/03 RMK AO2 T01670011                                                               
24015KAKO AKO20190427145510904/27/19 14:55:31  5-MIN KAKO 272155Z AUTO VRB06KT 10SM CLR 17/01 A2989 4750 34 6100 VRB/06 RMK AO2 T01670011                                                               
24015KAKO AKO20190427150510904/27/19 15:05:31  5-MIN KAKO 272205Z AUTO VRB04KT 10SM CLR 17/01 A2989 4750 34 6100 VRB/04 RMK AO2 T01670011                                                               
24015KAKO AKO20190427151010904/27/19 15:10:31  5-MIN KAKO 272210Z AUTO VRB03KT 10SM CLR 17/01 A2987 4760 34 6100 VRB/03 RMK AO2 T01670011                                                               
24015KAKO AKO20190428103011204/28/19 10:30:31  5-MIN KAKO 281730Z AUTO VRB03KT 10SM FEW110 22/04 A2968 4940 32 6900 VRB/03 RMK AO2 T02170044                                                            
24015KAKO AKO20190428104510904/28/19 10:45:31  5-MIN KAKO 281745Z AUTO VRB03KT 10SM CLR 23/02 A2968 4940 24 7000 VRB/03 RMK AO2 T02330017                                                               
24015KAKO AKO20190429115511304/29/19 11:55:31  5-MIN KAKO 291855Z AUTO VRB04KT 10SM OVC048 03/M07 A3016 4500 50 4100 VRB/04 RMK AO2 T00281067                                                           
24015KAKO AKO20190429123012604/29/19 12:30:31  5-MIN KAKO 291930Z AUTO VRB05G15KT 10SM BKN047 OVC060 04/M06 A3015 4500 48 4300 VRB/05G15 RMK AO2 T00391061                                              
24015KAKO AKO20190429125012004/29/19 12:50:31  5-MIN KAKO 291950Z AUTO VRB04KT 10SM OVC060 04/M06 A3015 4510 46 4400 VRB/04 RMK AO2 SLP216 T00441061                                                    
24015KAKO AKO20190429133511904/29/19 13:35:31  5-MIN KAKO 292035Z AUTO VRB06G17KT 10SM OVC055 06/M06 A3013 4530 44 4500 VRB/06G17 RMK AO2 T00561056                                                     
24015KAKO AKO20190429134511904/29/19 13:45:31  5-MIN KAKO 292045Z AUTO VRB04G16KT 10SM OVC055 06/M06 A3012 4530 44 4500 VRB/04G16 RMK AO2 T00561056                                                     
24015KAKO AKO20190429135511304/29/19 13:55:31  5-MIN KAKO 292055Z AUTO VRB03KT 10SM OVC055 06/M06 A3012 4530 43 4500 VRB/03 RMK AO2 T00561061                                                           
24015KAKO AKO20190429140011304/29/19 14:00:31  5-MIN KAKO 292100Z AUTO VRB04KT 10SM OVC055 06/M06 A3012 4530 44 4500 VRB/04 RMK AO2 T00561056                                                           
24015KAKO AKO20190429140511304/29/19 14:05:31  5-MIN KAKO 292105Z AUTO 00000KT 10SM OVC055 05/M06 A3012 4540 44 4500 000/00 RMK AO2 T00501061                                                           
24015KAKO AKO20190429142012604/29/19 14:20:31  5-MIN KAKO 292120Z AUTO VRB05G14KT 10SM SCT049 BKN055 06/M06 A3012 4540 44 4500 VRB/05G14 RMK AO2 T00561056                                              
24015KAKO AKO20190429142512004/29/19 14:25:31  5-MIN KAKO 292125Z AUTO 00000KT 10SM FEW049 BKN055 06/M06 A3012 4540 43 4600 000/00 RMK AO2 T00611056                                                    
24015KAKO AKO20190429144511304/29/19 14:45:31  5-MIN KAKO 292145Z AUTO VRB04KT 10SM BKN049 05/M06 A3011 4550 46 4500 VRB/04 RMK AO2 T00501056                                                           
24015KAKO AKO20190429145012004/29/19 14:50:31  5-MIN KAKO 292150Z AUTO VRB06KT 10SM BKN049 06/M06 A3010 4550 44 4500 VRB/06 RMK AO2 SLP205 T00561056                                                    
24015KAKO AKO20190429162012004/29/19 16:20:31  5-MIN KAKO 292320Z AUTO VRB06KT 10SM BKN047 OVC110 06/M05 A3010 4550 46 4500 VRB/06 RMK AO2 T00561050                                                    
24015KAKO AKO20190503092511005/03/19 09:25:31  5-MIN KAKO 031625Z AUTO 00000KT 10SM CLR 15/M01 A3003 4620 33 5700 000/00 RMK AO2 T01501011                                                              
24015KAKO AKO20190503093511005/03/19 09:35:31  5-MIN KAKO 031635Z AUTO VRB05KT 10SM CLR 16/M01 A3003 4620 33 5800 VRB/05 RMK AO2 T01561006                                                              
24015KAKO AKO20190503094011005/03/19 09:40:31  5-MIN KAKO 031640Z AUTO VRB04KT 10SM CLR 16/M02 A3003 4610 30 5800 VRB/04 RMK AO2 T01561017                                                              
24015KAKO AKO20190503100011305/03/19 10:00:31  5-MIN KAKO 031700Z AUTO VRB04KT 10SM FEW080 16/M02 A3003 4620 30 5800 VRB/04 RMK AO2 T01561017                                                           
24015KAKO AKO20190503100511305/03/19 10:05:31  5-MIN KAKO 031705Z AUTO VRB05KT 10SM SCT075 16/M02 A3003 4610 29 5800 VRB/05 RMK AO2 T01561022                                                           
24015KAKO AKO20190503112011305/03/19 11:20:31  5-MIN KAKO 031820Z AUTO 00000KT 10SM SCT085 16/M02 A3003 4620 29 5800 000/00 RMK AO2 T01611017                                                           
24015KAKO AKO20190503112511305/03/19 11:25:31  5-MIN KAKO 031825Z AUTO VRB05KT 10SM SCT085 17/M01 A3002 4620 29 5900 VRB/05 RMK AO2 T01671011                                                           
24015KAKO AKO20190503113012005/03/19 11:30:31  5-MIN KAKO 031830Z AUTO 00000KT 10SM FEW075 FEW090 17/M02 A3002 4630 28 5900 000/00 RMK AO2 T01671017                                                    
24015KAKO AKO20190503113511905/03/19 11:35:31  5-MIN KAKO 031835Z AUTO VRB05G14KT 10SM FEW090 17/M02 A3002 4630 27 5900 VRB/05G14 RMK AO2 T01671022                                                     
24015KAKO AKO20190503120011305/03/19 12:00:31  5-MIN KAKO 031900Z AUTO VRB05KT 10SM BKN085 17/M02 A3002 4630 27 5900 VRB/05 RMK AO2 T01671022                                                           
24015KAKO AKO20190503121011305/03/19 12:10:31  5-MIN KAKO 031910Z AUTO VRB05KT 10SM BKN085 17/M02 A3002 4630 26 6000 VRB/05 RMK AO2 T01721022                                                           
24015KAKO AKO20190503123011305/03/19 12:30:31  5-MIN KAKO 031930Z AUTO 00000KT 10SM BKN090 17/M03 A3001 4630 25 5900 000/00 RMK AO2 T01671033                                                           
24015KAKO AKO20190503123511305/03/19 12:35:31  5-MIN KAKO 031935Z AUTO 00000KT 10SM BKN090 17/M04 A3001 4640 24 5900 000/00 RMK AO2 T01671039                                                           
24015KAKO AKO20190503124511305/03/19 12:45:31  5-MIN KAKO 031945Z AUTO 00000KT 10SM BKN090 18/M03 A3001 4640 24 6100 000/00 RMK AO2 T01781028                                                           
24015KAKO AKO20190503132011305/03/19 13:20:31  5-MIN KAKO 032020Z AUTO VRB04KT 10SM FEW100 18/M04 A3000 4650 22 6100 VRB/04 RMK AO2 T01781039                                                           
24015KAKO AKO20190503133011005/03/19 13:30:31  5-MIN KAKO 032030Z AUTO 00000KT 10SM CLR 18/M04 A2999 4660 22 6100 000/00 RMK AO2 T01781039                                                              
24015KAKO AKO20190503134511005/03/19 13:45:31  5-MIN KAKO 032045Z AUTO VRB06KT 10SM CLR 18/M03 A2999 4660 22 6100 VRB/06 RMK AO2 T01831033                                                              
24015KAKO AKO20190503135012305/03/19 13:50:31  5-MIN KAKO 032050Z AUTO VRB06KT 10SM CLR 18/M04 A2998 4660 22 6100 VRB/06 RMK AO2 SLP128 T01781039 58000                                                 
24015KAKO AKO20190503140011005/03/19 14:00:31  5-MIN KAKO 032100Z AUTO 00000KT 10SM CLR 18/M04 A2998 4660 21 6100 000/00 RMK AO2 T01831039                                                              
24015KAKO AKO20190503141011005/03/19 14:10:31  5-MIN KAKO 032110Z AUTO 00000KT 10SM CLR 18/M04 A2997 4670 21 6200 000/00 RMK AO2 T01831039                                                              
24015KAKO AKO20190503141511005/03/19 14:15:31  5-MIN KAKO 032115Z AUTO VRB03KT 10SM CLR 19/M03 A2997 4670 22 6200 VRB/03 RMK AO2 T01891033                                                              
24015KAKO AKO20190503143511005/03/19 14:35:31  5-MIN KAKO 032135Z AUTO 00000KT 10SM CLR 18/M04 A2997 4680 21 6200 000/00 RMK AO2 T01831044                                                              
24015KAKO AKO20190503145011705/03/19 14:50:31  5-MIN KAKO 032150Z AUTO VRB03KT 10SM CLR 18/M04 A2996 4680 21 6200 VRB/03 RMK AO2 SLP120 T01831044                                                       
24015KAKO AKO20190503145511305/03/19 14:55:31  5-MIN KAKO 032155Z AUTO VRB05KT 10SM FEW110 19/M04 A2996 4680 20 6200 VRB/05 RMK AO2 T01891044                                                           
24015KAKO AKO20190503150011305/03/19 15:00:31  5-MIN KAKO 032200Z AUTO VRB05KT 10SM FEW110 19/M04 A2996 4690 21 6200 VRB/05 RMK AO2 T01891039                                                           
24015KAKO AKO20190503151011305/03/19 15:10:31  5-MIN KAKO 032210Z AUTO VRB05KT 10SM FEW110 19/M04 A2995 4690 20 6200 VRB/05 RMK AO2 T01891044                                                           
24015KAKO AKO20190503151511305/03/19 15:15:31  5-MIN KAKO 032215Z AUTO VRB04KT 10SM FEW110 18/M04 A2995 4690 21 6200 VRB/04 RMK AO2 T01831044                                                           
24015KAKO AKO20190503154011305/03/19 15:40:31  5-MIN KAKO 032240Z AUTO VRB03KT 10SM BKN100 19/M04 A2995 4690 20 6300 VRB/03 RMK AO2 T01941039                                                           
24015KAKO AKO20190503155012005/03/19 15:50:31  5-MIN KAKO 032250Z AUTO VRB03KT 10SM BKN100 20/M04 A2995 4690 19 6400 VRB/03 RMK AO2 SLP113 T02001039                                                    
24015KAKO AKO20190503162011305/03/19 16:20:31  5-MIN KAKO 032320Z AUTO VRB05KT 10SM FEW100 18/M04 A2995 4690 21 6200 VRB/05 RMK AO2 T01831039                                                           
24015KAKO AKO20190503162511305/03/19 16:25:31  5-MIN KAKO 032325Z AUTO 00000KT 10SM FEW110 19/M04 A2995 4690 21 6200 000/00 RMK AO2 T01891039                                                           
24015KAKO AKO20190503163511005/03/19 16:35:31  5-MIN KAKO 032335Z AUTO VRB04KT 10SM CLR 18/M04 A2995 4690 21 6200 VRB/04 RMK AO2 T01831039                                                              
24015KAKO AKO20190503164511005/03/19 16:45:31  5-MIN KAKO 032345Z AUTO VRB06KT 10SM CLR 19/M03 A2995 4690 22 6200 VRB/06 RMK AO2 T01891033                                                              
24015KAKO AKO20190503173511005/03/19 17:35:31  5-MIN KAKO 040035Z AUTO 00000KT 10SM CLR 18/M05 A2994 4700 20 6200 000/00 RMK AO2 T01831050                                                              
24015KAKO AKO20190503174511005/03/19 17:45:31  5-MIN KAKO 040045Z AUTO 00000KT 10SM CLR 18/M04 A2994 4700 21 6200 000/00 RMK AO2 T01831044                                                              
24015KAKO AKO20190503175011705/03/19 17:50:31  5-MIN KAKO 040050Z AUTO 00000KT 10SM CLR 18/M04 A2994 4700 21 6200 000/00 RMK AO2 SLP113 T01831039                                                       
24015KAKO AKO20190503175511005/03/19 17:55:31  5-MIN KAKO 040055Z AUTO 00000KT 10SM CLR 18/M04 A2994 4700 21 6200 000/00 RMK AO2 T01831044                                                              
24015KAKO AKO20190504111011005/04/19 11:10:31  5-MIN KAKO 041810Z AUTO VRB04KT 10SM CLR 21/M01 A2993 4710 23 6500 VRB/04 RMK AO2 T02111006                                                              
24015KAKO AKO20190504112511005/04/19 11:25:31  5-MIN KAKO 041825Z AUTO 00000KT 10SM CLR 21/M03 A2993 4710 19 6500 000/00 RMK AO2 T02061033                                                              
24015KAKO AKO20190504113511005/04/19 11:35:31  5-MIN KAKO 041835Z AUTO 00000KT 10SM CLR 21/M03 A2992 4720 20 6500 000/00 RMK AO2 T02061028                                                              
24015KAKO AKO20190504114011005/04/19 11:40:31  5-MIN KAKO 041840Z AUTO VRB03KT 10SM CLR 22/M02 A2992 4720 20 6600 VRB/03 RMK AO2 T02171022                                                              
24015KAKO AKO20190504121011005/04/19 12:10:31  5-MIN KAKO 041910Z AUTO VRB06KT 10SM CLR 21/M03 A2990 4730 20 6500 VRB/06 RMK AO2 T02111028                                                              
24015KAKO AKO20190504122511005/04/19 12:25:31  5-MIN KAKO 041925Z AUTO VRB06KT 10SM CLR 21/M04 A2990 4740 18 6500 VRB/06 RMK AO2 T02111039                                                              
24015KAKO AKO20190504123511005/04/19 12:35:31  5-MIN KAKO 041935Z AUTO 00000KT 10SM CLR 21/M03 A2989 4740 19 6600 000/00 RMK AO2 T02111033                                                              
24015KAKO AKO20190504124011005/04/19 12:40:31  5-MIN KAKO 041940Z AUTO VRB03KT 10SM CLR 22/M03 A2989 4750 19 6600 VRB/03 RMK AO2 T02171028                                                              
24015KAKO AKO20190504132511905/04/19 13:25:31  5-MIN KAKO 042025Z AUTO VRB05G17KT 10SM FEW120 22/M04 A2987 4770 17 6600 VRB/05G17 RMK AO2 T02171039                                                     
24015KAKO AKO20190504133511305/04/19 13:35:31  5-MIN KAKO 042035Z AUTO 00000KT 10SM SCT100 22/M04 A2986 4770 17 6700 000/00 RMK AO2 T02221039                                                           
24015KAKO AKO20190504140011305/04/19 14:00:31  5-MIN KAKO 042100Z AUTO 00000KT 10SM FEW110 22/M04 A2985 4790 17 6700 000/00 RMK AO2 T02171044                                                           
24015KAKO AKO20190504150511305/04/19 15:05:31  5-MIN KAKO 042205Z AUTO VRB04KT 10SM SCT110 23/M04 A2982 4810 16 6800 VRB/04 RMK AO2 T02281044                                                           
24015KAKO AKO20190504151011305/04/19 15:10:31  5-MIN KAKO 042210Z AUTO 00000KT 10SM SCT110 22/M06 A2982 4810 15 6800 000/00 RMK AO2 T02221056                                                           
24015KAKO AKO20190504163511005/04/19 16:35:31  5-MIN KAKO 042335Z AUTO VRB04KT 10SM CLR 22/M04 A2980 4830 16 6800 VRB/04 RMK AO2 T02221044                                                              
24015KAKO AKO20190504201511005/04/19 20:15:31  5-MIN KAKO 050315Z AUTO VRB04KT 10SM CLR 12/M01 A2984 4790 41 5600 VRB/04 RMK AO2 T01221006                                                              
24015KAKO AKO20190505092011005/05/19 09:20:31  5-MIN KAKO 051620Z AUTO VRB06KT 10SM CLR 20/M01 A2986 4770 24 6500 VRB/06 RMK AO2 T02001011                                                              
24015KAKO AKO20190505105511605/05/19 10:55:31  5-MIN KAKO 051755Z AUTO VRB04G15KT 10SM CLR 22/M02 A2984 4790 20 6700 VRB/04G15 RMK AO2 T02171022                                                        
24015KAKO AKO20190505132511005/05/19 13:25:31  5-MIN KAKO 052025Z AUTO VRB04KT 10SM CLR 23/M02 A2981 4820 18 6800 VRB/04 RMK AO2 T02281022                                                              
24015KAKO AKO20190505134011305/05/19 13:40:31  5-MIN KAKO 052040Z AUTO VRB04KT 10SM FEW110 22/M03 A2981 4820 18 6800 VRB/04 RMK AO2 T02221028                                                           
24015KAKO AKO20190505145511005/05/19 14:55:31  5-MIN KAKO 052155Z AUTO 00000KT 10SM CLR 22/M04 A2979 4840 17 6700 000/00 RMK AO2 T02171039                                                              
24015KAKO AKO20190505150011305/05/19 15:00:31  5-MIN KAKO 052200Z AUTO 00000KT 10SM FEW120 23/M03 A2978 4850 17 6900 000/00 RMK AO2 T02281033                                                           
24015KAKO AKO20190505153511305/05/19 15:35:31  5-MIN KAKO 052235Z AUTO VRB05KT 10SM SCT110 23/M03 A2978 4850 18 6900 VRB/05 RMK AO2 T02281028                                                           
24015KAKO AKO20190505161011005/05/19 16:10:31  5-MIN KAKO 052310Z AUTO VRB04KT 10SM CLR 23/M03 A2978 4850 16 6900 VRB/04 RMK AO2 T02331033                                                              
24015KAKO AKO20190505163511305/05/19 16:35:31  5-MIN KAKO 052335Z AUTO 00000KT 10SM FEW110 24/M03 A2978 4850 16 7000 000/00 RMK AO2 T02391028                                                           
24015KAKO AKO20190505172511005/05/19 17:25:31  5-MIN KAKO 060025Z AUTO 00000KT 10SM CLR 23/M03 A2978 4850 17 6900 000/00 RMK AO2 T02331028                                                              
24015KAKO AKO20190505173511005/05/19 17:35:31  5-MIN KAKO 060035Z AUTO 00000KT 10SM CLR 23/M03 A2978 4850 16 6900 000/00 RMK AO2 T02331033                                                              
24015KAKO AKO20190505174011005/05/19 17:40:31  5-MIN KAKO 060040Z AUTO 00000KT 10SM CLR 23/M03 A2978 4850 16 6900 000/00 RMK AO2 T02331033                                                              
24015KAKO AKO20190505174511005/05/19 17:45:31  5-MIN KAKO 060045Z AUTO 00000KT 10SM CLR 23/M03 A2978 4850 17 6900 000/00 RMK AO2 T02281033                                                              
24015KAKO AKO20190506114010905/06/19 11:40:31  5-MIN KAKO 061840Z AUTO VRB05KT 10SM CLR 13/08 A2998 4670 69 5600 VRB/05 RMK AO2 T01330078                                                               
24015KAKO AKO20190506114510905/06/19 11:45:31  5-MIN KAKO 061845Z AUTO VRB06KT 10SM CLR 14/08 A2998 4670 66 5600 VRB/06 RMK AO2 T01390078                                                               
24015KAKO AKO20190506115510905/06/19 11:55:31  5-MIN KAKO 061855Z AUTO VRB05KT 10SM CLR 15/08 A2997 4670 64 5800 VRB/05 RMK AO2 T01500083                                                               
24015KAKO AKO20190506122011505/06/19 12:20:31  5-MIN KAKO 061920Z AUTO VRB05G15KT 10SM CLR 15/08 A2997 4680 62 5800 VRB/05G15 RMK AO2 T01500078                                                         
24015KAKO AKO20190506230512305/06/19 23:05:31  5-MIN KAKO 070605Z AUTO VRB04KT 1/4SM FG VV001 06/06 A3013 4530 100 4500 VRB/04 RMK AO2 PRESRR T00560056                                                 
24015KAKO AKO20190506231012305/06/19 23:10:31  5-MIN KAKO 070610Z AUTO VRB05KT 1/4SM FG VV001 06/06 A3013 4520 100 4500 VRB/05 RMK AO2 PRESRR T00560056                                                 
24015KAKO AKO20190507232011605/07/19 23:20:31  5-MIN KAKO 080620Z AUTO VRB04KT 1/4SM FG VV002 06/06 A2989 4740 100 4800 VRB/04 RMK AO2 T00560056                                                        
24015KAKO AKO20190507233511605/07/19 23:35:31  5-MIN KAKO 080635Z AUTO 00000KT 1/4SM FG VV002 06/06 A2989 4750 100 4800 000/00 RMK AO2 T00560056                                                        
24015KAKO AKO20190507235013305/07/19 23:50:31  5-MIN KAKO 080650Z AUTO 00000KT 1/4SM FG VV002 06/06 A2988 4760 100 4800 000/00 RMK AO2 SLP113 T00560056 400670044                                       
24015KAKO AKO20190509091513805/09/19 09:15:31  5-MIN KAKO 091615Z AUTO VRB04KT 4SM -SN BR FEW008 BKN017 OVC031 03/01 A3017 4490 85 4100 VRB/04 RMK AO2 P0000 T00280006                                  
24015KAKO AKO20190509092513505/09/19 09:25:31  5-MIN KAKO 091625Z AUTO VRB05KT 8SM -SN SCT013 BKN018 OVC055 03/01 A3017 4490 82 4200 VRB/05 RMK AO2 P0000 T00330006                                     
24015KAKO AKO20190509093513805/09/19 09:35:31  5-MIN KAKO 091635Z AUTO VRB04KT 10SM BKN014 BKN043 OVC055 04/01 A3017 4490 82 4300 VRB/04 RMK AO2 SNE27 P0000 T00390011                                  
24015KAKO AKO20190509105511905/09/19 10:55:31  5-MIN KAKO 091755Z AUTO 00000KT 10SM BKN016 OVC024 04/01 A3018 4480 82 4200 000/00 RMK AO2 T00390011                                                     
24015KAKO AKO20190509114014205/09/19 11:40:31  5-MIN KAKO 091840Z AUTO 00000KT 10SM -RA FEW016 BKN028 OVC036 03/01 A3017 4490 82 4200 000/00 RMK AO2 RAB33 P0000 T00330006                              
24015KAKO AKO20190509115013105/09/19 11:50:31  5-MIN KAKO 091850Z AUTO VRB03KT 10SM FEW018 BKN036 OVC060 04/01 A3017 4490 79 4300 VRB/03 RMK AO2 RAB33E44 P0000                                         
24015KAKO AKO20190509115512605/09/19 11:55:31  5-MIN KAKO 091855Z AUTO 00000KT 10SM FEW018 BKN046 OVC060 04/01 A3017 4490 79 4300 000/00 RMK AO2 T00440011                                              
24015KAKO AKO20190509120012605/09/19 12:00:31  5-MIN KAKO 091900Z AUTO VRB03KT 10SM FEW018 SCT035 OVC060 04/01 A3017 4490 79 4300 VRB/03 RMK AO2 T00440011                                              
24015KAKO AKO20190509120512605/09/19 12:05:31  5-MIN KAKO 091905Z AUTO VRB04KT 10SM FEW021 SCT046 OVC060 05/01 A3016 4490 76 4400 VRB/04 RMK AO2 T00500011                                              
24015KAKO AKO20190509121012605/09/19 12:10:31  5-MIN KAKO 091910Z AUTO 00000KT 10SM SCT023 SCT036 OVC060 05/01 A3016 4490 73 4400 000/00 RMK AO2 T00500006                                              
24015KAKO AKO20190509122012605/09/19 12:20:31  5-MIN KAKO 091920Z AUTO 00000KT 10SM FEW017 BKN025 OVC065 05/01 A3017 4490 76 4400 000/00 RMK AO2 T00500011                                              
24015KAKO AKO20190509133011905/09/19 13:30:31  5-MIN KAKO 092030Z AUTO 00000KT 10SM BKN040 OVC049 04/01 A3016 4500 76 4300 000/00 RMK AO2 T00440006                                                     
24015KAKO AKO20190509185011905/09/19 18:50:31  5-MIN KAKO 100150Z AUTO 00000KT 10SM OVC090 04/01 A3014 4510 82 4300 000/00 RMK AO2 SLP222 T00390011                                                     
24015KAKO AKO20190509185511205/09/19 18:55:31  5-MIN KAKO 100155Z AUTO 00000KT 10SM OVC090 04/01 A3014 4510 79 4300 000/00 RMK AO2 T00390006                                                            
24015KAKO AKO20190509190011205/09/19 19:00:31  5-MIN KAKO 100200Z AUTO 00000KT 10SM OVC090 04/01 A3014 4510 79 4300 000/00 RMK AO2 T00390006                                                            
24015KAKO AKO20190509190511205/09/19 19:05:31  5-MIN KAKO 100205Z AUTO 00000KT 10SM OVC090 04/01 A3014 4510 79 4300 000/00 RMK AO2 T00390006                                                            
24015KAKO AKO20190509191011205/09/19 19:10:31  5-MIN KAKO 100210Z AUTO 00000KT 10SM OVC090 03/01 A3015 4510 82 4200 000/00 RMK AO2 T00330006                                                            
24015KAKO AKO20190509191511205/09/19 19:15:31  5-MIN KAKO 100215Z AUTO 00000KT 10SM BKN090 03/01 A3015 4510 82 4200 000/00 RMK AO2 T00330006                                                            
24015KAKO AKO20190509192011205/09/19 19:20:31  5-MIN KAKO 100220Z AUTO 00000KT 10SM BKN090 03/01 A3015 4510 82 4200 000/00 RMK AO2 T00330006                                                            
24015KAKO AKO20190509193511205/09/19 19:35:31  5-MIN KAKO 100235Z AUTO 00000KT 10SM FEW085 03/01 A3015 4500 85 4100 000/00 RMK AO2 T00280006                                                            
24015KAKO AKO20190509194011205/09/19 19:40:31  5-MIN KAKO 100240Z AUTO 00000KT 10SM FEW040 03/01 A3016 4500 85 4100 000/00 RMK AO2 T00280006                                                            
24015KAKO AKO20190509194511205/09/19 19:45:31  5-MIN KAKO 100245Z AUTO 00000KT 10SM FEW040 03/01 A3016 4500 85 4100 000/00 RMK AO2 T00280006                                                            
24015KAKO AKO20190509195012505/09/19 19:50:31  5-MIN KAKO 100250Z AUTO 00000KT 10SM FEW065 03/01 A3016 4500 82 4200 000/00 RMK AO2 SLP227 T00330006 55004                                               
24015KAKO AKO20190509195511905/09/19 19:55:31  5-MIN KAKO 100255Z AUTO 00000KT 10SM FEW041 SCT065 03/01 A3016 4490 82 4200 000/00 RMK AO2 T00330006                                                     
24015KAKO AKO20190509200011905/09/19 20:00:31  5-MIN KAKO 100300Z AUTO 00000KT 10SM SCT041 BKN065 03/01 A3016 4500 82 4200 000/00 RMK AO2 T00330006                                                     
24015KAKO AKO20190509202511905/09/19 20:25:31  5-MIN KAKO 100325Z AUTO 00000KT 10SM FEW042 OVC065 03/01 A3017 4490 82 4200 000/00 RMK AO2 T00330006                                                     
24015KAKO AKO20190509203011205/09/19 20:30:31  5-MIN KAKO 100330Z AUTO 00000KT 10SM OVC065 03/01 A3017 4490 89 4100 000/00 RMK AO2 T00280011                                                            
24015KAKO AKO20190509203511205/09/19 20:35:31  5-MIN KAKO 100335Z AUTO 00000KT 10SM OVC065 02/01 A3017 4490 89 4100 000/00 RMK AO2 T00220006                                                            
24015KAKO AKO20190509204011205/09/19 20:40:31  5-MIN KAKO 100340Z AUTO 00000KT 10SM OVC060 02/01 A3017 4490 89 4100 000/00 RMK AO2 T00220006                                                            
24015KAKO AKO20190509204511205/09/19 20:45:31  5-MIN KAKO 100345Z AUTO 00000KT 10SM OVC060 03/01 A3017 4490 89 4100 000/00 RMK AO2 T00280011                                                            
24015KAKO AKO20190509205011905/09/19 20:50:31  5-MIN KAKO 100350Z AUTO 00000KT 10SM OVC060 03/01 A3017 4490 85 4100 000/00 RMK AO2 SLP231 T00280006                                                     
24015KAKO AKO20190509205511205/09/19 20:55:31  5-MIN KAKO 100355Z AUTO 00000KT 10SM OVC060 03/01 A3017 4490 85 4100 000/00 RMK AO2 T00280006                                                            
24015KAKO AKO20190509220010905/09/19 22:00:31  5-MIN KAKO 100500Z AUTO 00000KT 10SM CLR 02/00 A3016 4490 85 4100 000/00 RMK AO2 T00220000                                                               
24015KAKO AKO20190509220510905/09/19 22:05:31  5-MIN KAKO 100505Z AUTO 00000KT 10SM CLR 03/00 A3017 4490 82 4100 000/00 RMK AO2 T00280000                                                               
24015KAKO AKO20190509221010905/09/19 22:10:31  5-MIN KAKO 100510Z AUTO 00000KT 10SM CLR 02/00 A3017 4490 85 4100 000/00 RMK AO2 T00220000                                                               
24015KAKO AKO20190509221511205/09/19 22:15:31  5-MIN KAKO 100515Z AUTO 00000KT 10SM FEW065 02/00 A3017 4490 89 4000 000/00 RMK AO2 T00170000                                                            
24015KAKO AKO20190509222011305/09/19 22:20:31  5-MIN KAKO 100520Z AUTO 00000KT 10SM SCT065 01/M01 A3017 4490 89 3900 000/00 RMK AO2 T00111006                                                           
24015KAKO AKO20190509222511305/09/19 22:25:31  5-MIN KAKO 100525Z AUTO 00000KT 10SM SCT065 01/M01 A3017 4490 89 3900 000/00 RMK AO2 T00061011                                                           
24015KAKO AKO20190509223011205/09/19 22:30:31  5-MIN KAKO 100530Z AUTO 00000KT 10SM SCT065 01/00 A3017 4490 92 3900 000/00 RMK AO2 T00110000                                                            
24015KAKO AKO20190509223511205/09/19 22:35:31  5-MIN KAKO 100535Z AUTO 00000KT 10SM FEW065 01/00 A3017 4480 92 3900 000/00 RMK AO2 T00110000                                                            
24015KAKO AKO20190509224011205/09/19 22:40:31  5-MIN KAKO 100540Z AUTO 00000KT 10SM SCT065 02/01 A3017 4480 92 4000 000/00 RMK AO2 T00170006                                                            
24015KAKO AKO20190509225013705/09/19 22:50:31  5-MIN KAKO 100550Z AUTO 00000KT 10SM SCT060 01/00 A3018 4480 92 3900 000/00 RMK AO2 SLP236 T00110000 10050 20006 53007                                   
24015KAKO AKO20190509225511305/09/19 22:55:31  5-MIN KAKO 100555Z AUTO 00000KT 10SM FEW060 01/M01 A3018 4480 92 3800 000/00 RMK AO2 T00061006                                                           
24015KAKO AKO20190509230011205/09/19 23:00:31  5-MIN KAKO 100600Z AUTO 00000KT 10SM FEW060 01/00 A3018 4480 92 3900 000/00 RMK AO2 T00110000                                                            
24015KAKO AKO20190509230511305/09/19 23:05:31  5-MIN KAKO 100605Z AUTO 00000KT 10SM FEW060 01/M01 A3018 4480 89 3900 000/00 RMK AO2 T00111006                                                           
24015KAKO AKO20190509231011305/09/19 23:10:31  5-MIN KAKO 100610Z AUTO 00000KT 10SM FEW060 01/M01 A3018 4480 89 3900 000/00 RMK AO2 T00111006                                                           
24015KAKO AKO20190509231510905/09/19 23:15:31  5-MIN KAKO 100615Z AUTO 00000KT 10SM CLR 02/00 A3018 4480 89 4000 000/00 RMK AO2 T00170000                                                               
24015KAKO AKO20190510000011205/10/19 00:00:31  5-MIN KAKO 100700Z AUTO 00000KT 10SM BKN065 02/00 A3017 4490 85 4100 000/00 RMK AO2 T00220000                                                            
24015KAKO AKO20190510002011305/10/19 00:20:31  5-MIN KAKO 100720Z AUTO 00000KT 10SM BKN065 00/M01 A3016 4500 96 3800 000/00 RMK AO2 T00001006                                                           
24015KAKO AKO20190511190011905/11/19 19:00:31  5-MIN KAKO 120200Z AUTO 00000KT 10SM BKN095 BKN110 09/01 A2994 4700 53 5200 000/00 RMK AO2 T00940006                                                     
24015KAKO AKO20190511190511905/11/19 19:05:31  5-MIN KAKO 120205Z AUTO 00000KT 10SM BKN095 OVC110 09/01 A2994 4700 53 5200 000/00 RMK AO2 T00940006                                                     
24015KAKO AKO20190511191011205/11/19 19:10:31  5-MIN KAKO 120210Z AUTO 00000KT 10SM OVC095 09/01 A2994 4700 53 5200 000/00 RMK AO2 T00940006                                                            
24015KAKO AKO20190511191511205/11/19 19:15:31  5-MIN KAKO 120215Z AUTO 00000KT 10SM OVC100 09/01 A2995 4690 53 5200 000/00 RMK AO2 T00940006                                                            
24015KAKO AKO20190511192011205/11/19 19:20:31  5-MIN KAKO 120220Z AUTO 00000KT 10SM OVC100 09/01 A2995 4690 53 5200 000/00 RMK AO2 T00940006                                                            
24015KAKO AKO20190511192511205/11/19 19:25:31  5-MIN KAKO 120225Z AUTO 00000KT 10SM OVC100 09/01 A2995 4690 53 5200 000/00 RMK AO2 T00940006                                                            
24015KAKO AKO20190511193011205/11/19 19:30:31  5-MIN KAKO 120230Z AUTO 00000KT 10SM OVC100 09/01 A2995 4690 56 5200 000/00 RMK AO2 T00940011                                                            
24015KAKO AKO20190511193511205/11/19 19:35:31  5-MIN KAKO 120235Z AUTO 00000KT 10SM OVC100 09/02 A2996 4690 60 5100 000/00 RMK AO2 T00890017                                                            
24015KAKO AKO20190511194011205/11/19 19:40:31  5-MIN KAKO 120240Z AUTO 00000KT 10SM OVC095 08/02 A2996 4690 63 5000 000/00 RMK AO2 T00830017                                                            
24015KAKO AKO20190511194511205/11/19 19:45:31  5-MIN KAKO 120245Z AUTO 00000KT 10SM OVC095 08/02 A2996 4690 63 5000 000/00 RMK AO2 T00830017                                                            
24015KAKO AKO20190511195012505/11/19 19:50:31  5-MIN KAKO 120250Z AUTO 00000KT 10SM OVC100 08/02 A2996 4690 63 5000 000/00 RMK AO2 SLP127 T00830017 58009                                               
24015KAKO AKO20190511200011205/11/19 20:00:31  5-MIN KAKO 120300Z AUTO 00000KT 10SM OVC100 08/02 A2996 4690 63 5000 000/00 RMK AO2 T00830017                                                            
24015KAKO AKO20190513093510905/13/19 09:35:31  5-MIN KAKO 131635Z AUTO VRB06KT 10SM CLR 22/04 A2994 4700 32 6600 VRB/06 RMK AO2 T02170044                                                               
24015KAKO AKO20190513094510905/13/19 09:45:31  5-MIN KAKO 131645Z AUTO VRB06KT 10SM CLR 22/03 A2994 4700 28 6600 VRB/06 RMK AO2 T02220033                                                               
24015KAKO AKO20190513095011605/13/19 09:50:31  5-MIN KAKO 131650Z AUTO VRB06KT 10SM CLR 22/03 A2994 4710 28 6600 VRB/06 RMK AO2 SLP096 T02220033                                                        
24015KAKO AKO20190513095510905/13/19 09:55:31  5-MIN KAKO 131655Z AUTO VRB04KT 10SM CLR 22/03 A2994 4700 28 6600 VRB/04 RMK AO2 T02220033                                                               
24015KAKO AKO20190513100010905/13/19 10:00:31  5-MIN KAKO 131700Z AUTO VRB05KT 10SM CLR 23/03 A2994 4710 26 6700 VRB/05 RMK AO2 T02280028                                                               
24015KAKO AKO20190513101010905/13/19 10:10:31  5-MIN KAKO 131710Z AUTO 00000KT 10SM CLR 23/03 A2994 4710 25 6800 000/00 RMK AO2 T02330028                                                               
24015KAKO AKO20190513104510905/13/19 10:45:31  5-MIN KAKO 131745Z AUTO VRB04KT 10SM CLR 24/03 A2993 4710 25 6800 VRB/04 RMK AO2 T02390028                                                               
24015KAKO AKO20190513105013405/13/19 10:50:31  5-MIN KAKO 131750Z AUTO VRB06KT 10SM CLR 24/03 A2993 4710 25 6800 VRB/06 RMK AO2 SLP089 T02390028 10244 20083 51008                                      
24015KAKO AKO20190513110010905/13/19 11:00:31  5-MIN KAKO 131800Z AUTO VRB04KT 10SM CLR 24/02 A2993 4710 24 6800 VRB/04 RMK AO2 T02390022                                                               
24015KAKO AKO20190513111510905/13/19 11:15:31  5-MIN KAKO 131815Z AUTO VRB05KT 10SM CLR 24/02 A2993 4710 22 6900 VRB/05 RMK AO2 T02440017                                                               
24015KAKO AKO20190513113510905/13/19 11:35:31  5-MIN KAKO 131835Z AUTO VRB03KT 10SM CLR 24/01 A2992 4720 20 6900 VRB/03 RMK AO2 T02440006                                                               
24015KAKO AKO20190513114510905/13/19 11:45:31  5-MIN KAKO 131845Z AUTO VRB04KT 10SM CLR 25/02 A2992 4720 21 7000 VRB/04 RMK AO2 T02500017                                                               
24015KAKO AKO20190513120511505/13/19 12:05:31  5-MIN KAKO 131905Z AUTO VRB04G19KT 10SM CLR 25/01 A2992 4720 20 7000 VRB/04G19 RMK AO2 T02500006                                                         
24015KAKO AKO20190513122011505/13/19 12:20:31  5-MIN KAKO 131920Z AUTO VRB06G24KT 10SM CLR 26/01 A2992 4720 19 7100 VRB/06G24 RMK AO2 T02610011                                                         
24015KAKO AKO20190513122511805/13/19 12:25:31  5-MIN KAKO 131925Z AUTO VRB04G24KT 10SM FEW100 26/01 A2991 4730 20 7000 VRB/04G24 RMK AO2 T02560011                                                      
24015KAKO AKO20190513125011905/13/19 12:50:31  5-MIN KAKO 131950Z AUTO VRB04KT 10SM FEW100 26/00 A2991 4730 18 7100 VRB/04 RMK AO2 SLP078 T02610000                                                     
24015KAKO AKO20190513133511205/13/19 13:35:31  5-MIN KAKO 132035Z AUTO VRB04KT 10SM SCT120 24/01 A2990 4730 20 6900 VRB/04 RMK AO2 T02440006                                                            
24015KAKO AKO20190513135511205/13/19 13:55:31  5-MIN KAKO 132055Z AUTO VRB06KT 10SM FEW120 26/01 A2990 4740 18 7100 VRB/06 RMK AO2 T02610006                                                            
24015KAKO AKO20190513140011205/13/19 14:00:31  5-MIN KAKO 132100Z AUTO VRB03KT 10SM FEW120 26/01 A2990 4740 19 7000 VRB/03 RMK AO2 T02560006                                                            
24015KAKO AKO20190513142011205/13/19 14:20:31  5-MIN KAKO 132120Z AUTO VRB04KT 10SM FEW120 27/02 A2989 4750 19 7200 VRB/04 RMK AO2 T02720017                                                            
24015KAKO AKO20190513143011205/13/19 14:30:31  5-MIN KAKO 132130Z AUTO VRB04KT 10SM SCT110 27/02 A2989 4750 19 7200 VRB/04 RMK AO2 T02720017                                                            
24015KAKO AKO20190513143511205/13/19 14:35:31  5-MIN KAKO 132135Z AUTO VRB03KT 10SM SCT110 27/02 A2989 4750 19 7200 VRB/03 RMK AO2 T02670017                                                            
24015KAKO AKO20190513144011205/13/19 14:40:31  5-MIN KAKO 132140Z AUTO VRB06KT 10SM SCT110 26/02 A2989 4750 20 7100 VRB/06 RMK AO2 T02610017                                                            
24015KAKO AKO20190513145011905/13/19 14:50:31  5-MIN KAKO 132150Z AUTO VRB06KT 10SM BKN110 25/01 A2989 4750 20 7000 VRB/06 RMK AO2 SLP074 T02500011                                                     
24015KAKO AKO20190513152012305/13/19 15:20:31  5-MIN KAKO 132220Z AUTO VRB03KT 10SM SCT110 27/02 A2989 4750 19 7200 VRB/03 RMK AO2 LTG DSNT N T02670017                                                 
24015KAKO AKO20190513152512305/13/19 15:25:31  5-MIN KAKO 132225Z AUTO VRB03KT 10SM FEW110 26/02 A2989 4750 20 7100 VRB/03 RMK AO2 LTG DSNT N T02610017                                                 
24015KAKO AKO20190513153012005/13/19 15:30:31  5-MIN KAKO 132230Z AUTO VRB04KT 10SM CLR 26/01 A2988 4750 19 7100 VRB/04 RMK AO2 LTG DSNT N T02610011                                                    
24015KAKO AKO20190513161010905/13/19 16:10:31  5-MIN KAKO 132310Z AUTO VRB06KT 10SM CLR 27/01 A2989 4740 18 7200 VRB/06 RMK AO2 T02670011                                                               
24015KAKO AKO20190513204510905/13/19 20:45:31  5-MIN KAKO 140345Z AUTO 00000KT 10SM CLR 13/04 A2995 4690 54 5600 000/00 RMK AO2 T01330044                                                               
24015KAKO AKO20190513205510905/13/19 20:55:31  5-MIN KAKO 140355Z AUTO 00000KT 10SM CLR 13/04 A2996 4690 52 5600 000/00 RMK AO2 T01330039                                                               
24015KAKO AKO20190513210010905/13/19 21:00:31  5-MIN KAKO 140400Z AUTO 00000KT 10SM CLR 13/04 A2996 4690 54 5500 000/00 RMK AO2 T01280039                                                               
24015KAKO AKO20190514012510905/14/19 01:25:31  5-MIN KAKO 140825Z AUTO 00000KT 10SM CLR 10/03 A2996 4680 60 5200 000/00 RMK AO2 T01000028                                                               
24015KAKO AKO20190514013010905/14/19 01:30:31  5-MIN KAKO 140830Z AUTO 00000KT 10SM CLR 10/03 A2997 4680 60 5200 000/00 RMK AO2 T01000028                                                               
24015KAKO AKO20190514024510905/14/19 02:45:31  5-MIN KAKO 140945Z AUTO VRB05KT 10SM CLR 07/03 A2997 4670 73 4900 VRB/05 RMK AO2 T00720028                                                               
24015KAKO AKO20190514074510905/14/19 07:45:31  5-MIN KAKO 141445Z AUTO VRB05KT 10SM CLR 18/06 A3003 4610 42 6100 VRB/05 RMK AO2 T01830056                                                               
24015KAKO AKO20190514091510905/14/19 09:15:31  5-MIN KAKO 141615Z AUTO VRB04KT 10SM CLR 23/05 A3003 4620 30 6600 VRB/04 RMK AO2 T02330050                                                               
24015KAKO AKO20190514093510905/14/19 09:35:31  5-MIN KAKO 141635Z AUTO VRB05KT 10SM CLR 24/05 A3004 4610 29 6700 VRB/05 RMK AO2 T02390050                                                               
24015KAKO AKO20190514095011605/14/19 09:50:31  5-MIN KAKO 141650Z AUTO VRB03KT 10SM CLR 24/04 A3004 4610 27 6800 VRB/03 RMK AO2 SLP121 T02440044                                                        
24015KAKO AKO20190514095510905/14/19 09:55:31  5-MIN KAKO 141655Z AUTO VRB04KT 10SM CLR 24/04 A3004 4610 27 6800 VRB/04 RMK AO2 T02440044                                                               
24015KAKO AKO20190514100010905/14/19 10:00:31  5-MIN KAKO 141700Z AUTO VRB04KT 10SM CLR 24/04 A3003 4610 26 6800 VRB/04 RMK AO2 T02440039                                                               
24015KAKO AKO20190514101010905/14/19 10:10:31  5-MIN KAKO 141710Z AUTO VRB05KT 10SM CLR 26/04 A3004 4610 25 6900 VRB/05 RMK AO2 T02560044                                                               
24015KAKO AKO20190514101510905/14/19 10:15:31  5-MIN KAKO 141715Z AUTO VRB04KT 10SM CLR 25/04 A3004 4610 26 6800 VRB/04 RMK AO2 T02500044                                                               
24015KAKO AKO20190514102510905/14/19 10:25:31  5-MIN KAKO 141725Z AUTO VRB04KT 10SM CLR 25/04 A3003 4620 26 6800 VRB/04 RMK AO2 T02500044                                                               
24015KAKO AKO20190514104510905/14/19 10:45:31  5-MIN KAKO 141745Z AUTO VRB04KT 10SM CLR 26/04 A3003 4620 23 7000 VRB/04 RMK AO2 T02610039                                                               
24015KAKO AKO20190514110010905/14/19 11:00:31  5-MIN KAKO 141800Z AUTO VRB06KT 10SM CLR 27/03 A3002 4630 21 7100 VRB/06 RMK AO2 T02720033                                                               
24015KAKO AKO20190514110510905/14/19 11:05:31  5-MIN KAKO 141805Z AUTO 00000KT 10SM CLR 26/03 A3002 4630 21 7000 000/00 RMK AO2 T02610028                                                               
24015KAKO AKO20190514111510905/14/19 11:15:31  5-MIN KAKO 141815Z AUTO VRB06KT 10SM CLR 27/02 A3002 4630 20 7000 VRB/06 RMK AO2 T02670022                                                               
24015KAKO AKO20190514112010905/14/19 11:20:31  5-MIN KAKO 141820Z AUTO 00000KT 10SM CLR 27/02 A3001 4630 20 7000 000/00 RMK AO2 T02670022                                                               
24015KAKO AKO20190514113010905/14/19 11:30:31  5-MIN KAKO 141830Z AUTO VRB04KT 10SM CLR 27/02 A3001 4630 19 7000 VRB/04 RMK AO2 T02670017                                                               
24015KAKO AKO20190514120011505/14/19 12:00:31  5-MIN KAKO 141900Z AUTO VRB05G18KT 10SM CLR 28/02 A3000 4650 17 7200 VRB/05G18 RMK AO2 T02830017                                                         
24015KAKO AKO20190514123512705/14/19 12:35:31  5-MIN KAKO 141935Z AUTO VRB05G15KT 10SM CLR 27/00 A2999 4660 16 7100 VRB/05G15 RMK AO2 LTG DSNT NW T02720000                                             
24015KAKO AKO20190514130013405/14/19 13:00:31  5-MIN KAKO 142000Z AUTO VRB05G15KT 10SM CLR 28/M01 A2998 4660 15 7200 VRB/05G15 RMK AO2 LTG DSNT W AND NW T02781011                                      
24015KAKO AKO20190514131012805/14/19 13:10:31  5-MIN KAKO 142010Z AUTO VRB04G17KT 10SM CLR 28/M01 A2998 4660 15 7200 VRB/04G17 RMK AO2 LTG DSNT NW T02831006                                            
24015KAKO AKO20190514204514105/14/19 20:45:31  5-MIN KAKO 150345Z AUTO VRB04KT 10SM FEW120 17/06 A3008 4570 47 5900 VRB/04 RMK AO2 PK WND 32032/0312 WSHFT 0311 T01720061                               
24015KAKO AKO20190514210511205/14/19 21:05:31  5-MIN KAKO 150405Z AUTO VRB06KT 10SM FEW120 18/06 A3007 4580 42 6000 VRB/06 RMK AO2 T01830056                                                            
24015KAKO AKO20190514211011205/14/19 21:10:31  5-MIN KAKO 150410Z AUTO VRB04KT 10SM FEW120 18/06 A3007 4580 42 6000 VRB/04 RMK AO2 T01830056                                                            
24015KAKO AKO20190514214511205/14/19 21:45:31  5-MIN KAKO 150445Z AUTO 00000KT 10SM FEW120 16/06 A3006 4590 51 5700 000/00 RMK AO2 T01560056                                                            
24015KAKO AKO20190514215011605/14/19 21:50:31  5-MIN KAKO 150450Z AUTO 00000KT 10SM CLR 16/05 A3007 4580 47 5800 000/00 RMK AO2 SLP130 T01610050                                                        
24015KAKO AKO20190515094010905/15/19 09:40:31  5-MIN KAKO 151640Z AUTO VRB05KT 10SM CLR 24/05 A3001 4640 28 6800 VRB/05 RMK AO2 T02440050                                                               
24015KAKO AKO20190515102010905/15/19 10:20:31  5-MIN KAKO 151720Z AUTO VRB04KT 10SM CLR 26/04 A3000 4650 24 7000 VRB/04 RMK AO2 T02610044                                                               
24015KAKO AKO20190515102510905/15/19 10:25:31  5-MIN KAKO 151725Z AUTO VRB06KT 10SM CLR 27/04 A3000 4650 23 7000 VRB/06 RMK AO2 T02670044                                                               
24015KAKO AKO20190515105510905/15/19 10:55:31  5-MIN KAKO 151755Z AUTO 00000KT 10SM CLR 27/04 A2999 4650 22 7100 000/00 RMK AO2 T02720039                                                               
24015KAKO AKO20190515110010905/15/19 11:00:31  5-MIN KAKO 151800Z AUTO VRB05KT 10SM CLR 27/04 A2999 4650 22 7100 VRB/05 RMK AO2 T02720039                                                               
24015KAKO AKO20190515111010905/15/19 11:10:31  5-MIN KAKO 151810Z AUTO VRB03KT 10SM CLR 27/03 A2999 4660 21 7100 VRB/03 RMK AO2 T02720033                                                               
24015KAKO AKO20190515113010905/15/19 11:30:31  5-MIN KAKO 151830Z AUTO VRB04KT 10SM CLR 28/03 A2997 4670 19 7200 VRB/04 RMK AO2 T02780028                                                               
24015KAKO AKO20190515113510905/15/19 11:35:31  5-MIN KAKO 151835Z AUTO VRB03KT 10SM CLR 28/02 A2997 4670 18 7200 VRB/03 RMK AO2 T02780017                                                               
24015KAKO AKO20190515115510905/15/19 11:55:31  5-MIN KAKO 151855Z AUTO 00000KT 10SM CLR 28/03 A2996 4680 19 7200 000/00 RMK AO2 T02780028                                                               
24015KAKO AKO20190515120510905/15/19 12:05:31  5-MIN KAKO 151905Z AUTO VRB03KT 10SM CLR 29/02 A2995 4690 17 7300 VRB/03 RMK AO2 T02890017                                                               
24015KAKO AKO20190515121510905/15/19 12:15:31  5-MIN KAKO 151915Z AUTO 00000KT 10SM CLR 28/01 A2995 4690 17 7300 000/00 RMK AO2 T02830011                                                               
24015KAKO AKO20190515122511505/15/19 12:25:31  5-MIN KAKO 151925Z AUTO VRB04G14KT 10SM CLR 29/01 A2995 4700 16 7300 VRB/04G14 RMK AO2 T02890011                                                         
24015KAKO AKO20190515123011505/15/19 12:30:31  5-MIN KAKO 151930Z AUTO VRB06G14KT 10SM CLR 28/01 A2994 4700 16 7300 VRB/06G14 RMK AO2 T02830006                                                         
24015KAKO AKO20190515124511505/15/19 12:45:31  5-MIN KAKO 151945Z AUTO VRB04G16KT 10SM CLR 29/01 A2994 4700 15 7400 VRB/04G16 RMK AO2 T02940006                                                         
24015KAKO AKO20190515130511005/15/19 13:05:31  5-MIN KAKO 152005Z AUTO 00000KT 10SM CLR 29/M01 A2993 4710 14 7400 000/00 RMK AO2 T02891011                                                              
24015KAKO AKO20190515131010905/15/19 13:10:31  5-MIN KAKO 152010Z AUTO VRB06KT 10SM CLR 29/00 A2993 4710 14 7400 VRB/06 RMK AO2 T02940000                                                               
24015KAKO AKO20190515133011005/15/19 13:30:31  5-MIN KAKO 152030Z AUTO VRB04KT 10SM CLR 28/M01 A2992 4720 14 7300 VRB/04 RMK AO2 T02831011                                                              
24015KAKO AKO20190515133511005/15/19 13:35:31  5-MIN KAKO 152035Z AUTO VRB04KT 10SM CLR 28/M01 A2992 4720 15 7300 VRB/04 RMK AO2 T02831006                                                              
24015KAKO AKO20190515134011005/15/19 13:40:31  5-MIN KAKO 152040Z AUTO 00000KT 10SM CLR 28/M01 A2992 4720 15 7300 000/00 RMK AO2 T02831006                                                              
24015KAKO AKO20190515135511005/15/19 13:55:31  5-MIN KAKO 152055Z AUTO 00000KT 10SM CLR 29/M01 A2991 4720 14 7400 000/00 RMK AO2 T02891006                                                              
24015KAKO AKO20190515140011005/15/19 14:00:31  5-MIN KAKO 152100Z AUTO VRB06KT 10SM CLR 29/M01 A2991 4730 14 7400 VRB/06 RMK AO2 T02891011                                                              
24015KAKO AKO20190515142011005/15/19 14:20:31  5-MIN KAKO 152120Z AUTO 00000KT 10SM CLR 28/M02 A2990 4730 13 7300 000/00 RMK AO2 T02781022                                                              
24015KAKO AKO20190515142511005/15/19 14:25:31  5-MIN KAKO 152125Z AUTO 00000KT 10SM CLR 28/M03 A2990 4740 13 7300 000/00 RMK AO2 T02781028                                                              
24015KAKO AKO20190515143511005/15/19 14:35:31  5-MIN KAKO 152135Z AUTO 00000KT 10SM CLR 29/M01 A2990 4740 13 7500 000/00 RMK AO2 T02941011                                                              
24015KAKO AKO20190515144011005/15/19 14:40:31  5-MIN KAKO 152140Z AUTO VRB04KT 10SM CLR 29/M01 A2990 4740 14 7500 VRB/04 RMK AO2 T02941006                                                              
24015KAKO AKO20190515154511005/15/19 15:45:31  5-MIN KAKO 152245Z AUTO 00000KT 10SM CLR 28/M01 A2988 4760 14 7400 000/00 RMK AO2 T02831011                                                              
24015KAKO AKO20190515155511005/15/19 15:55:31  5-MIN KAKO 152255Z AUTO VRB06KT 10SM CLR 29/M01 A2988 4760 14 7400 VRB/06 RMK AO2 T02891011                                                              
24015KAKO AKO20190515161011005/15/19 16:10:31  5-MIN KAKO 152310Z AUTO 00000KT 10SM CLR 28/M02 A2988 4760 14 7400 000/00 RMK AO2 T02831017                                                              
24015KAKO AKO20190515161511005/15/19 16:15:31  5-MIN KAKO 152315Z AUTO 00000KT 10SM CLR 29/M02 A2988 4760 13 7400 000/00 RMK AO2 T02891017                                                              
24015KAKO AKO20190515162011005/15/19 16:20:31  5-MIN KAKO 152320Z AUTO 00000KT 10SM CLR 29/M02 A2988 4760 13 7500 000/00 RMK AO2 T02941017                                                              
24015KAKO AKO20190515162511005/15/19 16:25:31  5-MIN KAKO 152325Z AUTO 00000KT 10SM CLR 29/M01 A2987 4760 13 7500 000/00 RMK AO2 T02941011                                                              
24015KAKO AKO20190516110510905/16/19 11:05:31  5-MIN KAKO 161805Z AUTO 00000KT 10SM CLR 29/04 A2984 4790 20 7500 000/00 RMK AO2 T02890044                                                               
24015KAKO AKO20190516112010905/16/19 11:20:31  5-MIN KAKO 161820Z AUTO 00000KT 10SM CLR 29/03 A2984 4800 18 7500 000/00 RMK AO2 T02890028                                                               
24015KAKO AKO20190516113511205/16/19 11:35:31  5-MIN KAKO 161835Z AUTO VRB06KT 10SM FEW110 31/04 A2983 4800 18 7700 VRB/06 RMK AO2 T03060039                                                            
24015KAKO AKO20190516114511205/16/19 11:45:31  5-MIN KAKO 161845Z AUTO VRB03KT 10SM SCT110 29/03 A2983 4810 19 7500 VRB/03 RMK AO2 T02890033                                                            
24015KAKO AKO20190516123510905/16/19 12:35:31  5-MIN KAKO 161935Z AUTO VRB04KT 10SM CLR 31/03 A2981 4820 17 7700 VRB/04 RMK AO2 T03060033                                                               
24015KAKO AKO20190516124510905/16/19 12:45:31  5-MIN KAKO 161945Z AUTO VRB03KT 10SM CLR 30/03 A2980 4830 17 7600 VRB/03 RMK AO2 T03000028                                                               
24015KAKO AKO20190516130011505/16/19 13:00:31  5-MIN KAKO 162000Z AUTO VRB04G17KT 10SM CLR 31/02 A2980 4830 16 7700 VRB/04G17 RMK AO2 T03060022                                                         
24015KAKO AKO20190516130510905/16/19 13:05:31  5-MIN KAKO 162005Z AUTO VRB05KT 10SM CLR 31/02 A2979 4840 15 7700 VRB/05 RMK AO2 T03060017                                                               
24015KAKO AKO20190516132011505/16/19 13:20:31  5-MIN KAKO 162020Z AUTO VRB05G15KT 10SM CLR 30/02 A2979 4840 16 7600 VRB/05G15 RMK AO2 T03000017                                                         
24015KAKO AKO20190516134511205/16/19 13:45:31  5-MIN KAKO 162045Z AUTO VRB03KT 10SM FEW120 29/01 A2978 4850 16 7600 VRB/03 RMK AO2 T02940011                                                            
24015KAKO AKO20190516135012505/16/19 13:50:31  5-MIN KAKO 162050Z AUTO 00000KT 10SM SCT120 29/02 A2978 4850 16 7600 000/00 RMK AO2 SLP022 T02940017 56010                                               
24015KAKO AKO20190516135511205/16/19 13:55:31  5-MIN KAKO 162055Z AUTO VRB06KT 10SM SCT120 29/02 A2978 4850 17 7600 VRB/06 RMK AO2 T02940022                                                            
24015KAKO AKO20190517084510905/17/19 08:45:31  5-MIN KAKO 171545Z AUTO VRB03KT 10SM CLR 17/11 A2959 5030 64 6500 VRB/03 RMK AO2 T01720106                                                               
24015KAKO AKO20190517085011605/17/19 08:50:31  5-MIN KAKO 171550Z AUTO VRB05KT 10SM CLR 18/10 A2959 5030 58 6600 VRB/05 RMK AO2 SLP969 T01830100                                                        
24015KAKO AKO20190517094510905/17/19 09:45:31  5-MIN KAKO 171645Z AUTO VRB06KT 10SM CLR 21/10 A2958 5040 50 6900 VRB/06 RMK AO2 T02060100                                                               
24015KAKO AKO20190517103511505/17/19 10:35:31  5-MIN KAKO 171735Z AUTO VRB04G14KT 10SM CLR 22/09 A2956 5050 43 7100 VRB/04G14 RMK AO2 T02220094                                                         
24015KAKO AKO20190517111010905/17/19 11:10:31  5-MIN KAKO 171810Z AUTO VRB05KT 10SM CLR 23/09 A2955 5070 39 7200 VRB/05 RMK AO2 T02330089                                                               
24015KAKO AKO20190517113511505/17/19 11:35:31  5-MIN KAKO 171835Z AUTO VRB03G14KT 10SM CLR 23/08 A2954 5080 38 7200 VRB/03G14 RMK AO2 T02330083                                                         
24015KAKO AKO20190517114511505/17/19 11:45:31  5-MIN KAKO 171845Z AUTO VRB03G15KT 10SM CLR 24/08 A2952 5090 36 7300 VRB/03G15 RMK AO2 T02390083                                                         
24015KAKO AKO20190517120511905/17/19 12:05:31  5-MIN KAKO 171905Z AUTO VRB03KT 10SM FEW090 SCT110 23/08 A2952 5100 38 7200 VRB/03 RMK AO2 T02330083                                                     
24015KAKO AKO20190517150512405/17/19 15:05:31  5-MIN KAKO 172205Z AUTO VRB04KT 10SM SCT120 22/11 A2947 5140 47 7200 VRB/04 RMK AO2 LTG DSNT NW T02220106                                                
24015KAKO AKO20190518170014905/18/19 17:00:31  5-MIN KAKO 190000Z AUTO 00000KT 2SM RA BR FEW017 BKN032 OVC047 06/06 A2984 4790 96 4900 000/00 RMK AO2 LTG DSNT NE P0002 T00610056                       
24015KAKO AKO20190519105014205/19/19 10:50:31  5-MIN KAKO 191750Z AUTO VRB04KT 10SM FEW035 10/01 A2999 4660 52 5200 VRB/04 RMK AO2 SLP149 T01000006 10106 20000 51016 TSNO                              
24015KAKO AKO20190519111012005/19/19 11:10:31  5-MIN KAKO 191810Z AUTO VRB05G16KT 10SM CLR 11/01 A2999 4660 50 5300 VRB/05G16 RMK AO2 T01060006 TSNO                                                    
24015KAKO AKO20190519112511405/19/19 11:25:31  5-MIN KAKO 191825Z AUTO VRB05KT 10SM CLR 11/01 A2999 4660 50 5300 VRB/05 RMK AO2 T01060006 TSNO                                                          
24015KAKO AKO20190519113011405/19/19 11:30:31  5-MIN KAKO 191830Z AUTO VRB05KT 10SM CLR 11/01 A2999 4660 52 5300 VRB/05 RMK AO2 T01060011 TSNO                                                          
24015KAKO AKO20190519113511405/19/19 11:35:31  5-MIN KAKO 191835Z AUTO VRB06KT 10SM CLR 11/01 A2999 4650 50 5300 VRB/06 RMK AO2 T01110011 TSNO                                                          
24015KAKO AKO20190519114011405/19/19 11:40:31  5-MIN KAKO 191840Z AUTO VRB04KT 10SM CLR 11/01 A2999 4650 50 5300 VRB/04 RMK AO2 T01110011 TSNO                                                          
24015KAKO AKO20190519115511405/19/19 11:55:31  5-MIN KAKO 191855Z AUTO VRB05KT 10SM CLR 12/02 A2999 4660 50 5400 VRB/05 RMK AO2 T01170017 TSNO                                                          
24015KAKO AKO20190519120011405/19/19 12:00:31  5-MIN KAKO 191900Z AUTO VRB03KT 10SM CLR 11/01 A2999 4660 50 5300 VRB/03 RMK AO2 T01110011 TSNO                                                          
24015KAKO AKO20190519121011705/19/19 12:10:31  5-MIN KAKO 191910Z AUTO VRB04KT 10SM FEW042 11/01 A2999 4660 48 5300 VRB/04 RMK AO2 T01110006 TSNO                                                       
24015KAKO AKO20190519121511705/19/19 12:15:31  5-MIN KAKO 191915Z AUTO 00000KT 10SM FEW042 12/02 A2998 4660 50 5400 000/00 RMK AO2 T01170017 TSNO                                                       
24015KAKO AKO20190519123011705/19/19 12:30:31  5-MIN KAKO 191930Z AUTO VRB04KT 10SM BKN043 11/01 A2998 4670 50 5300 VRB/04 RMK AO2 T01110011 TSNO                                                       
24015KAKO AKO20190519123511705/19/19 12:35:31  5-MIN KAKO 191935Z AUTO VRB03KT 10SM SCT043 12/01 A2997 4670 48 5400 VRB/03 RMK AO2 T01170011 TSNO                                                       
24015KAKO AKO20190519125012405/19/19 12:50:31  5-MIN KAKO 191950Z AUTO VRB04KT 10SM FEW044 11/01 A2997 4680 50 5300 VRB/04 RMK AO2 SLP143 T01110011 TSNO                                                
24015KAKO AKO20190519125511405/19/19 12:55:31  5-MIN KAKO 191955Z AUTO VRB03KT 10SM CLR 12/01 A2997 4680 48 5400 VRB/03 RMK AO2 T01170011 TSNO                                                          
24015KAKO AKO20190519130011405/19/19 13:00:31  5-MIN KAKO 192000Z AUTO VRB06KT 10SM CLR 13/02 A2997 4680 46 5500 VRB/06 RMK AO2 T01280017 TSNO                                                          
24015KAKO AKO20190519130511705/19/19 13:05:31  5-MIN KAKO 192005Z AUTO VRB04KT 10SM FEW045 13/02 A2997 4680 46 5500 VRB/04 RMK AO2 T01280017 TSNO                                                       
24015KAKO AKO20190519131011705/19/19 13:10:31  5-MIN KAKO 192010Z AUTO VRB03KT 10SM FEW045 13/02 A2996 4680 46 5500 VRB/03 RMK AO2 T01280017 TSNO                                                       
24015KAKO AKO20190519132011705/19/19 13:20:31  5-MIN KAKO 192020Z AUTO VRB05KT 10SM FEW045 12/01 A2995 4690 46 5500 VRB/05 RMK AO2 T01220011 TSNO                                                       
24015KAKO AKO20190519133011705/19/19 13:30:31  5-MIN KAKO 192030Z AUTO VRB05KT 10SM FEW045 13/02 A2995 4700 45 5600 VRB/05 RMK AO2 T01330017 TSNO                                                       
24015KAKO AKO20190519134011405/19/19 13:40:31  5-MIN KAKO 192040Z AUTO VRB04KT 10SM CLR 13/02 A2995 4690 46 5600 VRB/04 RMK AO2 T01280017 TSNO                                                          
24015KAKO AKO20190519141511705/19/19 14:15:31  5-MIN KAKO 192115Z AUTO VRB04KT 10SM FEW050 13/02 A2994 4700 46 5600 VRB/04 RMK AO2 T01330022 TSNO                                                       
24015KAKO AKO20190522230511205/22/19 23:05:31  5-MIN KAKO 230605Z AUTO 00000KT 10SM OVC049 04/02 A3007 4580 85 4400 000/00 RMK AO2 T00390017                                                            
24015KAKO AKO20190522231011205/22/19 23:10:31  5-MIN KAKO 230610Z AUTO 00000KT 10SM OVC049 04/02 A3007 4580 85 4400 000/00 RMK AO2 T00390017                                                            
24015KAKO AKO20190522235012905/22/19 23:50:31  5-MIN KAKO 230650Z AUTO 00000KT 10SM OVC049 04/02 A3009 4560 85 4400 000/00 RMK AO2 SLP186 T00390017 401171022                                           
24015KAKO AKO20190522235511205/22/19 23:55:31  5-MIN KAKO 230655Z AUTO 00000KT 10SM OVC049 04/02 A3009 4560 89 4300 000/00 RMK AO2 T00390022                                                            
24015KAKO AKO20190523000011205/23/19 00:00:31  5-MIN KAKO 230700Z AUTO 00000KT 10SM OVC050 04/02 A3009 4560 85 4400 000/00 RMK AO2 T00440022                                                            
24015KAKO AKO20190523000511205/23/19 00:05:31  5-MIN KAKO 230705Z AUTO 00000KT 10SM OVC050 04/02 A3009 4570 82 4400 000/00 RMK AO2 T00440017                                                            
24015KAKO AKO20190523001011205/23/19 00:10:31  5-MIN KAKO 230710Z AUTO 00000KT 10SM OVC050 04/02 A3008 4570 85 4400 000/00 RMK AO2 T00440022                                                            
24015KAKO AKO20190523014011905/23/19 01:40:31  5-MIN KAKO 230840Z AUTO 00000KT 10SM FEW055 BKN080 03/02 A3008 4570 89 4300 000/00 RMK AO2 T00330017                                                     
24015KAKO AKO20190523030512605/23/19 03:05:31  5-MIN KAKO 231005Z AUTO 00000KT 10SM FEW049 BKN060 OVC085 04/02 A3011 4550 89 4300 000/00 RMK AO2 T00390022                                              
24015KAKO AKO20190523031511905/23/19 03:15:31  5-MIN KAKO 231015Z AUTO 00000KT 10SM BKN049 OVC065 04/02 A3010 4550 85 4300 000/00 RMK AO2 T00390017                                                     
24015KAKO AKO20190523033011205/23/19 03:30:31  5-MIN KAKO 231030Z AUTO 00000KT 10SM OVC050 04/02 A3011 4550 85 4300 000/00 RMK AO2 T00390017                                                            
24015KAKO AKO20190523035511205/23/19 03:55:31  5-MIN KAKO 231055Z AUTO 00000KT 10SM OVC049 04/02 A3012 4540 85 4300 000/00 RMK AO2 T00390017                                                            
24015KAKO AKO20190523062011205/23/19 06:20:31  5-MIN KAKO 231320Z AUTO 00000KT 10SM OVC044 05/02 A3014 4520 79 4400 000/00 RMK AO2 T00500017                                                            
24015KAKO AKO20190523072511205/23/19 07:25:31  5-MIN KAKO 231425Z AUTO VRB03KT 10SM OVC044 06/02 A3013 4520 73 4600 VRB/03 RMK AO2 T00610017                                                            
24015KAKO AKO20190523073511205/23/19 07:35:31  5-MIN KAKO 231435Z AUTO 00000KT 10SM OVC044 06/02 A3014 4520 73 4600 000/00 RMK AO2 T00610017                                                            
24015KAKO AKO20190525064510905/25/19 06:45:31  5-MIN KAKO 251345Z AUTO VRB03KT 10SM CLR 12/05 A3006 4590 63 5300 VRB/03 RMK AO2 T01170050                                                               
24015KAKO AKO20190525072510905/25/19 07:25:31  5-MIN KAKO 251425Z AUTO VRB03KT 10SM CLR 14/05 A3007 4590 55 5500 VRB/03 RMK AO2 T01390050                                                               
24015KAKO AKO20190525074510905/25/19 07:45:31  5-MIN KAKO 251445Z AUTO VRB05KT 10SM CLR 15/04 A3007 4580 47 5700 VRB/05 RMK AO2 T01500039                                                               
24015KAKO AKO20190525075012205/25/19 07:50:31  5-MIN KAKO 251450Z AUTO VRB03KT 10SM CLR 15/03 A3007 4580 45 5700 VRB/03 RMK AO2 SLP151 T01500033 53014                                                  
24015KAKO AKO20190525132511505/25/19 13:25:31  5-MIN KAKO 252025Z AUTO VRB06G19KT 10SM CLR 23/03 A3000 4640 26 6600 VRB/06G19 RMK AO2 T02280028                                                         
24015KAKO AKO20190525140511505/25/19 14:05:31  5-MIN KAKO 252105Z AUTO VRB05G21KT 10SM CLR 23/03 A2999 4650 25 6700 VRB/05G21 RMK AO2 T02330028                                                         
24015KAKO AKO20190526193011205/26/19 19:30:31  5-MIN KAKO 270230Z AUTO VRB04KT 10SM BKN110 16/12 A2983 4800 77 6100 VRB/04 RMK AO2 T01610122                                                            
24015KAKO AKO20190526193512305/26/19 19:35:31  5-MIN KAKO 270235Z AUTO 00000KT 10SM BKN110 16/12 A2984 4790 77 6100 000/00 RMK AO2 LTG DSNT W T01610122                                                 
24015KAKO AKO20190527034510905/27/19 03:45:31  5-MIN KAKO 271045Z AUTO VRB05KT 7SM CLR 08/08 A2982 4810 100 5200 VRB/05 RMK AO2 T00830083                                                               
24015KAKO AKO20190527053511205/27/19 05:35:31  5-MIN KAKO 271235Z AUTO VRB06KT 8SM BKN001 11/11 A2985 4790 100 5400 VRB/06 RMK AO2 T01060106                                                            
24015KAKO AKO20190527083010905/27/19 08:30:31  5-MIN KAKO 271530Z AUTO VRB03KT 10SM CLR 17/11 A2982 4810 64 6200 VRB/03 RMK AO2 T01720106                                                               
24015KAKO AKO20190527084010905/27/19 08:40:31  5-MIN KAKO 271540Z AUTO VRB03KT 10SM CLR 18/10 A2982 4810 60 6300 VRB/03 RMK AO2 T01780100                                                               
24015KAKO AKO20190527084510905/27/19 08:45:31  5-MIN KAKO 271545Z AUTO 00000KT 10SM CLR 18/11 A2982 4810 62 6300 000/00 RMK AO2 T01780106                                                               
24015KAKO AKO20190527090010905/27/19 09:00:31  5-MIN KAKO 271600Z AUTO VRB04KT 10SM CLR 18/11 A2982 4810 62 6300 VRB/04 RMK AO2 T01830111                                                               
24015KAKO AKO20190527090510905/27/19 09:05:31  5-MIN KAKO 271605Z AUTO VRB04KT 10SM CLR 18/11 A2982 4810 62 6300 VRB/04 RMK AO2 T01830111                                                               
24015KAKO AKO20190527091510905/27/19 09:15:31  5-MIN KAKO 271615Z AUTO VRB03KT 10SM CLR 19/11 A2981 4820 58 6400 VRB/03 RMK AO2 T01890106                                                               
24015KAKO AKO20190527101011205/27/19 10:10:31  5-MIN KAKO 271710Z AUTO VRB05KT 10SM FEW033 19/12 A2981 4820 60 6500 VRB/05 RMK AO2 T01940117                                                            
24015KAKO AKO20190527102510905/27/19 10:25:31  5-MIN KAKO 271725Z AUTO VRB04KT 10SM CLR 21/12 A2980 4830 56 6600 VRB/04 RMK AO2 T02060117                                                               
24015KAKO AKO20190527183016205/27/19 18:30:31  5-MIN KAKO 280130Z AUTO VRB03G16KT 10SM FEW050 SCT085 BKN110 14/10 A2970 4920 74 6000 VRB/03G16 RMK AO2 PK WND 02030/0112 RAE23 P0000 T01440100          
24015KAKO AKO20190527183516705/27/19 18:35:31  5-MIN KAKO 280135Z AUTO VRB04KT 10SM FEW048 SCT090 SCT120 14/09 A2969 4930 72 6000 VRB/04 RMK AO2 PK WND 02030/0112 LTG DSNT N RAE23 P0000 T01440094     
24015KAKO AKO20190528171512305/28/19 17:15:31  5-MIN KAKO 290015Z AUTO VRB04KT 10SM FEW029 12/06 A2980 4830 68 5600 VRB/04 RMK AO2 LTG DSNT S T01170061                                                 
24015KAKO AKO20190530095012205/30/19 09:50:31  5-MIN KAKO 301650Z AUTO VRB05G14KT 10SM CLR 18/04 A3012 4530 39 5900 VRB/05G14 RMK AO2 SLP170 T01780039                                                  
24015KAKO AKO20190530102010905/30/19 10:20:31  5-MIN KAKO 301720Z AUTO VRB06KT 10SM CLR 18/05 A3012 4530 41 6000 VRB/06 RMK AO2 T01830050                                                               
24015KAKO AKO20190530104010905/30/19 10:40:31  5-MIN KAKO 301740Z AUTO 00000KT 10SM CLR 18/04 A3013 4530 39 6000 000/00 RMK AO2 T01830044                                                               
24015KAKO AKO20190530105013405/30/19 10:50:31  5-MIN KAKO 301750Z AUTO VRB05KT 10SM CLR 18/05 A3012 4530 41 6000 VRB/05 RMK AO2 SLP171 T01830050 10183 20050 53009                                      
24015KAKO AKO20190530111510905/30/19 11:15:31  5-MIN KAKO 301815Z AUTO VRB03KT 10SM CLR 19/06 A3012 4540 41 6100 VRB/03 RMK AO2 T01890056                                                               
24015KAKO AKO20190530113010905/30/19 11:30:31  5-MIN KAKO 301830Z AUTO VRB03KT 10SM CLR 19/05 A3012 4540 39 6100 VRB/03 RMK AO2 T01890050                                                               
24015KAKO AKO20190530114010905/30/19 11:40:31  5-MIN KAKO 301840Z AUTO VRB03KT 10SM CLR 19/05 A3012 4540 39 6100 VRB/03 RMK AO2 T01890050                                                               
24015KAKO AKO20190530114510905/30/19 11:45:31  5-MIN KAKO 301845Z AUTO VRB03KT 10SM CLR 19/06 A3011 4540 40 6100 VRB/03 RMK AO2 T01940056                                                               
24015KAKO AKO20190530115011605/30/19 11:50:31  5-MIN KAKO 301850Z AUTO VRB03KT 10SM CLR 20/06 A3011 4540 40 6200 VRB/03 RMK AO2 SLP168 T02000061                                                        
24015KAKO AKO20190530120011205/30/19 12:00:31  5-MIN KAKO 301900Z AUTO VRB06KT 10SM FEW060 19/04 A3011 4540 38 6100 VRB/06 RMK AO2 T01890044                                                            
24015KAKO AKO20190530121011205/30/19 12:10:31  5-MIN KAKO 301910Z AUTO VRB03KT 10SM SCT065 19/05 A3011 4540 38 6100 VRB/03 RMK AO2 T01940050                                                            
24015KAKO AKO20190530121511205/30/19 12:15:31  5-MIN KAKO 301915Z AUTO 00000KT 10SM SCT065 20/06 A3011 4540 38 6200 000/00 RMK AO2 T02000056                                                            
24015KAKO AKO20190530122011205/30/19 12:20:31  5-MIN KAKO 301920Z AUTO 00000KT 10SM SCT065 19/05 A3011 4550 38 6100 000/00 RMK AO2 T01940050                                                            
24015KAKO AKO20190530122511205/30/19 12:25:31  5-MIN KAKO 301925Z AUTO 00000KT 10SM FEW065 20/06 A3011 4550 38 6200 000/00 RMK AO2 T02000056                                                            
24015KAKO AKO20190530123511205/30/19 12:35:31  5-MIN KAKO 301935Z AUTO 00000KT 10SM FEW065 19/05 A3011 4550 39 6100 000/00 RMK AO2 T01890050                                                            
24015KAKO AKO20190530130011205/30/19 13:00:31  5-MIN KAKO 302000Z AUTO VRB04KT 10SM FEW065 19/06 A3010 4550 41 6100 VRB/04 RMK AO2 T01890056                                                            
24015KAKO AKO20190530130511205/30/19 13:05:31  5-MIN KAKO 302005Z AUTO VRB04KT 10SM FEW070 19/06 A3010 4550 41 6100 VRB/04 RMK AO2 T01890056                                                            
24015KAKO AKO20190530133011205/30/19 13:30:31  5-MIN KAKO 302030Z AUTO 00000KT 10SM FEW075 19/05 A3010 4560 38 6100 000/00 RMK AO2 T01940050                                                            
24015KAKO AKO20190530135510905/30/19 13:55:31  5-MIN KAKO 302055Z AUTO 00000KT 10SM CLR 21/04 A3009 4560 34 6300 000/00 RMK AO2 T02060044                                                               
24015KAKO AKO20190530140010905/30/19 14:00:31  5-MIN KAKO 302100Z AUTO VRB04KT 10SM CLR 21/06 A3009 4560 36 6300 VRB/04 RMK AO2 T02110056                                                               
24015KAKO AKO20190530140510905/30/19 14:05:31  5-MIN KAKO 302105Z AUTO VRB03KT 10SM CLR 21/05 A3009 4560 34 6300 VRB/03 RMK AO2 T02110050                                                               
24015KAKO AKO20190530142011205/30/19 14:20:31  5-MIN KAKO 302120Z AUTO 00000KT 10SM FEW080 21/05 A3008 4570 35 6300 000/00 RMK AO2 T02060050                                                            
24015KAKO AKO20190530142511905/30/19 14:25:31  5-MIN KAKO 302125Z AUTO 00000KT 10SM FEW070 SCT080 21/06 A3008 4570 37 6300 000/00 RMK AO2 T02060056                                                     
24015KAKO AKO20190530143011905/30/19 14:30:31  5-MIN KAKO 302130Z AUTO 00000KT 10SM SCT070 BKN080 21/06 A3008 4570 36 6300 000/00 RMK AO2 T02110056                                                     
24015KAKO AKO20190530143511905/30/19 14:35:31  5-MIN KAKO 302135Z AUTO 00000KT 10SM BKN070 BKN080 21/06 A3008 4570 36 6300 000/00 RMK AO2 T02110056                                                     
24015KAKO AKO20190530144011905/30/19 14:40:31  5-MIN KAKO 302140Z AUTO VRB03KT 10SM BKN070 BKN080 21/06 A3008 4570 37 6300 VRB/03 RMK AO2 T02060056                                                     
24015KAKO AKO20190530152011205/30/19 15:20:31  5-MIN KAKO 302220Z AUTO VRB03KT 10SM BKN070 20/06 A3007 4580 38 6200 VRB/03 RMK AO2 T02000056                                                            
24015KAKO AKO20190530153011205/30/19 15:30:31  5-MIN KAKO 302230Z AUTO 00000KT 10SM SCT080 21/05 A3008 4580 34 6400 000/00 RMK AO2 T02110050                                                            
24015KAKO AKO20190530154011205/30/19 15:40:31  5-MIN KAKO 302240Z AUTO VRB03KT 10SM FEW085 21/05 A3007 4580 34 6400 VRB/03 RMK AO2 T02110050                                                            
24015KAKO AKO20190530154511205/30/19 15:45:31  5-MIN KAKO 302245Z AUTO VRB03KT 10SM FEW085 21/04 A3007 4580 33 6400 VRB/03 RMK AO2 T02110044                                                            
24015KAKO AKO20190530155011905/30/19 15:50:31  5-MIN KAKO 302250Z AUTO 00000KT 10SM FEW085 21/04 A3007 4580 33 6400 000/00 RMK AO2 SLP155 T02110044                                                     
24015KAKO AKO20190530155511205/30/19 15:55:31  5-MIN KAKO 302255Z AUTO 00000KT 10SM FEW085 22/05 A3007 4580 33 6400 000/00 RMK AO2 T02170050                                                            
24015KAKO AKO20190530160011205/30/19 16:00:31  5-MIN KAKO 302300Z AUTO VRB04KT 10SM FEW085 22/04 A3007 4580 32 6400 VRB/04 RMK AO2 T02170044                                                            
24015KAKO AKO20190530160510905/30/19 16:05:31  5-MIN KAKO 302305Z AUTO VRB05KT 10SM CLR 21/04 A3007 4580 33 6400 VRB/05 RMK AO2 T02110044                                                               
24015KAKO AKO20190530162010905/30/19 16:20:31  5-MIN KAKO 302320Z AUTO VRB04KT 10SM CLR 19/05 A3007 4580 38 6200 VRB/04 RMK AO2 T01940050                                                               
24015KAKO AKO20190530163510905/30/19 16:35:31  5-MIN KAKO 302335Z AUTO 00000KT 10SM CLR 19/04 A3007 4580 37 6200 000/00 RMK AO2 T01940044                                                               
24015KAKO AKO20190530164010905/30/19 16:40:31  5-MIN KAKO 302340Z AUTO 00000KT 10SM CLR 20/05 A3007 4580 37 6200 000/00 RMK AO2 T02000050                                                               
24015KAKO AKO20190530164510905/30/19 16:45:31  5-MIN KAKO 302345Z AUTO 00000KT 10SM CLR 21/04 A3007 4580 33 6300 000/00 RMK AO2 T02060039                                                               
24015KAKO AKO20190530171010905/30/19 17:10:31  5-MIN KAKO 310010Z AUTO VRB03KT 10SM CLR 20/04 A3007 4580 34 6200 VRB/03 RMK AO2 T02000039                                                               
24015KAKO AKO20190530171510905/30/19 17:15:31  5-MIN KAKO 310015Z AUTO 00000KT 10SM CLR 21/03 A3007 4580 32 6300 000/00 RMK AO2 T02060033                                                               
24015KAKO AKO20190530185510905/30/19 18:55:31  5-MIN KAKO 310155Z AUTO 00000KT 10SM CLR 17/07 A3008 4570 49 5900 000/00 RMK AO2 T01720067                                                               
24015KAKO AKO20190530190010905/30/19 19:00:31  5-MIN KAKO 310200Z AUTO 00000KT 10SM CLR 18/07 A3008 4570 48 6000 000/00 RMK AO2 T01780067                                                               
24015KAKO AKO20190530190510905/30/19 19:05:31  5-MIN KAKO 310205Z AUTO 00000KT 10SM CLR 18/07 A3008 4570 48 6000 000/00 RMK AO2 T01780067                                                               
24015KAKO AKO20190530191010905/30/19 19:10:31  5-MIN KAKO 310210Z AUTO 00000KT 10SM CLR 18/07 A3008 4570 48 6000 000/00 RMK AO2 T01780067                                                               
24015KAKO AKO20190530191510905/30/19 19:15:31  5-MIN KAKO 310215Z AUTO 00000KT 10SM CLR 18/06 A3008 4570 46 6000 000/00 RMK AO2 T01780061                                                               
24015KAKO AKO20190530192010905/30/19 19:20:31  5-MIN KAKO 310220Z AUTO 00000KT 10SM CLR 16/07 A3008 4570 55 5800 000/00 RMK AO2 T01610072                                                               
24015KAKO AKO20190530192510905/30/19 19:25:31  5-MIN KAKO 310225Z AUTO 00000KT 10SM CLR 15/07 A3008 4570 57 5700 000/00 RMK AO2 T01500067                                                               
24015KAKO AKO20190531113510905/31/19 11:35:31  5-MIN KAKO 311835Z AUTO VRB04KT 10SM CLR 23/06 A3007 4580 32 6600 VRB/04 RMK AO2 T02330061                                                               
24015KAKO AKO20190531114511505/31/19 11:45:31  5-MIN KAKO 311845Z AUTO VRB04G15KT 10SM CLR 23/06 A3007 4580 31 6600 VRB/04G15 RMK AO2 T02330056                                                         
24015KAKO AKO20190531115510905/31/19 11:55:31  5-MIN KAKO 311855Z AUTO VRB04KT 10SM CLR 24/06 A3007 4580 30 6700 VRB/04 RMK AO2 T02390056                                                               
24015KAKO AKO20190531121011505/31/19 12:10:31  5-MIN KAKO 311910Z AUTO VRB03G16KT 10SM CLR 24/06 A3006 4590 30 6700 VRB/03G16 RMK AO2 T02390056                                                         
24015KAKO AKO20190531125011605/31/19 12:50:31  5-MIN KAKO 311950Z AUTO VRB04KT 10SM CLR 24/06 A3005 4600 29 6700 VRB/04 RMK AO2 SLP132 T02440056                                                        
24015KAKO AKO20190531132510905/31/19 13:25:31  5-MIN KAKO 312025Z AUTO VRB03KT 10SM CLR 24/04 A3004 4610 27 6800 VRB/03 RMK AO2 T02440044                                                               
24015KAKO AKO20190531135510905/31/19 13:55:31  5-MIN KAKO 312055Z AUTO VRB06KT 10SM CLR 26/04 A3003 4610 25 6900 VRB/06 RMK AO2 T02560044                                                               
24015KAKO AKO20190531141010905/31/19 14:10:31  5-MIN KAKO 312110Z AUTO VRB06KT 10SM CLR 25/04 A3003 4620 25 6800 VRB/06 RMK AO2 T02500039                                                               
24015KAKO AKO20190531144510905/31/19 14:45:31  5-MIN KAKO 312145Z AUTO VRB04KT 10SM CLR 25/04 A3002 4620 25 6800 VRB/04 RMK AO2 T02500039                                                               
24015KAKO AKO20190531145511205/31/19 14:55:31  5-MIN KAKO 312155Z AUTO VRB04KT 10SM FEW095 26/04 A3002 4630 25 6900 VRB/04 RMK AO2 T02560044                                                            
24015KAKO AKO20190531151510905/31/19 15:15:31  5-MIN KAKO 312215Z AUTO VRB04KT 10SM CLR 25/04 A3002 4630 25 6800 VRB/04 RMK AO2 T02500039                                                               
24015KAKO AKO20190531160011205/31/19 16:00:31  5-MIN KAKO 312300Z AUTO VRB03KT 10SM FEW100 26/04 A3001 4630 24 6900 VRB/03 RMK AO2 T02560039                                                            
24015KAKO AKO20190531164011205/31/19 16:40:31  5-MIN KAKO 312340Z AUTO VRB03KT 10SM FEW100 25/04 A3001 4630 25 6900 VRB/03 RMK AO2 T02500039                                                            
24015KAKO AKO20190531164511205/31/19 16:45:31  5-MIN KAKO 312345Z AUTO 00000KT 10SM SCT100 25/04 A3001 4630 26 6900 000/00 RMK AO2 T02500044                                                            
24015KAKO AKO20190531202515005/31/19 20:25:31  5-MIN KAKO 010325Z AUTO VRB04G23KT 10SM FEW070 SCT085 BKN110 22/02 A3006 4590 26 6500 VRB/04G23 RMK AO2 PK WND 30028/0314 T02220022                      
24015KAKO AKO20190531203014405/31/19 20:30:31  5-MIN KAKO 010330Z AUTO 00000KT 10SM FEW070 FEW090 OVC110 22/02 A3006 4590 26 6500 000/00 RMK AO2 PK WND 30028/0314 T02220022                            
24015KAKO AKO20190601020010906/01/19 02:00:31  5-MIN KAKO 010900Z AUTO 00000KT 10SM CLR 11/07 A3010 4550 80 5100 000/00 RMK AO2 T01060072                                                               
24015KAKO AKO20190601030010906/01/19 03:00:31  5-MIN KAKO 011000Z AUTO 00000KT 10SM CLR 09/07 A3011 4550 83 5000 000/00 RMK AO2 T00940067                                                               
24015KAKO AKO20190601030510906/01/19 03:05:31  5-MIN KAKO 011005Z AUTO 00000KT 10SM CLR 10/07 A3011 4550 80 5100 000/00 RMK AO2 T01000067                                                               
24015KAKO AKO20190601031010906/01/19 03:10:31  5-MIN KAKO 011010Z AUTO 00000KT 10SM CLR 10/07 A3011 4550 80 5100 000/00 RMK AO2 T01000067                                                               
24015KAKO AKO20190601031510906/01/19 03:15:31  5-MIN KAKO 011015Z AUTO 00000KT 10SM CLR 09/07 A3010 4550 83 5000 000/00 RMK AO2 T00940067                                                               
24015KAKO AKO20190601032010906/01/19 03:20:31  5-MIN KAKO 011020Z AUTO 00000KT 10SM CLR 10/07 A3010 4550 80 5100 000/00 RMK AO2 T01000067                                                               
24015KAKO AKO20190601032510906/01/19 03:25:31  5-MIN KAKO 011025Z AUTO 00000KT 10SM CLR 09/07 A3010 4550 83 5000 000/00 RMK AO2 T00940067                                                               
24015KAKO AKO20190601033510906/01/19 03:35:31  5-MIN KAKO 011035Z AUTO 00000KT 10SM CLR 09/06 A3010 4550 83 4900 000/00 RMK AO2 T00890061                                                               
24015KAKO AKO20190601081010906/01/19 08:10:31  5-MIN KAKO 011510Z AUTO 00000KT 10SM CLR 18/08 A3014 4520 53 5900 000/00 RMK AO2 T01780083                                                               
24015KAKO AKO20190601081510906/01/19 08:15:31  5-MIN KAKO 011515Z AUTO 00000KT 10SM CLR 18/08 A3014 4520 52 6000 000/00 RMK AO2 T01830083                                                               
24015KAKO AKO20190601083010906/01/19 08:30:31  5-MIN KAKO 011530Z AUTO VRB03KT 10SM CLR 18/08 A3014 4520 52 6000 VRB/03 RMK AO2 T01830083                                                               
24015KAKO AKO20190601083510906/01/19 08:35:31  5-MIN KAKO 011535Z AUTO 00000KT 10SM CLR 18/08 A3014 4520 52 6000 000/00 RMK AO2 T01830083                                                               
24015KAKO AKO20190601090510906/01/19 09:05:31  5-MIN KAKO 011605Z AUTO 00000KT 10SM CLR 19/07 A3013 4520 44 6100 000/00 RMK AO2 T01940072                                                               
24015KAKO AKO20190601091010906/01/19 09:10:31  5-MIN KAKO 011610Z AUTO VRB03KT 10SM CLR 19/07 A3013 4520 44 6100 VRB/03 RMK AO2 T01940072                                                               
24015KAKO AKO20190601091510906/01/19 09:15:31  5-MIN KAKO 011615Z AUTO VRB03KT 10SM CLR 19/07 A3013 4520 44 6100 VRB/03 RMK AO2 T01940072                                                               
24015KAKO AKO20190601092010906/01/19 09:20:31  5-MIN KAKO 011620Z AUTO VRB03KT 10SM CLR 19/08 A3013 4520 46 6100 VRB/03 RMK AO2 T01940078                                                               
24015KAKO AKO20190601092510906/01/19 09:25:31  5-MIN KAKO 011625Z AUTO VRB04KT 10SM CLR 20/08 A3013 4530 46 6200 VRB/04 RMK AO2 T02000083                                                               
24015KAKO AKO20190601094510906/01/19 09:45:31  5-MIN KAKO 011645Z AUTO VRB03KT 10SM CLR 20/08 A3014 4520 46 6200 VRB/03 RMK AO2 T02000083                                                               
24015KAKO AKO20190601095510906/01/19 09:55:31  5-MIN KAKO 011655Z AUTO VRB04KT 10SM CLR 20/08 A3014 4520 45 6200 VRB/04 RMK AO2 T02000078                                                               
24015KAKO AKO20190601100010906/01/19 10:00:31  5-MIN KAKO 011700Z AUTO 00000KT 10SM CLR 21/08 A3013 4520 45 6200 000/00 RMK AO2 T02060083                                                               
24015KAKO AKO20190601101010906/01/19 10:10:31  5-MIN KAKO 011710Z AUTO VRB05KT 10SM CLR 21/08 A3013 4520 43 6300 VRB/05 RMK AO2 T02110083                                                               
24015KAKO AKO20190601102010906/01/19 10:20:31  5-MIN KAKO 011720Z AUTO 00000KT 10SM CLR 21/08 A3013 4520 43 6300 000/00 RMK AO2 T02110083                                                               
24015KAKO AKO20190601112010906/01/19 11:20:31  5-MIN KAKO 011820Z AUTO VRB06KT 10SM CLR 22/08 A3011 4540 40 6400 VRB/06 RMK AO2 T02220083                                                               
24015KAKO AKO20190601121010906/01/19 12:10:31  5-MIN KAKO 011910Z AUTO VRB05KT 10SM CLR 23/09 A3009 4560 40 6500 VRB/05 RMK AO2 T02280089                                                               
24015KAKO AKO20190601123011506/01/19 12:30:31  5-MIN KAKO 011930Z AUTO VRB05G15KT 10SM CLR 23/08 A3009 4560 39 6500 VRB/05G15 RMK AO2 T02280083                                                         
24015KAKO AKO20190601123510906/01/19 12:35:31  5-MIN KAKO 011935Z AUTO VRB04KT 10SM CLR 23/09 A3009 4560 40 6500 VRB/04 RMK AO2 T02280089                                                               
24015KAKO AKO20190601132011506/01/19 13:20:31  5-MIN KAKO 012020Z AUTO VRB05G16KT 10SM CLR 23/09 A3007 4580 41 6600 VRB/05G16 RMK AO2 T02330094                                                         
24015KAKO AKO20190603094510906/03/19 09:45:31  5-MIN KAKO 031645Z AUTO VRB05KT 10SM CLR 23/11 A2999 4650 47 6600 VRB/05 RMK AO2 T02280111                                                               
24015KAKO AKO20190603100510906/03/19 10:05:31  5-MIN KAKO 031705Z AUTO VRB04KT 10SM CLR 23/11 A2999 4650 45 6700 VRB/04 RMK AO2 T02330111                                                               
24015KAKO AKO20190603101010906/03/19 10:10:31  5-MIN KAKO 031710Z AUTO VRB03KT 10SM CLR 23/11 A2999 4650 45 6700 VRB/03 RMK AO2 T02330111                                                               
24015KAKO AKO20190603101510906/03/19 10:15:31  5-MIN KAKO 031715Z AUTO VRB03KT 10SM CLR 23/11 A2999 4650 45 6700 VRB/03 RMK AO2 T02330111                                                               
24015KAKO AKO20190603103010906/03/19 10:30:31  5-MIN KAKO 031730Z AUTO VRB06KT 10SM CLR 24/11 A2999 4660 44 6800 VRB/06 RMK AO2 T02390111                                                               
24015KAKO AKO20190603104010906/03/19 10:40:31  5-MIN KAKO 031740Z AUTO VRB05KT 10SM CLR 24/11 A2999 4660 42 6800 VRB/05 RMK AO2 T02440111                                                               
24015KAKO AKO20190603104510906/03/19 10:45:31  5-MIN KAKO 031745Z AUTO 00000KT 10SM CLR 24/11 A2999 4660 42 6800 000/00 RMK AO2 T02440111                                                               
24015KAKO AKO20190603110510906/03/19 11:05:31  5-MIN KAKO 031805Z AUTO VRB05KT 10SM CLR 25/12 A2998 4660 44 6900 VRB/05 RMK AO2 T02500122                                                               
24015KAKO AKO20190603111510906/03/19 11:15:31  5-MIN KAKO 031815Z AUTO VRB03KT 10SM CLR 25/11 A2998 4660 41 6900 VRB/03 RMK AO2 T02500111                                                               
24015KAKO AKO20190603112010906/03/19 11:20:31  5-MIN KAKO 031820Z AUTO VRB05KT 10SM CLR 26/12 A2998 4660 41 6900 VRB/05 RMK AO2 T02560117                                                               
24015KAKO AKO20190603113010906/03/19 11:30:31  5-MIN KAKO 031830Z AUTO 00000KT 10SM CLR 26/11 A2998 4660 38 6900 000/00 RMK AO2 T02560106                                                               
24015KAKO AKO20190603113510906/03/19 11:35:31  5-MIN KAKO 031835Z AUTO VRB03KT 10SM CLR 26/11 A2998 4670 40 6900 VRB/03 RMK AO2 T02560111                                                               
24015KAKO AKO20190603114010906/03/19 11:40:31  5-MIN KAKO 031840Z AUTO VRB06KT 10SM CLR 25/11 A2998 4670 41 6900 VRB/06 RMK AO2 T02500111                                                               
24015KAKO AKO20190603120010906/03/19 12:00:31  5-MIN KAKO 031900Z AUTO VRB05KT 10SM CLR 26/12 A2997 4670 40 7000 VRB/05 RMK AO2 T02610117                                                               
24015KAKO AKO20190603134010906/03/19 13:40:31  5-MIN KAKO 032040Z AUTO VRB04KT 10SM CLR 26/09 A2995 4690 34 7000 VRB/04 RMK AO2 T02610094                                                               
24015KAKO AKO20190603140010906/03/19 14:00:31  5-MIN KAKO 032100Z AUTO 00000KT 10SM CLR 26/11 A2995 4690 37 7000 000/00 RMK AO2 T02610106                                                               
24015KAKO AKO20190603145011606/03/19 14:50:31  5-MIN KAKO 032150Z AUTO 00000KT 10SM CLR 26/10 A2994 4700 36 7100 000/00 RMK AO2 SLP088 T02610100                                                        
24015KAKO AKO20190603150010906/03/19 15:00:31  5-MIN KAKO 032200Z AUTO 00000KT 10SM CLR 26/10 A2994 4700 36 7100 000/00 RMK AO2 T02610100                                                               
24015KAKO AKO20190603211010906/03/19 21:10:31  5-MIN KAKO 040410Z AUTO 00000KT 10SM CLR 13/08 A3003 4620 71 5500 000/00 RMK AO2 T01280078                                                               
24015KAKO AKO20190603211510906/03/19 21:15:31  5-MIN KAKO 040415Z AUTO 00000KT 10SM CLR 12/08 A3003 4620 74 5400 000/00 RMK AO2 T01220078                                                               
24015KAKO AKO20190603212010906/03/19 21:20:31  5-MIN KAKO 040420Z AUTO 00000KT 10SM CLR 12/07 A3002 4620 71 5400 000/00 RMK AO2 T01220072                                                               
24015KAKO AKO20190603212510906/03/19 21:25:31  5-MIN KAKO 040425Z AUTO 00000KT 10SM CLR 12/08 A3002 4630 74 5400 000/00 RMK AO2 T01220078                                                               
24015KAKO AKO20190603213010906/03/19 21:30:31  5-MIN KAKO 040430Z AUTO 00000KT 10SM CLR 13/08 A3002 4630 69 5500 000/00 RMK AO2 T01330078                                                               
24015KAKO AKO20190603213510906/03/19 21:35:31  5-MIN KAKO 040435Z AUTO 00000KT 10SM CLR 13/08 A3001 4630 69 5500 000/00 RMK AO2 T01330078                                                               
24015KAKO AKO20190603214010906/03/19 21:40:31  5-MIN KAKO 040440Z AUTO 00000KT 10SM CLR 14/08 A3001 4630 66 5600 000/00 RMK AO2 T01390078                                                               
24015KAKO AKO20190603214510906/03/19 21:45:31  5-MIN KAKO 040445Z AUTO 00000KT 10SM CLR 14/08 A3001 4640 66 5600 000/00 RMK AO2 T01390078                                                               
24015KAKO AKO20190603215011606/03/19 21:50:31  5-MIN KAKO 040450Z AUTO 00000KT 10SM CLR 13/08 A3001 4640 69 5500 000/00 RMK AO2 SLP116 T01330078                                                        
24015KAKO AKO20190603215510906/03/19 21:55:31  5-MIN KAKO 040455Z AUTO 00000KT 10SM CLR 13/08 A3001 4630 71 5500 000/00 RMK AO2 T01280078                                                               
24015KAKO AKO20190603220010906/03/19 22:00:31  5-MIN KAKO 040500Z AUTO 00000KT 10SM CLR 13/08 A3001 4640 71 5500 000/00 RMK AO2 T01280078                                                               
24015KAKO AKO20190604154512906/04/19 15:45:31  5-MIN KAKO 042245Z AUTO VRB05G18KT 10SM FEW095 27/08 A2997 4680 30 7100 VRB/05G18 RMK AO2 LTG DSNT S T02720083                                           
24015KAKO AKO20190604160011206/04/19 16:00:31  5-MIN KAKO 042300Z AUTO VRB04KT 10SM SCT090 27/08 A2997 4670 29 7100 VRB/04 RMK AO2 T02720078                                                            
24015KAKO AKO20190604160511206/04/19 16:05:31  5-MIN KAKO 042305Z AUTO 00000KT 10SM BKN085 27/08 A2997 4670 30 7100 000/00 RMK AO2 T02720083                                                            
24015KAKO AKO20190604165512206/04/19 16:55:31  5-MIN KAKO 042355Z AUTO 00000KT 10SM TS SCT090 BKN110 24/11 A2998 4660 41 6800 000/00 RMK AO2 T02440106                                                  
24015KAKO AKO20190604170012206/04/19 17:00:31  5-MIN KAKO 050000Z AUTO 00000KT 10SM TS BKN090 BKN110 26/09 A2998 4660 35 6900 000/00 RMK AO2 T02560094                                                  
24015KAKO AKO20190604213510906/04/19 21:35:31  5-MIN KAKO 050435Z AUTO 00000KT 10SM CLR 13/10 A3007 4580 80 5500 000/00 RMK AO2 T01330100                                                               
24015KAKO AKO20190605090010906/05/19 09:00:31  5-MIN KAKO 051600Z AUTO VRB04KT 10SM CLR 22/09 A3009 4570 45 6400 VRB/04 RMK AO2 T02170094                                                               
24015KAKO AKO20190605092510906/05/19 09:25:31  5-MIN KAKO 051625Z AUTO VRB03KT 10SM CLR 23/10 A3008 4570 44 6500 VRB/03 RMK AO2 T02280100                                                               
24015KAKO AKO20190605094010906/05/19 09:40:31  5-MIN KAKO 051640Z AUTO VRB05KT 10SM CLR 23/11 A3008 4570 45 6500 VRB/05 RMK AO2 T02280106                                                               
24015KAKO AKO20190605095011606/05/19 09:50:31  5-MIN KAKO 051650Z AUTO VRB05KT 10SM CLR 23/10 A3009 4570 44 6500 VRB/05 RMK AO2 SLP143 T02280100                                                        
24015KAKO AKO20190605100010906/05/19 10:00:31  5-MIN KAKO 051700Z AUTO VRB03KT 10SM CLR 22/10 A3008 4570 45 6500 VRB/03 RMK AO2 T02220100                                                               
24015KAKO AKO20190605101510906/05/19 10:15:31  5-MIN KAKO 051715Z AUTO VRB03KT 10SM CLR 23/11 A3008 4570 45 6500 VRB/03 RMK AO2 T02280106                                                               
24015KAKO AKO20190605103010906/05/19 10:30:31  5-MIN KAKO 051730Z AUTO VRB06KT 10SM CLR 24/12 A3008 4570 47 6700 VRB/06 RMK AO2 T02390122                                                               
24015KAKO AKO20190605104510906/05/19 10:45:31  5-MIN KAKO 051745Z AUTO VRB03KT 10SM CLR 23/11 A3007 4580 44 6600 VRB/03 RMK AO2 T02330106                                                               
24015KAKO AKO20190605105013406/05/19 10:50:31  5-MIN KAKO 051750Z AUTO 00000KT 10SM CLR 24/11 A3007 4580 42 6700 000/00 RMK AO2 SLP136 T02390106 10239 20117 50004                                      
24015KAKO AKO20190605110510906/05/19 11:05:31  5-MIN KAKO 051805Z AUTO VRB04KT 10SM CLR 24/11 A3007 4580 41 6700 VRB/04 RMK AO2 T02440106                                                               
24015KAKO AKO20190605111010906/05/19 11:10:31  5-MIN KAKO 051810Z AUTO VRB06KT 10SM CLR 24/10 A3007 4580 39 6700 VRB/06 RMK AO2 T02440100                                                               
24015KAKO AKO20190605111510906/05/19 11:15:31  5-MIN KAKO 051815Z AUTO VRB06KT 10SM CLR 24/11 A3007 4580 41 6700 VRB/06 RMK AO2 T02440106                                                               
24015KAKO AKO20190605112510906/05/19 11:25:31  5-MIN KAKO 051825Z AUTO VRB05KT 10SM CLR 25/11 A3006 4590 41 6800 VRB/05 RMK AO2 T02500111                                                               
24015KAKO AKO20190605114010906/05/19 11:40:31  5-MIN KAKO 051840Z AUTO VRB05KT 10SM CLR 24/09 A3006 4590 38 6700 VRB/05 RMK AO2 T02440094                                                               
24015KAKO AKO20190605122511206/05/19 12:25:31  5-MIN KAKO 051925Z AUTO VRB04KT 10SM SCT070 25/09 A3005 4600 37 6800 VRB/04 RMK AO2 T02500094                                                            
24015KAKO AKO20190605124511806/05/19 12:45:31  5-MIN KAKO 051945Z AUTO VRB04G15KT 10SM FEW070 26/09 A3005 4600 34 6900 VRB/04G15 RMK AO2 T02560089                                                      
24015KAKO AKO20190605130010906/05/19 13:00:31  5-MIN KAKO 052000Z AUTO VRB05KT 10SM CLR 26/09 A3004 4610 34 6900 VRB/05 RMK AO2 T02560089                                                               
24015KAKO AKO20190605133011206/05/19 13:30:31  5-MIN KAKO 052030Z AUTO VRB03KT 10SM SCT070 26/09 A3004 4610 34 6900 VRB/03 RMK AO2 T02560089                                                            
24015KAKO AKO20190605140511206/05/19 14:05:31  5-MIN KAKO 052105Z AUTO VRB04KT 10SM SCT075 26/09 A3004 4610 33 6900 VRB/04 RMK AO2 T02610089                                                            
24015KAKO AKO20190605142511206/05/19 14:25:31  5-MIN KAKO 052125Z AUTO 00000KT 10SM SCT075 26/09 A3004 4610 34 6900 000/00 RMK AO2 T02560089                                                            
24015KAKO AKO20190605143011206/05/19 14:30:31  5-MIN KAKO 052130Z AUTO VRB03KT 10SM BKN080 26/09 A3003 4610 34 6900 VRB/03 RMK AO2 T02560089                                                            
24015KAKO AKO20190605153010906/05/19 15:30:31  5-MIN KAKO 052230Z AUTO VRB06KT 10SM CLR 26/08 A3002 4630 32 6900 VRB/06 RMK AO2 T02560078                                                               
24015KAKO AKO20190605154010906/05/19 15:40:31  5-MIN KAKO 052240Z AUTO VRB06KT 10SM CLR 26/08 A3002 4630 32 7000 VRB/06 RMK AO2 T02610083                                                               
24015KAKO AKO20190605231510906/05/19 23:15:31  5-MIN KAKO 060615Z AUTO 00000KT 10SM CLR 16/09 A3005 4600 67 5800 000/00 RMK AO2 T01560094                                                               
24015KAKO AKO20190605233010906/05/19 23:30:31  5-MIN KAKO 060630Z AUTO 00000KT 10SM CLR 14/09 A3005 4600 72 5600 000/00 RMK AO2 T01440094                                                               
24015KAKO AKO20190605233510906/05/19 23:35:31  5-MIN KAKO 060635Z AUTO 00000KT 10SM CLR 13/09 A3004 4610 80 5400 000/00 RMK AO2 T01280094                                                               
24015KAKO AKO20190606080010906/06/19 08:00:31  5-MIN KAKO 061500Z AUTO VRB03KT 10SM CLR 21/11 A3005 4600 54 6300 VRB/03 RMK AO2 T02060111                                                               
24015KAKO AKO20190606081510906/06/19 08:15:31  5-MIN KAKO 061515Z AUTO VRB03KT 10SM CLR 21/12 A3005 4600 54 6400 VRB/03 RMK AO2 T02110117                                                               
24015KAKO AKO20190606082510906/06/19 08:25:31  5-MIN KAKO 061525Z AUTO VRB03KT 10SM CLR 21/12 A3005 4600 54 6400 VRB/03 RMK AO2 T02110117                                                               
24015KAKO AKO20190606083010906/06/19 08:30:31  5-MIN KAKO 061530Z AUTO VRB03KT 10SM CLR 22/12 A3005 4600 52 6400 VRB/03 RMK AO2 T02170117                                                               
24015KAKO AKO20190606090510906/06/19 09:05:31  5-MIN KAKO 061605Z AUTO VRB04KT 10SM CLR 23/12 A3004 4610 49 6600 VRB/04 RMK AO2 T02280117                                                               
24015KAKO AKO20190606092010906/06/19 09:20:31  5-MIN KAKO 061620Z AUTO VRB06KT 10SM CLR 24/12 A3004 4610 47 6700 VRB/06 RMK AO2 T02390122                                                               
24015KAKO AKO20190606093510906/06/19 09:35:31  5-MIN KAKO 061635Z AUTO VRB06KT 10SM CLR 24/11 A3004 4610 44 6700 VRB/06 RMK AO2 T02390111                                                               
24015KAKO AKO20190606094510906/06/19 09:45:31  5-MIN KAKO 061645Z AUTO VRB06KT 10SM CLR 24/11 A3004 4610 42 6700 VRB/06 RMK AO2 T02390106                                                               
24015KAKO AKO20190606095011606/06/19 09:50:31  5-MIN KAKO 061650Z AUTO 00000KT 10SM CLR 24/09 A3004 4610 38 6700 000/00 RMK AO2 SLP120 T02390089                                                        
24015KAKO AKO20190606095510906/06/19 09:55:31  5-MIN KAKO 061655Z AUTO VRB03KT 10SM CLR 24/09 A3004 4610 39 6700 VRB/03 RMK AO2 T02390094                                                               
24015KAKO AKO20190606102511206/06/19 10:25:31  5-MIN KAKO 061725Z AUTO 00000KT 10SM FEW065 24/09 A3004 4610 36 6800 000/00 RMK AO2 T02440089                                                            
24015KAKO AKO20190606104511206/06/19 10:45:31  5-MIN KAKO 061745Z AUTO VRB03KT 10SM FEW065 25/08 A3004 4610 34 6800 VRB/03 RMK AO2 T02500083                                                            
24015KAKO AKO20190606105013706/06/19 10:50:31  5-MIN KAKO 061750Z AUTO 00000KT 10SM FEW070 25/08 A3004 4610 34 6800 000/00 RMK AO2 SLP116 T02500083 10256 20122 51005                                   
24015KAKO AKO20190606110011206/06/19 11:00:31  5-MIN KAKO 061800Z AUTO 00000KT 10SM FEW070 26/09 A3004 4610 34 6900 000/00 RMK AO2 T02560089                                                            
24015KAKO AKO20190606112511206/06/19 11:25:31  5-MIN KAKO 061825Z AUTO VRB05KT 10SM FEW070 26/08 A3003 4620 32 6900 VRB/05 RMK AO2 T02610083                                                            
24015KAKO AKO20190606114011206/06/19 11:40:31  5-MIN KAKO 061840Z AUTO VRB04KT 10SM FEW070 26/08 A3003 4620 32 7000 VRB/04 RMK AO2 T02610083                                                            
24015KAKO AKO20190606114510906/06/19 11:45:31  5-MIN KAKO 061845Z AUTO VRB03KT 10SM CLR 26/08 A3003 4620 31 7000 VRB/03 RMK AO2 T02610078                                                               
24015KAKO AKO20190606115510906/06/19 11:55:31  5-MIN KAKO 061855Z AUTO 00000KT 10SM CLR 26/07 A3003 4620 28 7000 000/00 RMK AO2 T02610067                                                               
24015KAKO AKO20190606121511206/06/19 12:15:31  5-MIN KAKO 061915Z AUTO VRB04KT 10SM FEW080 26/08 A3002 4620 33 6900 VRB/04 RMK AO2 T02560083                                                            
24015KAKO AKO20190606123011206/06/19 12:30:31  5-MIN KAKO 061930Z AUTO 00000KT 10SM FEW080 27/08 A3002 4620 31 7000 000/00 RMK AO2 T02670083                                                            
24015KAKO AKO20190606130011406/06/19 13:00:31  5-MIN KAKO 062000Z AUTO VRB04G16KT 9SM CLR 27/08 A3002 4630 31 7000 VRB/04G16 RMK AO2 T02670083                                                          
24015KAKO AKO20190606130510906/06/19 13:05:31  5-MIN KAKO 062005Z AUTO VRB05KT 10SM CLR 27/08 A3001 4630 31 7000 VRB/05 RMK AO2 T02670083                                                               
24015KAKO AKO20190607202016806/07/19 20:20:31  5-MIN KAKO 080320Z AUTO VRB03KT 10SM BKN110 19/09 A2989 4740 52 6400 VRB/03 RMK AO2 PK WND 13029/0255 WSHFT 0243 LTG DSNT NE-SE RAE06 P0000 T01940094    
24015KAKO AKO20190607205015606/07/19 20:50:31  5-MIN KAKO 080350Z AUTO 00000KT 10SM CLR 19/10 A2991 4730 54 6400 000/00 RMK AO2 PK WND 13029/0255 WSHFT 0243 RAE06 SLPNO P0000 T01940100                
24015KAKO AKO20190611214011906/11/19 21:40:31  5-MIN KAKO 120440Z AUTO 00000KT 10SM FEW070 OVC095 12/10 A3029 4380 86 5100 000/00 RMK AO2 T01220100                                                     
24015KAKO AKO20190611214511206/11/19 21:45:31  5-MIN KAKO 120445Z AUTO 00000KT 10SM OVC095 12/10 A3030 4370 86 5100 000/00 RMK AO2 T01220100                                                            
24015KAKO AKO20190612133511206/12/19 13:35:31  5-MIN KAKO 122035Z AUTO VRB06KT 10SM FEW065 21/04 A3026 4410 34 6100 VRB/06 RMK AO2 T02060044                                                            
24015KAKO AKO20190612135012506/12/19 13:50:31  5-MIN KAKO 122050Z AUTO VRB05KT 10SM SCT065 21/04 A3026 4410 33 6100 VRB/05 RMK AO2 SLP212 T02110044 58013                                               
24015KAKO AKO20190612145011606/12/19 14:50:31  5-MIN KAKO 122150Z AUTO VRB04KT 10SM CLR 21/04 A3024 4420 34 6100 VRB/04 RMK AO2 SLP205 T02060044                                                        
24015KAKO AKO20190612145510906/12/19 14:55:31  5-MIN KAKO 122155Z AUTO VRB06KT 10SM CLR 20/04 A3024 4420 35 6000 VRB/06 RMK AO2 T02000044                                                               
24015KAKO AKO20190612150010906/12/19 15:00:31  5-MIN KAKO 122200Z AUTO VRB03KT 10SM CLR 21/04 A3024 4430 33 6200 VRB/03 RMK AO2 T02110044                                                               
24015KAKO AKO20190612151010906/12/19 15:10:31  5-MIN KAKO 122210Z AUTO 00000KT 10SM CLR 21/04 A3023 4430 32 6200 000/00 RMK AO2 T02110039                                                               
24015KAKO AKO20190612153010906/12/19 15:30:31  5-MIN KAKO 122230Z AUTO VRB03KT 10SM CLR 21/04 A3023 4440 33 6200 VRB/03 RMK AO2 T02110044                                                               
24015KAKO AKO20190612164510906/12/19 16:45:31  5-MIN KAKO 122345Z AUTO VRB03KT 10SM CLR 22/04 A3020 4460 31 6300 VRB/03 RMK AO2 T02170039                                                               
24015KAKO AKO20190612172010906/12/19 17:20:31  5-MIN KAKO 130020Z AUTO 00000KT 10SM CLR 21/04 A3020 4460 32 6200 000/00 RMK AO2 T02110039                                                               
24015KAKO AKO20190612180010906/12/19 18:00:31  5-MIN KAKO 130100Z AUTO 00000KT 10SM CLR 21/04 A3020 4460 33 6200 000/00 RMK AO2 T02060039                                                               
24015KAKO AKO20190612181010906/12/19 18:10:31  5-MIN KAKO 130110Z AUTO 00000KT 10SM CLR 21/04 A3020 4460 34 6200 000/00 RMK AO2 T02060044                                                               
24015KAKO AKO20190613110010906/13/19 11:00:31  5-MIN KAKO 131800Z AUTO VRB06KT 10SM CLR 27/08 A3000 4650 29 7000 VRB/06 RMK AO2 T02670078                                                               
24015KAKO AKO20190613111010906/13/19 11:10:31  5-MIN KAKO 131810Z AUTO VRB04KT 10SM CLR 27/07 A2999 4650 28 7100 VRB/04 RMK AO2 T02670072                                                               
24015KAKO AKO20190613111510906/13/19 11:15:31  5-MIN KAKO 131815Z AUTO VRB05KT 10SM CLR 27/08 A2999 4650 29 7100 VRB/05 RMK AO2 T02670078                                                               
24015KAKO AKO20190613112010906/13/19 11:20:31  5-MIN KAKO 131820Z AUTO VRB05KT 10SM CLR 27/08 A2999 4660 30 7100 VRB/05 RMK AO2 T02720083                                                               
24015KAKO AKO20190613113510906/13/19 11:35:31  5-MIN KAKO 131835Z AUTO VRB05KT 10SM CLR 27/08 A2998 4660 29 7100 VRB/05 RMK AO2 T02720078                                                               
24015KAKO AKO20190613114510906/13/19 11:45:31  5-MIN KAKO 131845Z AUTO 00000KT 10SM CLR 27/08 A2998 4670 29 7100 000/00 RMK AO2 T02720078                                                               
24015KAKO AKO20190613115011606/13/19 11:50:31  5-MIN KAKO 131850Z AUTO VRB03KT 10SM CLR 27/08 A2997 4670 29 7100 VRB/03 RMK AO2 SLP097 T02720078                                                        
24015KAKO AKO20190613122010906/13/19 12:20:31  5-MIN KAKO 131920Z AUTO 00000KT 10SM CLR 28/08 A2996 4680 28 7200 000/00 RMK AO2 T02780078                                                               
24015KAKO AKO20190613123511206/13/19 12:35:31  5-MIN KAKO 131935Z AUTO VRB03KT 10SM FEW090 28/07 A2996 4680 27 7200 VRB/03 RMK AO2 T02780072                                                            
24015KAKO AKO20190613132510906/13/19 13:25:31  5-MIN KAKO 132025Z AUTO VRB05KT 10SM CLR 28/07 A2993 4710 26 7300 VRB/05 RMK AO2 T02830072                                                               
24015KAKO AKO20190613134510906/13/19 13:45:31  5-MIN KAKO 132045Z AUTO VRB06KT 10SM CLR 29/07 A2993 4710 25 7400 VRB/06 RMK AO2 T02890072                                                               
24015KAKO AKO20190613140011506/13/19 14:00:31  5-MIN KAKO 132100Z AUTO VRB05G17KT 10SM CLR 28/07 A2993 4710 26 7300 VRB/05G17 RMK AO2 T02830072                                                         
24015KAKO AKO20190613143011506/13/19 14:30:31  5-MIN KAKO 132130Z AUTO VRB05G15KT 10SM CLR 29/07 A2991 4730 25 7400 VRB/05G15 RMK AO2 T02890072                                                         
24015KAKO AKO20190613143510906/13/19 14:35:31  5-MIN KAKO 132135Z AUTO 00000KT 10SM CLR 29/07 A2991 4730 25 7400 000/00 RMK AO2 T02890072                                                               
24015KAKO AKO20190613144510906/13/19 14:45:31  5-MIN KAKO 132145Z AUTO VRB03KT 10SM CLR 29/07 A2991 4730 25 7400 VRB/03 RMK AO2 T02890072                                                               
24015KAKO AKO20190613155510906/13/19 15:55:31  5-MIN KAKO 132255Z AUTO VRB03KT 10SM CLR 29/07 A2988 4750 23 7500 VRB/03 RMK AO2 T02940067                                                               
24015KAKO AKO20190613173012606/13/19 17:30:31  5-MIN KAKO 140030Z AUTO VRB06KT 10SM OVC110 27/07 A2987 4760 26 7200 VRB/06 RMK AO2 LTG DSNT NW-E T02720067                                              
24015KAKO AKO20190613212510906/13/19 21:25:31  5-MIN KAKO 140425Z AUTO 00000KT 10SM CLR 16/11 A2996 4680 74 5900 000/00 RMK AO2 T01560111                                                               
24015KAKO AKO20190613213010906/13/19 21:30:31  5-MIN KAKO 140430Z AUTO 00000KT 10SM CLR 16/11 A2997 4680 74 5900 000/00 RMK AO2 T01560111                                                               
24015KAKO AKO20190613213510906/13/19 21:35:31  5-MIN KAKO 140435Z AUTO 00000KT 10SM CLR 17/11 A2997 4680 69 6000 000/00 RMK AO2 T01670111                                                               
24015KAKO AKO20190613223010906/13/19 22:30:31  5-MIN KAKO 140530Z AUTO 00000KT 10SM CLR 15/12 A2992 4720 80 5800 000/00 RMK AO2 T01500117                                                               
24015KAKO AKO20190613223510906/13/19 22:35:31  5-MIN KAKO 140535Z AUTO 00000KT 10SM CLR 14/12 A2993 4710 86 5700 000/00 RMK AO2 T01390117                                                               
24015KAKO AKO20190613224510906/13/19 22:45:31  5-MIN KAKO 140545Z AUTO 00000KT 10SM CLR 14/12 A2993 4710 86 5700 000/00 RMK AO2 T01390117                                                               
24015KAKO AKO20190613231010906/13/19 23:10:31  5-MIN KAKO 140610Z AUTO 00000KT 10SM CLR 15/11 A2993 4710 77 5800 000/00 RMK AO2 T01500111                                                               
24015KAKO AKO20190614031010906/14/19 03:10:31  5-MIN KAKO 141010Z AUTO VRB03KT 10SM CLR 14/09 A2989 4750 74 5700 VRB/03 RMK AO2 T01390094                                                               
24015KAKO AKO20190614092010906/14/19 09:20:31  5-MIN KAKO 141620Z AUTO VRB06KT 10SM CLR 23/10 A2989 4750 42 6800 VRB/06 RMK AO2 T02330100                                                               
24015KAKO AKO20190614124512606/14/19 12:45:31  5-MIN KAKO 141945Z AUTO VRB06G19KT 10SM CLR 27/08 A2987 4770 29 7200 VRB/06G19 RMK AO2 WSHFT 1917 T02670078                                              
24015KAKO AKO20190614154511206/14/19 15:45:31  5-MIN KAKO 142245Z AUTO 00000KT 10SM FEW095 27/07 A2985 4790 27 7300 000/00 RMK AO2 T02720072                                                            
24015KAKO AKO20190614155011906/14/19 15:50:31  5-MIN KAKO 142250Z AUTO VRB03KT 10SM SCT095 27/08 A2984 4790 29 7300 VRB/03 RMK AO2 SLP052 T02720078                                                     
24015KAKO AKO20190614161511206/14/19 16:15:31  5-MIN KAKO 142315Z AUTO 00000KT 10SM SCT095 27/08 A2984 4800 31 7200 000/00 RMK AO2 T02670083                                                            
24015KAKO AKO20190614162512506/14/19 16:25:31  5-MIN KAKO 142325Z AUTO 00000KT 10SM FEW100 27/07 A2984 4800 28 7200 000/00 RMK AO2 LTG DSNT S-W T02670072                                               
24015KAKO AKO20190614163012506/14/19 16:30:31  5-MIN KAKO 142330Z AUTO 00000KT 10SM FEW100 27/07 A2984 4800 28 7200 000/00 RMK AO2 LTG DSNT S-W T02670072                                               
24015KAKO AKO20190614163513606/14/19 16:35:31  5-MIN KAKO 142335Z AUTO 00000KT 10SM FEW100 SCT120 27/08 A2984 4800 29 7200 000/00 RMK AO2 LTG DSNT S AND W T02670078                                    
24015KAKO AKO20190614164013706/14/19 16:40:31  5-MIN KAKO 142340Z AUTO 00000KT 10SM VCTS FEW095 BKN120 26/09 A2984 4800 33 7200 000/00 RMK AO2 LTG DSNT S-W T02610089                                   
24015KAKO AKO20190614180512006/14/19 18:05:31  5-MIN KAKO 150105Z AUTO 00000KT 10SM CLR 20/12 A2987 4770 58 6500 000/00 RMK AO2 LTG DSNT E T02000117                                                    
24015KAKO AKO20190614201010906/14/19 20:10:31  5-MIN KAKO 150310Z AUTO 00000KT 10SM CLR 16/10 A2990 4740 69 5900 000/00 RMK AO2 T01560100                                                               
24015KAKO AKO20190614201510906/14/19 20:15:31  5-MIN KAKO 150315Z AUTO 00000KT 10SM CLR 16/09 A2990 4740 67 5900 000/00 RMK AO2 T01560094                                                               
24015KAKO AKO20190614202010906/14/19 20:20:31  5-MIN KAKO 150320Z AUTO 00000KT 10SM CLR 15/09 A2991 4730 69 5900 000/00 RMK AO2 T01500094                                                               
24015KAKO AKO20190614202510906/14/19 20:25:31  5-MIN KAKO 150325Z AUTO 00000KT 10SM CLR 16/09 A2990 4730 64 6000 000/00 RMK AO2 T01610094                                                               
24015KAKO AKO20190614203010906/14/19 20:30:31  5-MIN KAKO 150330Z AUTO 00000KT 10SM CLR 16/09 A2991 4730 62 6000 000/00 RMK AO2 T01610089                                                               
24015KAKO AKO20190614203510906/14/19 20:35:31  5-MIN KAKO 150335Z AUTO 00000KT 10SM CLR 16/09 A2991 4730 67 5900 000/00 RMK AO2 T01560094                                                               
24015KAKO AKO20190615114511206/15/19 11:45:31  5-MIN KAKO 151845Z AUTO VRB06KT 10SM FEW055 24/11 A3003 4620 42 6800 VRB/06 RMK AO2 T02440111                                                            
24015KAKO AKO20190615123511206/15/19 12:35:31  5-MIN KAKO 151935Z AUTO VRB05KT 10SM FEW055 24/10 A3002 4630 39 6800 VRB/05 RMK AO2 T02440100                                                            
24015KAKO AKO20190615135013206/15/19 13:50:31  5-MIN KAKO 152050Z AUTO VRB06KT 10SM SCT060 SCT080 26/09 A3002 4630 35 6900 VRB/06 RMK AO2 SLP115 T02560094 51007                                        
24015KAKO AKO20190615144011906/15/19 14:40:31  5-MIN KAKO 152140Z AUTO VRB05KT 10SM FEW090 FEW110 26/10 A3001 4630 37 6900 VRB/05 RMK AO2 T02560100                                                     
24015KAKO AKO20190615150510906/15/19 15:05:31  5-MIN KAKO 152205Z AUTO VRB03KT 10SM CLR 25/10 A3001 4640 38 6900 VRB/03 RMK AO2 T02500100                                                               
24015KAKO AKO20190615163510906/15/19 16:35:31  5-MIN KAKO 152335Z AUTO VRB04KT 10SM CLR 24/09 A3000 4640 38 6800 VRB/04 RMK AO2 T02440094                                                               
24015KAKO AKO20190615171011206/15/19 17:10:31  5-MIN KAKO 160010Z AUTO 00000KT 10SM FEW065 25/09 A3000 4650 37 6900 000/00 RMK AO2 T02500094                                                            
24015KAKO AKO20190615171511206/15/19 17:15:31  5-MIN KAKO 160015Z AUTO 00000KT 10SM FEW070 24/09 A3000 4650 36 6800 000/00 RMK AO2 T02440089                                                            
24015KAKO AKO20190615200011206/15/19 20:00:31  5-MIN KAKO 160300Z AUTO 00000KT 10SM BKN075 20/10 A3003 4620 52 6300 000/00 RMK AO2 T02000100                                                            
24015KAKO AKO20190615204010906/15/19 20:40:31  5-MIN KAKO 160340Z AUTO 00000KT 10SM CLR 20/09 A3003 4610 50 6300 000/00 RMK AO2 T02000094                                                               
24015KAKO AKO20190615230513506/15/19 23:05:31  5-MIN KAKO 160605Z AUTO 00000KT 10SM -RA BKN085 OVC110 17/11 A3003 4620 64 6000 000/00 RMK AO2 RAB05 P0000 T01720106                                     
24015KAKO AKO20190615231514206/15/19 23:15:31  5-MIN KAKO 160615Z AUTO 00000KT 10SM -RA FEW036 BKN085 OVC110 17/12 A3002 4620 75 5900 000/00 RMK AO2 RAB05 P0000 T01670122                              
24015KAKO AKO20190615234512406/15/19 23:45:31  5-MIN KAKO 160645Z AUTO VRB05KT 10SM CLR 14/12 A3001 4630 83 5700 VRB/05 RMK AO2 RAB05E24 P0000 T01440117                                                
24015KAKO AKO20190616005011606/16/19 00:50:31  5-MIN KAKO 160750Z AUTO 00000KT 10SM CLR 14/11 A3000 4640 77 5700 000/00 RMK AO2 SLP111 T01440106                                                        
24015KAKO AKO20190616012010906/16/19 01:20:31  5-MIN KAKO 160820Z AUTO 00000KT 10SM CLR 14/11 A3000 4640 80 5600 000/00 RMK AO2 T01390106                                                               
24015KAKO AKO20190616012510906/16/19 01:25:31  5-MIN KAKO 160825Z AUTO 00000KT 10SM CLR 13/11 A3000 4640 83 5600 000/00 RMK AO2 T01330106                                                               
24015KAKO AKO20190616013010906/16/19 01:30:31  5-MIN KAKO 160830Z AUTO 00000KT 10SM CLR 14/10 A3000 4640 77 5600 000/00 RMK AO2 T01390100                                                               
24015KAKO AKO20190616013510906/16/19 01:35:31  5-MIN KAKO 160835Z AUTO 00000KT 10SM CLR 14/11 A3000 4640 77 5700 000/00 RMK AO2 T01440106                                                               
24015KAKO AKO20190616014010906/16/19 01:40:31  5-MIN KAKO 160840Z AUTO 00000KT 10SM CLR 14/11 A3000 4640 80 5600 000/00 RMK AO2 T01390106                                                               
24015KAKO AKO20190616014510906/16/19 01:45:31  5-MIN KAKO 160845Z AUTO 00000KT 10SM CLR 14/11 A3000 4640 80 5600 000/00 RMK AO2 T01390106                                                               
24015KAKO AKO20190616082510906/16/19 08:25:31  5-MIN KAKO 161525Z AUTO VRB04KT 10SM CLR 20/12 A3005 4600 58 6300 VRB/04 RMK AO2 T02000117                                                               
24015KAKO AKO20190616083510906/16/19 08:35:31  5-MIN KAKO 161535Z AUTO 00000KT 10SM CLR 20/12 A3005 4600 58 6300 000/00 RMK AO2 T02000117                                                               
24015KAKO AKO20190616084010906/16/19 08:40:31  5-MIN KAKO 161540Z AUTO VRB04KT 10SM CLR 21/12 A3004 4610 56 6400 VRB/04 RMK AO2 T02110122                                                               
24015KAKO AKO20190616085510906/16/19 08:55:31  5-MIN KAKO 161555Z AUTO VRB04KT 10SM CLR 21/11 A3004 4610 50 6400 VRB/04 RMK AO2 T02110106                                                               
24015KAKO AKO20190616090010906/16/19 09:00:31  5-MIN KAKO 161600Z AUTO 00000KT 10SM CLR 21/11 A3004 4610 52 6400 000/00 RMK AO2 T02110111                                                               
24015KAKO AKO20190616091010906/16/19 09:10:31  5-MIN KAKO 161610Z AUTO 00000KT 10SM CLR 22/11 A3004 4610 49 6500 000/00 RMK AO2 T02220111                                                               
24015KAKO AKO20190616091510906/16/19 09:15:31  5-MIN KAKO 161615Z AUTO VRB05KT 10SM CLR 22/11 A3003 4610 49 6500 VRB/05 RMK AO2 T02220111                                                               
24015KAKO AKO20190616092010906/16/19 09:20:31  5-MIN KAKO 161620Z AUTO 00000KT 10SM CLR 22/11 A3003 4610 49 6500 000/00 RMK AO2 T02220111                                                               
24015KAKO AKO20190616092510906/16/19 09:25:31  5-MIN KAKO 161625Z AUTO VRB05KT 10SM CLR 23/12 A3003 4610 49 6600 VRB/05 RMK AO2 T02280117                                                               
24015KAKO AKO20190616093010906/16/19 09:30:31  5-MIN KAKO 161630Z AUTO VRB03KT 10SM CLR 22/11 A3003 4620 49 6500 VRB/03 RMK AO2 T02220111                                                               
24015KAKO AKO20190616093510906/16/19 09:35:31  5-MIN KAKO 161635Z AUTO VRB03KT 10SM CLR 23/11 A3003 4620 47 6600 VRB/03 RMK AO2 T02280111                                                               
24015KAKO AKO20190616095011606/16/19 09:50:31  5-MIN KAKO 161650Z AUTO VRB05KT 10SM CLR 24/11 A3003 4620 44 6700 VRB/05 RMK AO2 SLP115 T02390111                                                        
24015KAKO AKO20190616100010906/16/19 10:00:31  5-MIN KAKO 161700Z AUTO VRB06KT 10SM CLR 24/11 A3003 4620 42 6700 VRB/06 RMK AO2 T02390106                                                               
24015KAKO AKO20190616100510906/16/19 10:05:31  5-MIN KAKO 161705Z AUTO VRB04KT 10SM CLR 24/11 A3002 4620 42 6700 VRB/04 RMK AO2 T02390106                                                               
24015KAKO AKO20190616105511906/16/19 10:55:31  5-MIN KAKO 161755Z AUTO VRB05KT 10SM FEW065 SCT120 26/10 A3001 4630 36 7000 VRB/05 RMK AO2 T02610100                                                     
24015KAKO AKO20190616152014906/16/19 15:20:31  5-MIN KAKO 162220Z AUTO VRB04KT 5SM TSRA OVC085 23/11 A2995 4700 45 6700 VRB/04 RMK AO2 LTG DSNT SW-NW RAB16 TSB17 P0005 T02330111                       
24015KAKO AKO20190616162013806/16/19 16:20:31  5-MIN KAKO 162320Z AUTO 00000KT 10SM SCT090 18/13 A2996 4680 70 6200 000/00 RMK AO2 LTG DSNT W-NE RAE09 P0001 T01830128                                  
24015KAKO AKO20190616162513706/16/19 16:25:31  5-MIN KAKO 162325Z AUTO 00000KT 10SM FEW090 18/12 A2997 4680 67 6200 000/00 RMK AO2 LTG DSNT W-N RAE09 P0001 T01830122                                   
24015KAKO AKO20190616164514406/16/19 16:45:31  5-MIN KAKO 162345Z AUTO VRB04KT 10SM SCT100 SCT120 18/13 A2996 4680 70 6200 VRB/04 RMK AO2 LTG DSNT W-N RAE09 P0001 T01830128                            
24015KAKO AKO20190616174016006/16/19 17:40:31  5-MIN KAKO 170040Z AUTO VRB05KT 3SM +TSRA FEW038 BKN075 OVC090 17/14 A3004 4610 83 6000 VRB/05 RMK AO2 LTG DSNT N RAB19 TSB33 P0005 T01720144            
24015KAKO AKO20190616182516306/16/19 18:25:31  5-MIN KAKO 170125Z AUTO VRB05G21KT 10SM -RA FEW055 BKN080 OVC100 16/15 A3002 4630 96 5800 VRB/05G21 RMK AO2 LTG DSNT ALQDS TSE05 P0001 T01560150         
24015KAKO AKO20190617010511206/17/19 01:05:31  5-MIN KAKO 170805Z AUTO VRB03KT 10SM OVC006 14/13 A3005 4600 96 5600 VRB/03 RMK AO2 T01390133                                                            
24015KAKO AKO20190617091011206/17/19 09:10:31  5-MIN KAKO 171610Z AUTO VRB05KT 10SM FEW023 20/14 A3008 4570 70 6200 VRB/05 RMK AO2 T02000144                                                            
24015KAKO AKO20190617091511206/17/19 09:15:31  5-MIN KAKO 171615Z AUTO VRB06KT 10SM SCT023 20/14 A3008 4570 70 6200 VRB/06 RMK AO2 T02000144                                                            
24015KAKO AKO20190617094011206/17/19 09:40:31  5-MIN KAKO 171640Z AUTO VRB05KT 10SM OVC025 20/14 A3007 4580 70 6200 VRB/05 RMK AO2 T02000144                                                            
24015KAKO AKO20190617100011906/17/19 10:00:31  5-MIN KAKO 171700Z AUTO VRB06KT 10SM BKN027 BKN033 21/14 A3007 4580 65 6300 VRB/06 RMK AO2 T02060139                                                     
24015KAKO AKO20190617102011206/17/19 10:20:31  5-MIN KAKO 171720Z AUTO VRB04KT 10SM BKN030 21/14 A3008 4580 67 6300 VRB/04 RMK AO2 T02060144                                                            
24015KAKO AKO20190617102511206/17/19 10:25:31  5-MIN KAKO 171725Z AUTO VRB04KT 10SM BKN030 22/14 A3007 4580 63 6400 VRB/04 RMK AO2 T02170144                                                            
24015KAKO AKO20190617104011906/17/19 10:40:31  5-MIN KAKO 171740Z AUTO VRB04KT 10SM FEW029 BKN037 22/15 A3008 4580 65 6400 VRB/04 RMK AO2 T02170150                                                     
24015KAKO AKO20190617104511906/17/19 10:45:31  5-MIN KAKO 171745Z AUTO VRB04KT 10SM FEW029 BKN037 22/14 A3008 4580 63 6400 VRB/04 RMK AO2 T02170144                                                     
24015KAKO AKO20190617105511906/17/19 10:55:31  5-MIN KAKO 171755Z AUTO 00000KT 10SM BKN034 OVC042 21/14 A3007 4580 65 6400 000/00 RMK AO2 T02110144                                                     
24015KAKO AKO20190617110011906/17/19 11:00:31  5-MIN KAKO 171800Z AUTO VRB04KT 10SM BKN034 BKN042 22/15 A3007 4580 65 6400 VRB/04 RMK AO2 T02170150                                                     
24015KAKO AKO20190617110512606/17/19 11:05:31  5-MIN KAKO 171805Z AUTO VRB05KT 10SM BKN034 BKN042 BKN049 22/15 A3007 4580 63 6500 VRB/05 RMK AO2 T02220150                                              
24015KAKO AKO20190617115013306/17/19 11:50:31  5-MIN KAKO 171850Z AUTO VRB05KT 10SM SCT033 BKN043 BKN055 22/14 A3006 4590 61 6500 VRB/05 RMK AO2 SLP132 T02220144                                       
24015KAKO AKO20190617120511906/17/19 12:05:31  5-MIN KAKO 171905Z AUTO VRB05KT 10SM FEW035 SCT045 23/16 A3005 4600 61 6600 VRB/05 RMK AO2 T02330156                                                     
24015KAKO AKO20190617130012606/17/19 13:00:31  5-MIN KAKO 172000Z AUTO VRB06KT 10SM FEW038 SCT065 SCT080 24/14 A3003 4620 55 6700 VRB/06 RMK AO2 T02390144                                              
24015KAKO AKO20190617131011906/17/19 13:10:31  5-MIN KAKO 172010Z AUTO VRB05KT 10SM FEW065 FEW080 24/14 A3003 4620 55 6700 VRB/05 RMK AO2 T02390144                                                     
24015KAKO AKO20190617131513006/17/19 13:15:31  5-MIN KAKO 172015Z AUTO VRB05KT 10SM FEW065 FEW080 24/14 A3002 4630 53 6800 VRB/05 RMK AO2 LTG DSNT S T02440144                                          
24015KAKO AKO20190617133511206/17/19 13:35:31  5-MIN KAKO 172035Z AUTO VRB03KT 10SM FEW041 24/14 A3001 4640 51 6800 VRB/03 RMK AO2 T02440139                                                            
24015KAKO AKO20190618021512006/18/19 02:15:31  5-MIN KAKO 180915Z AUTO 00000KT 10SM FEW004 OVC009 13/13 A3008 4580 100 5500 000/00 RMK AO2 T01330133                                                    
24015KAKO AKO20190618023513806/18/19 02:35:31  5-MIN KAKO 180935Z AUTO 00000KT 10SM BKN009 BKN014 OVC050 13/13 A3007 4580 96 5500 000/00 RMK AO2 CIG 006V010 T01330128                                  
24015KAKO AKO20190618044011506/18/19 04:40:31  5-MIN KAKO 181140Z AUTO 00000KT 2SM BR OVC002 13/13 A3007 4580 100 5500 000/00 RMK AO2 T01330133                                                         
24015KAKO AKO20190618044511506/18/19 04:45:31  5-MIN KAKO 181145Z AUTO 00000KT 3SM BR OVC002 13/13 A3007 4580 100 5500 000/00 RMK AO2 T01330133                                                         
24015KAKO AKO20190618045010506/18/19 04:50:31  5-MIN KAKO 181150Z AUTO 00000KT 2SM BR OVC002 13/13 A3008 4580 100 5500 000/00 RMK AO2                                                                   
24015KAKO AKO20190618050011506/18/19 05:00:31  5-MIN KAKO 181200Z AUTO 00000KT 1SM BR OVC002 13/13 A3008 4580 100 5500 000/00 RMK AO2 T01330133                                                         
24015KAKO AKO20190618050511706/18/19 05:05:31  5-MIN KAKO 181205Z AUTO 00000KT 3/4SM BR OVC002 13/13 A3007 4580 100 5500 000/00 RMK AO2 T01330133                                                       
24015KAKO AKO20190618061511606/18/19 06:15:31  5-MIN KAKO 181315Z AUTO 00000KT 3/4SM BR VV002 13/13 A3007 4580 100 5500 000/00 RMK AO2 T01330133                                                        
24015KAKO AKO20190618062511506/18/19 06:25:31  5-MIN KAKO 181325Z AUTO 00000KT 3SM BR OVC002 13/13 A3007 4580 100 5500 000/00 RMK AO2 T01330133                                                         
24015KAKO AKO20190618110012406/18/19 11:00:31  5-MIN KAKO 181800Z AUTO VRB05KT 10SM BKN008 17/14 A3007 4580 86 5900 VRB/05 RMK AO2 CIG 006V015 T01670144                                                
24015KAKO AKO20190618161011906/18/19 16:10:31  5-MIN KAKO 182310Z AUTO 00000KT 10SM FEW049 SCT110 16/14 A3000 4650 90 5900 000/00 RMK AO2 T01610144                                                     
24015KAKO AKO20190618161511906/18/19 16:15:31  5-MIN KAKO 182315Z AUTO 00000KT 10SM FEW049 FEW110 17/14 A3000 4640 86 5900 000/00 RMK AO2 T01670144                                                     
24015KAKO AKO20190618162011206/18/19 16:20:31  5-MIN KAKO 182320Z AUTO 00000KT 10SM FEW120 17/14 A3001 4640 86 5900 000/00 RMK AO2 T01670144                                                            
24015KAKO AKO20190618162511206/18/19 16:25:31  5-MIN KAKO 182325Z AUTO 00000KT 10SM SCT110 17/14 A3001 4640 83 5900 000/00 RMK AO2 T01670139                                                            
24015KAKO AKO20190618163011206/18/19 16:30:31  5-MIN KAKO 182330Z AUTO 00000KT 10SM BKN110 17/14 A3001 4640 83 5900 000/00 RMK AO2 T01670139                                                            
24015KAKO AKO20190618164011906/18/19 16:40:31  5-MIN KAKO 182340Z AUTO 00000KT 10SM FEW035 BKN110 17/14 A3001 4640 80 6000 000/00 RMK AO2 T01720139                                                     
24015KAKO AKO20190618164511906/18/19 16:45:31  5-MIN KAKO 182345Z AUTO 00000KT 10SM FEW037 OVC100 17/14 A3001 4640 83 6000 000/00 RMK AO2 T01720144                                                     
24015KAKO AKO20190618175514906/18/19 17:55:31  5-MIN KAKO 190055Z AUTO 00000KT 2 1/2SM TSRA BR FEW014 BKN041 OVC080 16/14 A3002 4630 93 5800 000/00 RMK AO2 TSB55 P0001 T01560144                       
24015KAKO AKO20190618180514506/18/19 18:05:31  5-MIN KAKO 190105Z AUTO 00000KT 8SM -TSRA FEW020 SCT055 OVC080 16/14 A3001 4630 93 5800 000/00 RMK AO2 TSB0055 P0001 T01560144                           
24015KAKO AKO20190618181014606/18/19 18:10:31  5-MIN KAKO 190110Z AUTO 00000KT 10SM -TSRA FEW018 BKN080 OVC090 15/14 A3001 4640 96 5700 000/00 RMK AO2 TSB0055 P0001 T01500144                          
24015KAKO AKO20190618184014206/18/19 18:40:31  5-MIN KAKO 190140Z AUTO 00000KT 10SM SCT090 BKN110 15/13 A3000 4650 90 5800 000/00 RMK AO2 RAE32 TSB0055E16 P0002 T01500133                              
24015KAKO AKO20190618184515406/18/19 18:45:31  5-MIN KAKO 190145Z AUTO 00000KT 10SM SCT100 BKN120 15/13 A3000 4640 90 5700 000/00 RMK AO2 LTG DSNT SE RAE32 TSB0055E16 P0002 T01500133                  
24015KAKO AKO20190618185015406/18/19 18:50:31  5-MIN KAKO 190150Z AUTO 00000KT 10SM SCT110 15/13 A3000 4640 90 5700 000/00 RMK AO2 LTG DSNT SE RAE32 TSB0055E16 SLP126 P0002 T01500133                  
24015KAKO AKO20190618185513106/18/19 18:55:31  5-MIN KAKO 190155Z AUTO 00000KT 10SM FEW100 FEW120 15/13 A3001 4640 90 5700 000/00 RMK AO2 LTG DSNT SE T01500133                                         
24015KAKO AKO20190618190012406/18/19 19:00:31  5-MIN KAKO 190200Z AUTO 00000KT 10SM FEW110 15/13 A3001 4640 90 5700 000/00 RMK AO2 LTG DSNT SE T01500133                                                
24015KAKO AKO20190618201010906/18/19 20:10:31  5-MIN KAKO 190310Z AUTO 00000KT 10SM CLR 14/13 A3001 4640 96 5600 000/00 RMK AO2 T01390133                                                               
24015KAKO AKO20190618202010906/18/19 20:20:31  5-MIN KAKO 190320Z AUTO 00000KT 10SM CLR 14/13 A3000 4640 96 5600 000/00 RMK AO2 T01390133                                                               
24015KAKO AKO20190618202510906/18/19 20:25:31  5-MIN KAKO 190325Z AUTO 00000KT 10SM CLR 14/13 A3000 4640 96 5600 000/00 RMK AO2 T01390133                                                               
24015KAKO AKO20190618214510806/18/19 21:45:31  5-MIN KAKO 190445Z AUTO 00000KT 9SM CLR 13/12 A3002 4630 96 5500 000/00 RMK AO2 T01280122                                                                
24015KAKO AKO20190618215011606/18/19 21:50:31  5-MIN KAKO 190450Z AUTO 00000KT 7SM CLR 12/12 A3002 4630 100 5400 000/00 RMK AO2 SLP132 T01220122                                                        
24015KAKO AKO20190619110511506/19/19 11:05:31  5-MIN KAKO 191805Z AUTO VRB05G15KT 10SM CLR 21/12 A2993 4710 56 6500 VRB/05G15 RMK AO2 T02110122                                                         
24015KAKO AKO20190619111511506/19/19 11:15:31  5-MIN KAKO 191815Z AUTO VRB06G16KT 10SM CLR 21/12 A2992 4720 56 6500 VRB/06G16 RMK AO2 T02110122                                                         
24015KAKO AKO20190619131010906/19/19 13:10:31  5-MIN KAKO 192010Z AUTO VRB03KT 10SM CLR 24/11 A2988 4760 44 6900 VRB/03 RMK AO2 T02390111                                                               
24015KAKO AKO20190619132510906/19/19 13:25:31  5-MIN KAKO 192025Z AUTO VRB04KT 10SM CLR 23/11 A2988 4760 44 6800 VRB/04 RMK AO2 T02330106                                                               
24015KAKO AKO20190619133011206/19/19 13:30:31  5-MIN KAKO 192030Z AUTO VRB03KT 10SM FEW080 24/11 A2988 4760 44 6900 VRB/03 RMK AO2 T02390111                                                            
24015KAKO AKO20190619143010906/19/19 14:30:31  5-MIN KAKO 192130Z AUTO 00000KT 10SM CLR 23/11 A2986 4780 45 6800 000/00 RMK AO2 T02280106                                                               
24015KAKO AKO20190619144010906/19/19 14:40:31  5-MIN KAKO 192140Z AUTO 00000KT 10SM CLR 23/11 A2986 4770 45 6800 000/00 RMK AO2 T02280106                                                               
24015KAKO AKO20190619145011606/19/19 14:50:31  5-MIN KAKO 192150Z AUTO 00000KT 10SM CLR 23/11 A2986 4770 45 6800 000/00 RMK AO2 SLP069 T02280106                                                        
24015KAKO AKO20190619150010906/19/19 15:00:31  5-MIN KAKO 192200Z AUTO VRB03KT 10SM CLR 24/11 A2986 4780 44 6900 VRB/03 RMK AO2 T02390111                                                               
24015KAKO AKO20190619150510906/19/19 15:05:31  5-MIN KAKO 192205Z AUTO 00000KT 10SM CLR 24/11 A2986 4780 42 7000 000/00 RMK AO2 T02440111                                                               
24015KAKO AKO20190619152010906/19/19 15:20:31  5-MIN KAKO 192220Z AUTO 00000KT 10SM CLR 24/11 A2986 4780 42 7000 000/00 RMK AO2 T02440111                                                               
24015KAKO AKO20190619153510906/19/19 15:35:31  5-MIN KAKO 192235Z AUTO VRB04KT 10SM CLR 24/11 A2985 4790 41 7000 VRB/04 RMK AO2 T02440106                                                               
24015KAKO AKO20190619155011906/19/19 15:50:31  5-MIN KAKO 192250Z AUTO 00000KT 10SM FEW120 25/11 A2984 4800 39 7000 000/00 RMK AO2 SLP054 T02500106                                                     
24015KAKO AKO20190619161010906/19/19 16:10:31  5-MIN KAKO 192310Z AUTO 00000KT 10SM CLR 25/10 A2983 4800 38 7100 000/00 RMK AO2 T02500100                                                               
24015KAKO AKO20190619161510906/19/19 16:15:31  5-MIN KAKO 192315Z AUTO 00000KT 10SM CLR 25/11 A2983 4810 39 7100 000/00 RMK AO2 T02500106                                                               
24015KAKO AKO20190620075510906/20/19 07:55:31  5-MIN KAKO 201455Z AUTO VRB04KT 10SM CLR 17/11 A2990 4740 67 6100 VRB/04 RMK AO2 T01720111                                                               
24015KAKO AKO20190620082010906/20/19 08:20:31  5-MIN KAKO 201520Z AUTO VRB03KT 10SM CLR 18/11 A2990 4740 60 6200 VRB/03 RMK AO2 T01830106                                                               
24015KAKO AKO20190620083010906/20/19 08:30:31  5-MIN KAKO 201530Z AUTO VRB04KT 10SM CLR 18/11 A2990 4740 60 6200 VRB/04 RMK AO2 T01830106                                                               
24015KAKO AKO20190620083510906/20/19 08:35:31  5-MIN KAKO 201535Z AUTO 00000KT 10SM CLR 18/11 A2990 4740 62 6200 000/00 RMK AO2 T01830111                                                               
24015KAKO AKO20190620084010906/20/19 08:40:31  5-MIN KAKO 201540Z AUTO 00000KT 10SM CLR 18/11 A2990 4740 60 6200 000/00 RMK AO2 T01830106                                                               
24015KAKO AKO20190620084510906/20/19 08:45:31  5-MIN KAKO 201545Z AUTO 00000KT 10SM CLR 18/11 A2990 4740 62 6200 000/00 RMK AO2 T01830111                                                               
24015KAKO AKO20190620085510906/20/19 08:55:31  5-MIN KAKO 201555Z AUTO 00000KT 10SM CLR 19/11 A2989 4740 58 6400 000/00 RMK AO2 T01940111                                                               
24015KAKO AKO20190620090010906/20/19 09:00:31  5-MIN KAKO 201600Z AUTO VRB03KT 10SM CLR 19/11 A2989 4740 60 6300 VRB/03 RMK AO2 T01890111                                                               
24015KAKO AKO20190620090510906/20/19 09:05:31  5-MIN KAKO 201605Z AUTO VRB04KT 10SM CLR 19/11 A2989 4750 58 6400 VRB/04 RMK AO2 T01940111                                                               
24015KAKO AKO20190620091010906/20/19 09:10:31  5-MIN KAKO 201610Z AUTO VRB03KT 10SM CLR 19/12 A2989 4750 60 6400 VRB/03 RMK AO2 T01940117                                                               
24015KAKO AKO20190620093010906/20/19 09:30:31  5-MIN KAKO 201630Z AUTO VRB05KT 10SM CLR 20/12 A2988 4750 58 6400 VRB/05 RMK AO2 T02000117                                                               
24015KAKO AKO20190620093510906/20/19 09:35:31  5-MIN KAKO 201635Z AUTO VRB05KT 10SM CLR 20/12 A2988 4750 58 6400 VRB/05 RMK AO2 T02000117                                                               
24015KAKO AKO20190620100510906/20/19 10:05:31  5-MIN KAKO 201705Z AUTO VRB05KT 10SM CLR 21/12 A2987 4760 56 6600 VRB/05 RMK AO2 T02110122                                                               
24015KAKO AKO20190620163019106/20/19 16:30:31  5-MIN KAKO 202330Z AUTO VRB04G35KT 3SM TSRA BKN060 OVC080 21/09 A2980 4830 45 6700 VRB/04G35 RMK AO2 PK WND 24042/2317 WSHFT 2307 LTG DSNT SE-SW RAB05 TS
24015KAKO AKO20190621004010906/21/19 00:40:31  5-MIN KAKO 210740Z AUTO 00000KT 10SM CLR 15/13 A2972 4910 86 6100 000/00 RMK AO2 T01500128                                                               
24015KAKO AKO20190621210513606/21/19 21:05:31  5-MIN KAKO 220405Z AUTO 00000KT 10SM -RA SCT050 BKN060 OVC080 10/08 A3006 4590 89 5100 000/00 RMK AO2 P0000 T01000083                                    
24015KAKO AKO20190621211014506/21/19 21:10:31  5-MIN KAKO 220410Z AUTO 00000KT 10SM SCT050 BKN065 OVC080 10/08 A3007 4580 86 5100 000/00 RMK AO2 RAE10 PRESRR P0000 T01000078                           
24015KAKO AKO20190622094511206/22/19 09:45:31  5-MIN KAKO 221645Z AUTO VRB06KT 10SM SCT090 14/07 A3006 4590 61 5600 VRB/06 RMK AO2 T01440072                                                            
24015KAKO AKO20190622095011906/22/19 09:50:31  5-MIN KAKO 221650Z AUTO VRB06KT 10SM SCT090 14/07 A3006 4590 61 5600 VRB/06 RMK AO2 SLP151 T01440072                                                     
24015KAKO AKO20190622095511206/22/19 09:55:31  5-MIN KAKO 221655Z AUTO VRB04KT 10SM FEW090 14/07 A3006 4590 61 5600 VRB/04 RMK AO2 T01440072                                                            
24015KAKO AKO20190622100011206/22/19 10:00:31  5-MIN KAKO 221700Z AUTO VRB06KT 10SM SCT090 15/08 A3006 4590 62 5700 VRB/06 RMK AO2 T01500078                                                            
24015KAKO AKO20190622101511206/22/19 10:15:31  5-MIN KAKO 221715Z AUTO VRB04KT 10SM BKN090 15/07 A3005 4600 57 5700 VRB/04 RMK AO2 T01500067                                                            
24015KAKO AKO20190622102011206/22/19 10:20:31  5-MIN KAKO 221720Z AUTO VRB04KT 10SM BKN090 16/08 A3005 4600 59 5800 VRB/04 RMK AO2 T01560078                                                            
24015KAKO AKO20190622103511206/22/19 10:35:31  5-MIN KAKO 221735Z AUTO 00000KT 10SM BKN085 16/07 A3005 4600 53 5800 000/00 RMK AO2 T01610067                                                            
24015KAKO AKO20190622105013706/22/19 10:50:31  5-MIN KAKO 221750Z AUTO 00000KT 10SM SCT080 17/07 A3004 4610 51 5900 000/00 RMK AO2 SLP142 T01670067 10167 20100 50005                                   
24015KAKO AKO20190622110011206/22/19 11:00:31  5-MIN KAKO 221800Z AUTO 00000KT 10SM FEW085 16/07 A3004 4610 53 5800 000/00 RMK AO2 T01610067                                                            
24015KAKO AKO20190622110511206/22/19 11:05:31  5-MIN KAKO 221805Z AUTO VRB03KT 10SM FEW085 17/08 A3004 4610 55 5900 VRB/03 RMK AO2 T01670078                                                            
24015KAKO AKO20190622111510906/22/19 11:15:31  5-MIN KAKO 221815Z AUTO VRB04KT 10SM CLR 17/07 A3004 4610 53 5900 VRB/04 RMK AO2 T01670072                                                               
24015KAKO AKO20190622112010906/22/19 11:20:31  5-MIN KAKO 221820Z AUTO 00000KT 10SM CLR 17/07 A3003 4620 51 6000 000/00 RMK AO2 T01720072                                                               
24015KAKO AKO20190622112510906/22/19 11:25:31  5-MIN KAKO 221825Z AUTO VRB04KT 10SM CLR 18/08 A3003 4620 51 6000 VRB/04 RMK AO2 T01780078                                                               
24015KAKO AKO20190622113510906/22/19 11:35:31  5-MIN KAKO 221835Z AUTO VRB03KT 10SM CLR 18/08 A3003 4620 51 6000 VRB/03 RMK AO2 T01780078                                                               
24015KAKO AKO20190622114010906/22/19 11:40:31  5-MIN KAKO 221840Z AUTO VRB03KT 10SM CLR 18/07 A3003 4620 48 6100 VRB/03 RMK AO2 T01830072                                                               
24015KAKO AKO20190622114510906/22/19 11:45:31  5-MIN KAKO 221845Z AUTO 00000KT 10SM CLR 18/08 A3003 4620 52 6100 000/00 RMK AO2 T01830083                                                               
24015KAKO AKO20190622120510906/22/19 12:05:31  5-MIN KAKO 221905Z AUTO 00000KT 10SM CLR 18/07 A3002 4620 48 6100 000/00 RMK AO2 T01830072                                                               
24015KAKO AKO20190622123510906/22/19 12:35:31  5-MIN KAKO 221935Z AUTO VRB04KT 10SM CLR 19/08 A3001 4630 46 6200 VRB/04 RMK AO2 T01940078                                                               
24015KAKO AKO20190622124511206/22/19 12:45:31  5-MIN KAKO 221945Z AUTO VRB04KT 10SM FEW048 19/08 A3001 4640 48 6200 VRB/04 RMK AO2 T01890078                                                            
24015KAKO AKO20190622125011906/22/19 12:50:31  5-MIN KAKO 221950Z AUTO VRB04KT 10SM FEW049 19/08 A3001 4640 46 6200 VRB/04 RMK AO2 SLP125 T01940078                                                     
24015KAKO AKO20190622130511206/22/19 13:05:31  5-MIN KAKO 222005Z AUTO 00000KT 10SM FEW049 18/07 A3000 4640 48 6100 000/00 RMK AO2 T01830072                                                            
24015KAKO AKO20190622132011206/22/19 13:20:31  5-MIN KAKO 222020Z AUTO 00000KT 10SM SCT050 19/08 A3000 4650 48 6200 000/00 RMK AO2 T01890078                                                            
24015KAKO AKO20190622132511206/22/19 13:25:31  5-MIN KAKO 222025Z AUTO 00000KT 10SM SCT050 20/08 A3000 4650 46 6300 000/00 RMK AO2 T02000083                                                            
24015KAKO AKO20190622142510906/22/19 14:25:31  5-MIN KAKO 222125Z AUTO 00000KT 10SM CLR 21/09 A2998 4660 46 6400 000/00 RMK AO2 T02060089                                                               
24015KAKO AKO20190622154011206/22/19 15:40:31  5-MIN KAKO 222240Z AUTO VRB06KT 10SM BKN047 19/09 A2998 4660 54 6200 VRB/06 RMK AO2 T01890094                                                            
24015KAKO AKO20190622173015306/22/19 17:30:31  5-MIN KAKO 230030Z AUTO 00000KT 6SM VCTS -RA BKN050 OVC060 14/09 A3004 4610 71 5600 000/00 RMK AO2 LTG DSNT E-SW RAB11 P0003 T01390089                   
24015KAKO AKO20190622191011206/22/19 19:10:31  5-MIN KAKO 230210Z AUTO VRB03KT 10SM BKN110 12/10 A3001 4640 89 5400 VRB/03 RMK AO2 T01170100                                                            
24015KAKO AKO20190622192011906/22/19 19:20:31  5-MIN KAKO 230220Z AUTO 00000KT 10SM SCT080 SCT110 12/10 A3003 4620 86 5400 000/00 RMK AO2 T01220100                                                     
24015KAKO AKO20190622195015406/22/19 19:50:31  5-MIN KAKO 230250Z AUTO 00000KT 10SM -RA SCT060 OVC080 12/11 A3005 4600 89 5400 000/00 RMK AO2 RAB49 SLP149 P0000 60017 T01220106 53006                  
24015KAKO AKO20190622231511206/22/19 23:15:31  5-MIN KAKO 230615Z AUTO 00000KT 10SM SCT110 10/09 A3006 4590 93 5100 000/00 RMK AO2 T01000089                                                            
24015KAKO AKO20190622232011206/22/19 23:20:31  5-MIN KAKO 230620Z AUTO 00000KT 10SM BKN110 10/09 A3006 4590 93 5100 000/00 RMK AO2 T01000089                                                            
24015KAKO AKO20190622232511206/22/19 23:25:31  5-MIN KAKO 230625Z AUTO 00000KT 10SM BKN110 11/09 A3006 4590 89 5200 000/00 RMK AO2 T01060089                                                            
24015KAKO AKO20190622233511206/22/19 23:35:31  5-MIN KAKO 230635Z AUTO 00000KT 10SM BKN110 11/09 A3006 4590 89 5200 000/00 RMK AO2 T01060089                                                            
24015KAKO AKO20190622234011906/22/19 23:40:31  5-MIN KAKO 230640Z AUTO 00000KT 10SM FEW070 BKN110 11/09 A3006 4590 89 5200 000/00 RMK AO2 T01060089                                                     
24015KAKO AKO20190622234511906/22/19 23:45:31  5-MIN KAKO 230645Z AUTO 00000KT 10SM FEW070 BKN110 11/09 A3006 4590 89 5200 000/00 RMK AO2 T01060089                                                     
24015KAKO AKO20190622235013606/22/19 23:50:31  5-MIN KAKO 230650Z AUTO 00000KT 10SM FEW070 SCT110 11/09 A3005 4600 93 5200 000/00 RMK AO2 SLP143 T01060094 402110100                                    
24015KAKO AKO20190622235511906/22/19 23:55:31  5-MIN KAKO 230655Z AUTO 00000KT 10SM FEW070 FEW110 11/09 A3004 4600 93 5200 000/00 RMK AO2 T01060094                                                     
24015KAKO AKO20190623000011906/23/19 00:00:31  5-MIN KAKO 230700Z AUTO 00000KT 10SM SCT055 SCT070 11/09 A3004 4610 86 5300 000/00 RMK AO2 T01110089                                                     
24015KAKO AKO20190623001012606/23/19 00:10:31  5-MIN KAKO 230710Z AUTO VRB06KT 10SM BKN049 BKN070 BKN120 11/09 A3005 4600 93 5200 VRB/06 RMK AO2 T01060094                                              
24015KAKO AKO20190623010511206/23/19 01:05:31  5-MIN KAKO 230805Z AUTO 00000KT 10SM FEW070 10/09 A3001 4630 96 5200 000/00 RMK AO2 T01000094                                                            
24015KAKO AKO20190623043511106/23/19 04:35:31  5-MIN KAKO 231135Z AUTO 00000KT 9SM FEW120 08/07 A2999 4650 96 4900 000/00 RMK AO2 T00780072                                                             
24015KAKO AKO20190623044011106/23/19 04:40:31  5-MIN KAKO 231140Z AUTO 00000KT 9SM SCT120 08/08 A2999 4650 96 5000 000/00 RMK AO2 T00830078                                                             
24015KAKO AKO20190623123516106/23/19 12:35:31  5-MIN KAKO 231935Z AUTO VRB03KT 10SM VCTS FEW065 SCT080 BKN095 14/07 A3000 4650 64 5600 VRB/03 RMK AO2 LTG DSNT W AND NW RAE10 P0001 T01390072           
24015KAKO AKO20190625021511206/25/19 02:15:31  5-MIN KAKO 250915Z AUTO 00000KT 10SM FEW110 14/09 A2996 4680 69 5700 000/00 RMK AO2 T01440089                                                            
24015KAKO AKO20190625022010906/25/19 02:20:31  5-MIN KAKO 250920Z AUTO 00000KT 10SM CLR 16/08 A2996 4680 62 5900 000/00 RMK AO2 T01560083                                                               
24015KAKO AKO20190625025011606/25/19 02:50:31  5-MIN KAKO 250950Z AUTO 00000KT 10SM CLR 15/08 A2997 4670 62 5800 000/00 RMK AO2 SLP093 T01500078                                                        
24015KAKO AKO20190625025510906/25/19 02:55:31  5-MIN KAKO 250955Z AUTO 00000KT 10SM CLR 14/08 A2997 4670 66 5700 000/00 RMK AO2 T01390078                                                               
24015KAKO AKO20190625030010906/25/19 03:00:31  5-MIN KAKO 251000Z AUTO 00000KT 10SM CLR 14/08 A2997 4670 64 5700 000/00 RMK AO2 T01440078                                                               
24015KAKO AKO20190625030510906/25/19 03:05:31  5-MIN KAKO 251005Z AUTO 00000KT 10SM CLR 14/07 A2998 4670 61 5700 000/00 RMK AO2 T01440072                                                               
24015KAKO AKO20190625031010906/25/19 03:10:31  5-MIN KAKO 251010Z AUTO 00000KT 10SM CLR 16/07 A2997 4670 55 5800 000/00 RMK AO2 T01560067                                                               
24015KAKO AKO20190625031510906/25/19 03:15:31  5-MIN KAKO 251015Z AUTO 00000KT 10SM CLR 18/05 A2998 4670 42 6100 000/00 RMK AO2 T01780050                                                               
24015KAKO AKO20190625032010906/25/19 03:20:31  5-MIN KAKO 251020Z AUTO 00000KT 10SM CLR 16/06 A2998 4670 51 5900 000/00 RMK AO2 T01610061                                                               
24015KAKO AKO20190625032510906/25/19 03:25:31  5-MIN KAKO 251025Z AUTO 00000KT 10SM CLR 18/05 A2998 4660 42 6100 000/00 RMK AO2 T01780050                                                               
24015KAKO AKO20190625033010906/25/19 03:30:31  5-MIN KAKO 251030Z AUTO 00000KT 10SM CLR 17/04 A2998 4660 42 6000 000/00 RMK AO2 T01720044                                                               
24015KAKO AKO20190625033510906/25/19 03:35:31  5-MIN KAKO 251035Z AUTO 00000KT 10SM CLR 17/04 A2998 4660 42 6000 000/00 RMK AO2 T01720044                                                               
24015KAKO AKO20190625034010906/25/19 03:40:31  5-MIN KAKO 251040Z AUTO 00000KT 10SM CLR 17/04 A2998 4670 42 6000 000/00 RMK AO2 T01720044                                                               
24015KAKO AKO20190625034510906/25/19 03:45:31  5-MIN KAKO 251045Z AUTO 00000KT 10SM CLR 16/05 A2998 4660 47 5900 000/00 RMK AO2 T01610050                                                               
24015KAKO AKO20190625035011606/25/19 03:50:31  5-MIN KAKO 251050Z AUTO 00000KT 10SM CLR 13/07 A2998 4660 69 5500 000/00 RMK AO2 SLP101 T01280072                                                        
24015KAKO AKO20190625092010906/25/19 09:20:31  5-MIN KAKO 251620Z AUTO VRB05KT 10SM CLR 24/08 A3005 4600 36 6700 VRB/05 RMK AO2 T02390083                                                               
24015KAKO AKO20190625093010906/25/19 09:30:31  5-MIN KAKO 251630Z AUTO VRB04KT 10SM CLR 23/08 A3005 4600 38 6600 VRB/04 RMK AO2 T02330083                                                               
24015KAKO AKO20190625093510906/25/19 09:35:31  5-MIN KAKO 251635Z AUTO VRB04KT 10SM CLR 24/09 A3005 4600 39 6700 VRB/04 RMK AO2 T02390094                                                               
24015KAKO AKO20190625094510906/25/19 09:45:31  5-MIN KAKO 251645Z AUTO VRB04KT 10SM CLR 24/08 A3005 4600 36 6700 VRB/04 RMK AO2 T02390083                                                               
24015KAKO AKO20190625095011606/25/19 09:50:31  5-MIN KAKO 251650Z AUTO VRB03KT 10SM CLR 24/08 A3005 4600 35 6800 VRB/03 RMK AO2 SLP116 T02440083                                                        
24015KAKO AKO20190625100010906/25/19 10:00:31  5-MIN KAKO 251700Z AUTO 00000KT 10SM CLR 24/08 A3004 4600 35 6800 000/00 RMK AO2 T02440083                                                               
24015KAKO AKO20190625101010906/25/19 10:10:31  5-MIN KAKO 251710Z AUTO VRB04KT 10SM CLR 25/08 A3004 4610 34 6800 VRB/04 RMK AO2 T02500083                                                               
24015KAKO AKO20190625102010906/25/19 10:20:31  5-MIN KAKO 251720Z AUTO 00000KT 10SM CLR 24/09 A3004 4610 36 6800 000/00 RMK AO2 T02440089                                                               
24015KAKO AKO20190625102510906/25/19 10:25:31  5-MIN KAKO 251725Z AUTO 00000KT 10SM CLR 24/08 A3004 4610 35 6800 000/00 RMK AO2 T02440083                                                               
24015KAKO AKO20190625103010906/25/19 10:30:31  5-MIN KAKO 251730Z AUTO 00000KT 10SM CLR 25/08 A3004 4610 34 6800 000/00 RMK AO2 T02500083                                                               
24015KAKO AKO20190625103510906/25/19 10:35:31  5-MIN KAKO 251735Z AUTO 00000KT 10SM CLR 24/08 A3004 4610 34 6800 000/00 RMK AO2 T02440078                                                               
24015KAKO AKO20190625104510906/25/19 10:45:31  5-MIN KAKO 251745Z AUTO VRB03KT 10SM CLR 26/08 A3004 4610 33 6900 VRB/03 RMK AO2 T02560083                                                               
24015KAKO AKO20190625110010906/25/19 11:00:31  5-MIN KAKO 251800Z AUTO VRB03KT 10SM CLR 26/08 A3004 4610 31 6900 VRB/03 RMK AO2 T02610078                                                               
24015KAKO AKO20190625111010906/25/19 11:10:31  5-MIN KAKO 251810Z AUTO 00000KT 10SM CLR 26/06 A3003 4610 26 6900 000/00 RMK AO2 T02610056                                                               
24015KAKO AKO20190625111510906/25/19 11:15:31  5-MIN KAKO 251815Z AUTO 00000KT 10SM CLR 26/07 A3004 4610 28 6900 000/00 RMK AO2 T02610067                                                               
24015KAKO AKO20190625112010906/25/19 11:20:31  5-MIN KAKO 251820Z AUTO 00000KT 10SM CLR 27/07 A3004 4610 28 7000 000/00 RMK AO2 T02670072                                                               
24015KAKO AKO20190625112510906/25/19 11:25:31  5-MIN KAKO 251825Z AUTO VRB04KT 10SM CLR 26/08 A3003 4610 31 6900 VRB/04 RMK AO2 T02610078                                                               
24015KAKO AKO20190625113510906/25/19 11:35:31  5-MIN KAKO 251835Z AUTO VRB03KT 10SM CLR 26/08 A3003 4620 31 6900 VRB/03 RMK AO2 T02610078                                                               
24015KAKO AKO20190625115011606/25/19 11:50:31  5-MIN KAKO 251850Z AUTO VRB04KT 10SM CLR 27/07 A3003 4620 27 7000 VRB/04 RMK AO2 SLP110 T02670067                                                        
24015KAKO AKO20190625120010906/25/19 12:00:31  5-MIN KAKO 251900Z AUTO VRB04KT 10SM CLR 27/07 A3002 4620 28 7000 VRB/04 RMK AO2 T02670072                                                               
24015KAKO AKO20190625120510906/25/19 12:05:31  5-MIN KAKO 251905Z AUTO VRB06KT 10SM CLR 27/08 A3002 4620 30 7100 VRB/06 RMK AO2 T02720083                                                               
24015KAKO AKO20190625221510906/25/19 22:15:31  5-MIN KAKO 260515Z AUTO VRB04KT 10SM CLR 19/08 A3003 4620 50 6200 VRB/04 RMK AO2 T01890083                                                               
24015KAKO AKO20190626021510906/26/19 02:15:31  5-MIN KAKO 260915Z AUTO 00000KT 10SM CLR 15/09 A3003 4620 69 5700 000/00 RMK AO2 T01500094                                                               
24015KAKO AKO20190626032510906/26/19 03:25:31  5-MIN KAKO 261025Z AUTO 00000KT 10SM CLR 13/08 A3003 4620 74 5500 000/00 RMK AO2 T01280083                                                               
24015KAKO AKO20190626033010906/26/19 03:30:31  5-MIN KAKO 261030Z AUTO 00000KT 10SM CLR 13/08 A3003 4620 74 5500 000/00 RMK AO2 T01280083                                                               
24015KAKO AKO20190626085011606/26/19 08:50:31  5-MIN KAKO 261550Z AUTO VRB03KT 10SM CLR 23/12 A3003 4620 49 6600 VRB/03 RMK AO2 SLP113 T02280117                                                        
24015KAKO AKO20190626085510906/26/19 08:55:31  5-MIN KAKO 261555Z AUTO VRB03KT 10SM CLR 23/12 A3003 4620 49 6600 VRB/03 RMK AO2 T02280117                                                               
24015KAKO AKO20190626101511206/26/19 10:15:31  5-MIN KAKO 261715Z AUTO VRB04KT CLR 26/11 A3003 4620 38 7000 VRB/04 RMK AO2 T02610111 PWINO $                                                            
24015KAKO AKO20190626102011506/26/19 10:20:31  5-MIN KAKO 261720Z AUTO 00000KT 10SM CLR 26/12 A3003 4620 40 6900 000/00 RMK AO2 T02610117 PWINO                                                         
24015KAKO AKO20190626103510906/26/19 10:35:31  5-MIN KAKO 261735Z AUTO 00000KT 10SM CLR 27/12 A3004 4610 40 7000 000/00 RMK AO2 T02670122                                                               
24015KAKO AKO20190626104010906/26/19 10:40:31  5-MIN KAKO 261740Z AUTO VRB03KT 10SM CLR 27/11 A3004 4610 37 7000 VRB/03 RMK AO2 T02670111                                                               
24015KAKO AKO20190626105012206/26/19 10:50:31  5-MIN KAKO 261750Z AUTO VRB04KT 10SM CLR 27/11 A3004 4610 36 7100 VRB/04 RMK AO2 SLP108 T02720111 53002                                                  
24015KAKO AKO20190626114510906/26/19 11:45:31  5-MIN KAKO 261845Z AUTO VRB06KT 10SM CLR 28/12 A3002 4630 35 7200 VRB/06 RMK AO2 T02830117                                                               
24015KAKO AKO20190626184513806/26/19 18:45:31  5-MIN KAKO 270145Z AUTO VRB04KT 10SM CLR 27/06 A3001 4640 24 7100 VRB/04 RMK AO2 PK WND 30039/0057 WSHFT 0046 T02720056                                  
24015KAKO AKO20190626201010906/26/19 20:10:31  5-MIN KAKO 270310Z AUTO 00000KT 10SM CLR 23/09 A3001 4630 41 6700 000/00 RMK AO2 T02330094                                                               
24015KAKO AKO20190626201510906/26/19 20:15:31  5-MIN KAKO 270315Z AUTO 00000KT 10SM CLR 23/09 A3002 4630 39 6700 000/00 RMK AO2 T02330089                                                               
24015KAKO AKO20190627104010906/27/19 10:40:31  5-MIN KAKO 271740Z AUTO VRB04KT 10SM CLR 31/11 A3011 4550 29 7300 VRB/04 RMK AO2 T03060111                                                               
24015KAKO AKO20190627113510906/27/19 11:35:31  5-MIN KAKO 271835Z AUTO 00000KT 10SM CLR 31/09 A3010 4550 24 7400 000/00 RMK AO2 T03110089                                                               
24015KAKO AKO20190627114010906/27/19 11:40:31  5-MIN KAKO 271840Z AUTO VRB03KT 10SM CLR 31/10 A3010 4550 26 7400 VRB/03 RMK AO2 T03110100                                                               
24015KAKO AKO20190627120010906/27/19 12:00:31  5-MIN KAKO 271900Z AUTO 00000KT 10SM CLR 31/06 A3010 4560 20 7400 000/00 RMK AO2 T03110061                                                               
24015KAKO AKO20190627121010906/27/19 12:10:31  5-MIN KAKO 271910Z AUTO VRB04KT 10SM CLR 32/08 A3010 4560 23 7500 VRB/04 RMK AO2 T03170083                                                               
24015KAKO AKO20190627124010906/27/19 12:40:31  5-MIN KAKO 271940Z AUTO VRB05KT 10SM CLR 32/05 A3009 4570 18 7500 VRB/05 RMK AO2 T03170050                                                               
24015KAKO AKO20190627124510906/27/19 12:45:31  5-MIN KAKO 271945Z AUTO VRB04KT 10SM CLR 32/04 A3008 4570 17 7500 VRB/04 RMK AO2 T03220044                                                               
24015KAKO AKO20190627125011606/27/19 12:50:31  5-MIN KAKO 271950Z AUTO VRB03KT 10SM CLR 32/04 A3008 4570 17 7500 VRB/03 RMK AO2 SLP123 T03170039                                                        
24015KAKO AKO20190627130510906/27/19 13:05:31  5-MIN KAKO 272005Z AUTO VRB03KT 10SM CLR 32/05 A3008 4570 17 7500 VRB/03 RMK AO2 T03220050                                                               
24015KAKO AKO20190627133510906/27/19 13:35:31  5-MIN KAKO 272035Z AUTO VRB04KT 10SM CLR 33/06 A3008 4570 18 7700 VRB/04 RMK AO2 T03330061                                                               
24015KAKO AKO20190627134510906/27/19 13:45:31  5-MIN KAKO 272045Z AUTO VRB03KT 10SM CLR 33/04 A3008 4570 16 7700 VRB/03 RMK AO2 T03330044                                                               
24015KAKO AKO20190627135510906/27/19 13:55:31  5-MIN KAKO 272055Z AUTO VRB03KT 10SM CLR 33/04 A3007 4580 16 7700 VRB/03 RMK AO2 T03330044                                                               
24015KAKO AKO20190627140010906/27/19 14:00:31  5-MIN KAKO 272100Z AUTO VRB06KT 10SM CLR 33/06 A3007 4580 18 7700 VRB/06 RMK AO2 T03330061                                                               
24015KAKO AKO20190627144510906/27/19 14:45:31  5-MIN KAKO 272145Z AUTO VRB06KT 10SM CLR 33/07 A3007 4580 18 7700 VRB/06 RMK AO2 T03330067                                                               
24015KAKO AKO20190627145011606/27/19 14:50:31  5-MIN KAKO 272150Z AUTO 00000KT 10SM CLR 33/05 A3006 4590 16 7700 000/00 RMK AO2 SLP113 T03330050                                                        
24015KAKO AKO20190628045013406/28/19 04:50:31  5-MIN KAKO 281150Z AUTO 00000KT 10SM CLR 15/09 A3011 4540 69 5600 000/00 RMK AO2 SLP134 T01500094 10228 20150 56011                                      
24015KAKO AKO20190628051010906/28/19 05:10:31  5-MIN KAKO 281210Z AUTO 00000KT 10SM CLR 15/11 A3011 4540 74 5600 000/00 RMK AO2 T01500106                                                               
24015KAKO AKO20190628051510906/28/19 05:15:31  5-MIN KAKO 281215Z AUTO 00000KT 10SM CLR 16/11 A3012 4540 69 5700 000/00 RMK AO2 T01610106                                                               
24015KAKO AKO20190628055510906/28/19 05:55:31  5-MIN KAKO 281255Z AUTO VRB04KT 10SM CLR 19/12 A3012 4540 62 6100 VRB/04 RMK AO2 T01890117                                                               
24015KAKO AKO20190628060010906/28/19 06:00:31  5-MIN KAKO 281300Z AUTO VRB03KT 10SM CLR 19/12 A3012 4530 60 6100 VRB/03 RMK AO2 T01940117                                                               
24015KAKO AKO20190628060510906/28/19 06:05:31  5-MIN KAKO 281305Z AUTO 00000KT 10SM CLR 20/12 A3012 4530 58 6200 000/00 RMK AO2 T02000117                                                               
24015KAKO AKO20190628070510906/28/19 07:05:31  5-MIN KAKO 281405Z AUTO VRB03KT 10SM CLR 22/11 A3013 4520 47 6400 VRB/03 RMK AO2 T02220106                                                               
24015KAKO AKO20190628075012206/28/19 07:50:31  5-MIN KAKO 281450Z AUTO 00000KT 10SM CLR 24/12 A3015 4510 46 6600 000/00 RMK AO2 SLP142 T02390117 53015                                                  
24015KAKO AKO20190628075510906/28/19 07:55:31  5-MIN KAKO 281455Z AUTO 00000KT 10SM CLR 23/12 A3015 4510 47 6500 000/00 RMK AO2 T02330117                                                               
24015KAKO AKO20190628080010906/28/19 08:00:31  5-MIN KAKO 281500Z AUTO 00000KT 10SM CLR 24/11 A3015 4510 44 6600 000/00 RMK AO2 T02390111                                                               
24015KAKO AKO20190628080510906/28/19 08:05:31  5-MIN KAKO 281505Z AUTO 00000KT 10SM CLR 24/12 A3015 4510 46 6600 000/00 RMK AO2 T02440122                                                               
24015KAKO AKO20190628081010906/28/19 08:10:31  5-MIN KAKO 281510Z AUTO 00000KT 10SM CLR 24/12 A3015 4510 46 6600 000/00 RMK AO2 T02440122                                                               
24015KAKO AKO20190628081510906/28/19 08:15:31  5-MIN KAKO 281515Z AUTO 00000KT 10SM CLR 24/12 A3015 4510 46 6600 000/00 RMK AO2 T02440122                                                               
24015KAKO AKO20190628082010906/28/19 08:20:31  5-MIN KAKO 281520Z AUTO 00000KT 10SM CLR 25/12 A3015 4500 44 6700 000/00 RMK AO2 T02500122                                                               
24015KAKO AKO20190628082510906/28/19 08:25:31  5-MIN KAKO 281525Z AUTO 00000KT 10SM CLR 24/12 A3015 4500 46 6600 000/00 RMK AO2 T02440122                                                               
24015KAKO AKO20190628083010906/28/19 08:30:31  5-MIN KAKO 281530Z AUTO 00000KT 10SM CLR 26/13 A3016 4500 44 6800 000/00 RMK AO2 T02560128                                                               
24015KAKO AKO20190628084010906/28/19 08:40:31  5-MIN KAKO 281540Z AUTO VRB03KT 10SM CLR 26/13 A3016 4500 44 6800 VRB/03 RMK AO2 T02560128                                                               
24015KAKO AKO20190628084510906/28/19 08:45:31  5-MIN KAKO 281545Z AUTO 00000KT 10SM CLR 26/12 A3015 4500 43 6800 000/00 RMK AO2 T02560122                                                               
24015KAKO AKO20190628094010906/28/19 09:40:31  5-MIN KAKO 281640Z AUTO VRB03KT 10SM CLR 29/12 A3015 4510 35 7100 VRB/03 RMK AO2 T02890122                                                               
24015KAKO AKO20190628095011606/28/19 09:50:31  5-MIN KAKO 281650Z AUTO 00000KT 10SM CLR 29/13 A3015 4510 36 7100 000/00 RMK AO2 SLP138 T02890128                                                        
24015KAKO AKO20190628100010906/28/19 10:00:31  5-MIN KAKO 281700Z AUTO VRB04KT 10SM CLR 29/13 A3015 4510 36 7200 VRB/04 RMK AO2 T02940133                                                               
24015KAKO AKO20190628101510906/28/19 10:15:31  5-MIN KAKO 281715Z AUTO VRB03KT 10SM CLR 30/13 A3015 4510 34 7200 VRB/03 RMK AO2 T03000128                                                               
24015KAKO AKO20190628102010906/28/19 10:20:31  5-MIN KAKO 281720Z AUTO 00000KT 10SM CLR 30/13 A3015 4510 35 7200 000/00 RMK AO2 T03000133                                                               
24015KAKO AKO20190628102510906/28/19 10:25:31  5-MIN KAKO 281725Z AUTO 00000KT 10SM CLR 31/13 A3015 4510 33 7300 000/00 RMK AO2 T03060128                                                               
24015KAKO AKO20190628103010906/28/19 10:30:31  5-MIN KAKO 281730Z AUTO 00000KT 10SM CLR 31/13 A3015 4510 33 7300 000/00 RMK AO2 T03060128                                                               
24015KAKO AKO20190628105013406/28/19 10:50:31  5-MIN KAKO 281750Z AUTO VRB03KT 10SM CLR 31/13 A3014 4510 32 7400 VRB/03 RMK AO2 SLP136 T03110128 10317 20144 53008                                      
24015KAKO AKO20190628105510906/28/19 10:55:31  5-MIN KAKO 281755Z AUTO 00000KT 10SM CLR 31/13 A3014 4510 32 7400 000/00 RMK AO2 T03110128                                                               
24015KAKO AKO20190628111510906/28/19 11:15:31  5-MIN KAKO 281815Z AUTO VRB03KT 10SM CLR 32/13 A3014 4520 30 7500 VRB/03 RMK AO2 T03220128                                                               
24015KAKO AKO20190628112010906/28/19 11:20:31  5-MIN KAKO 281820Z AUTO 00000KT 10SM CLR 33/13 A3014 4520 30 7500 000/00 RMK AO2 T03280133                                                               
24015KAKO AKO20190628122510906/28/19 12:25:31  5-MIN KAKO 281925Z AUTO VRB04KT 10SM CLR 34/11 A3012 4530 23 7700 VRB/04 RMK AO2 T03390106                                                               
24015KAKO AKO20190628123010906/28/19 12:30:31  5-MIN KAKO 281930Z AUTO VRB05KT 10SM CLR 34/11 A3012 4540 23 7700 VRB/05 RMK AO2 T03390106                                                               
24015KAKO AKO20190628123510906/28/19 12:35:31  5-MIN KAKO 281935Z AUTO VRB06KT 10SM CLR 34/11 A3012 4540 23 7700 VRB/06 RMK AO2 T03440111                                                               
24015KAKO AKO20190628124010906/28/19 12:40:31  5-MIN KAKO 281940Z AUTO VRB03KT 10SM CLR 34/11 A3012 4540 23 7700 VRB/03 RMK AO2 T03440106                                                               
24015KAKO AKO20190628125011606/28/19 12:50:31  5-MIN KAKO 281950Z AUTO VRB04KT 10SM CLR 34/10 A3012 4540 22 7700 VRB/04 RMK AO2 SLP123 T03390100                                                        
24015KAKO AKO20190628125510906/28/19 12:55:31  5-MIN KAKO 281955Z AUTO VRB05KT 10SM CLR 34/09 A3011 4540 22 7700 VRB/05 RMK AO2 T03390094                                                               
24015KAKO AKO20190628130510906/28/19 13:05:31  5-MIN KAKO 282005Z AUTO VRB06KT 10SM CLR 34/09 A3011 4540 21 7700 VRB/06 RMK AO2 T03440094                                                               
24015KAKO AKO20190628141510906/28/19 14:15:31  5-MIN KAKO 282115Z AUTO VRB03KT 10SM CLR 34/08 A3011 4550 19 7800 VRB/03 RMK AO2 T03440078                                                               
24015KAKO AKO20190628142510906/28/19 14:25:31  5-MIN KAKO 282125Z AUTO VRB03KT 10SM CLR 35/09 A3011 4550 19 7800 VRB/03 RMK AO2 T03500089                                                               
24015KAKO AKO20190628144510906/28/19 14:45:31  5-MIN KAKO 282145Z AUTO VRB05KT 10SM CLR 35/09 A3011 4550 19 7800 VRB/05 RMK AO2 T03500089                                                               
24015KAKO AKO20190628160010906/28/19 16:00:31  5-MIN KAKO 282300Z AUTO VRB03KT 10SM CLR 35/08 A3010 4550 18 7800 VRB/03 RMK AO2 T03500078                                                               
24015KAKO AKO20190628163010906/28/19 16:30:31  5-MIN KAKO 282330Z AUTO VRB03KT 10SM CLR 34/08 A3009 4560 19 7800 VRB/03 RMK AO2 T03440078                                                               
24015KAKO AKO20190628232510906/28/19 23:25:31  5-MIN KAKO 290625Z AUTO VRB03KT 10SM CLR 21/12 A3015 4510 58 6200 VRB/03 RMK AO2 T02060122                                                               
24015KAKO AKO20190629052510906/29/19 05:25:31  5-MIN KAKO 291225Z AUTO 00000KT 10SM CLR 19/11 A3012 4530 56 6100 000/00 RMK AO2 T01940106                                                               
24015KAKO AKO20190629072510906/29/19 07:25:31  5-MIN KAKO 291425Z AUTO 00000KT 10SM CLR 27/12 A3016 4500 38 6900 000/00 RMK AO2 T02670117                                                               
24015KAKO AKO20190629075012206/29/19 07:50:31  5-MIN KAKO 291450Z AUTO 00000KT 10SM CLR 28/12 A3016 4500 37 7000 000/00 RMK AO2 SLP143 T02780122 53000                                                  
24015KAKO AKO20190629081010906/29/19 08:10:31  5-MIN KAKO 291510Z AUTO 00000KT 10SM CLR 28/12 A3016 4500 35 7000 000/00 RMK AO2 T02830117                                                               
24015KAKO AKO20190629210010906/29/19 21:00:31  5-MIN KAKO 300400Z AUTO 00000KT 10SM CLR 26/08 A3015 4510 32 6800 000/00 RMK AO2 T02610083                                                               
24015KAKO AKO20190629210510906/29/19 21:05:31  5-MIN KAKO 300405Z AUTO 00000KT 10SM CLR 26/08 A3015 4500 33 6800 000/00 RMK AO2 T02560083                                                               
24015KAKO AKO20190629212010906/29/19 21:20:31  5-MIN KAKO 300420Z AUTO VRB05KT 10SM CLR 24/09 A3017 4490 38 6600 VRB/05 RMK AO2 T02390089                                                               
24015KAKO AKO20190629213510906/29/19 21:35:31  5-MIN KAKO 300435Z AUTO 00000KT 10SM CLR 24/09 A3017 4490 36 6600 000/00 RMK AO2 T02440089                                                               
24015KAKO AKO20190629214010906/29/19 21:40:31  5-MIN KAKO 300440Z AUTO 00000KT 10SM CLR 25/09 A3017 4490 35 6700 000/00 RMK AO2 T02500089                                                               
24015KAKO AKO20190630014010906/30/19 01:40:31  5-MIN KAKO 300840Z AUTO 00000KT 10SM CLR 18/11 A3013 4530 62 6000 000/00 RMK AO2 T01830111                                                               
24015KAKO AKO20190630014510906/30/19 01:45:31  5-MIN KAKO 300845Z AUTO 00000KT 10SM CLR 19/11 A3013 4530 58 6100 000/00 RMK AO2 T01940111                                                               
24015KAKO AKO20190630024010906/30/19 02:40:31  5-MIN KAKO 300940Z AUTO 00000KT 10SM CLR 19/11 A3012 4540 58 6100 000/00 RMK AO2 T01890106                                                               
24015KAKO AKO20190630024510906/30/19 02:45:31  5-MIN KAKO 300945Z AUTO 00000KT 10SM CLR 19/11 A3012 4540 56 6100 000/00 RMK AO2 T01940106                                                               
24015KAKO AKO20190630025011606/30/19 02:50:31  5-MIN KAKO 300950Z AUTO 00000KT 10SM CLR 18/11 A3012 4540 60 6000 000/00 RMK AO2 SLP128 T01830106                                                        
24015KAKO AKO20190630025510906/30/19 02:55:31  5-MIN KAKO 300955Z AUTO 00000KT 10SM CLR 19/11 A3012 4540 58 6100 000/00 RMK AO2 T01890106                                                               
24015KAKO AKO20190630030010906/30/19 03:00:31  5-MIN KAKO 301000Z AUTO 00000KT 10SM CLR 20/10 A3012 4540 52 6200 000/00 RMK AO2 T02000100                                                               
24015KAKO AKO20190630102510906/30/19 10:25:31  5-MIN KAKO 301725Z AUTO VRB05KT 10SM CLR 31/12 A3011 4540 32 7300 VRB/05 RMK AO2 T03060122                                                               
24015KAKO AKO20190630104010906/30/19 10:40:31  5-MIN KAKO 301740Z AUTO VRB03KT 10SM CLR 31/13 A3011 4540 32 7400 VRB/03 RMK AO2 T03110128                                                               
24015KAKO AKO20190630105013406/30/19 10:50:31  5-MIN KAKO 301750Z AUTO 00000KT 10SM CLR 31/12 A3011 4540 31 7400 000/00 RMK AO2 SLP125 T03110122 10311 20167 50000                                      
24015KAKO AKO20190630105510906/30/19 10:55:31  5-MIN KAKO 301755Z AUTO 00000KT 10SM CLR 32/12 A3011 4540 29 7500 000/00 RMK AO2 T03170117                                                               
24015KAKO AKO20190630110010906/30/19 11:00:31  5-MIN KAKO 301800Z AUTO 00000KT 10SM CLR 31/12 A3011 4540 31 7400 000/00 RMK AO2 T03110122                                                               
24015KAKO AKO20190630110510906/30/19 11:05:31  5-MIN KAKO 301805Z AUTO 00000KT 10SM CLR 32/13 A3011 4550 31 7500 000/00 RMK AO2 T03170128                                                               
24015KAKO AKO20190630111010906/30/19 11:10:31  5-MIN KAKO 301810Z AUTO VRB03KT 10SM CLR 32/12 A3011 4550 30 7500 VRB/03 RMK AO2 T03170122                                                               
24015KAKO AKO20190630112010906/30/19 11:20:31  5-MIN KAKO 301820Z AUTO VRB06KT 10SM CLR 32/12 A3010 4550 28 7500 VRB/06 RMK AO2 T03220117                                                               
24015KAKO AKO20190630112510906/30/19 11:25:31  5-MIN KAKO 301825Z AUTO 00000KT 10SM CLR 32/12 A3010 4550 28 7500 000/00 RMK AO2 T03220117                                                               
24015KAKO AKO20190630114510906/30/19 11:45:31  5-MIN KAKO 301845Z AUTO 00000KT 10SM CLR 33/12 A3010 4550 27 7600 000/00 RMK AO2 T03280117                                                               
24015KAKO AKO20190630115510906/30/19 11:55:31  5-MIN KAKO 301855Z AUTO VRB04KT 10SM CLR 33/12 A3010 4560 27 7600 VRB/04 RMK AO2 T03280117                                                               
24015KAKO AKO20190630120010906/30/19 12:00:31  5-MIN KAKO 301900Z AUTO VRB03KT 10SM CLR 32/11 A3009 4560 27 7500 VRB/03 RMK AO2 T03220111                                                               
24015KAKO AKO20190630120510906/30/19 12:05:31  5-MIN KAKO 301905Z AUTO 00000KT 10SM CLR 33/12 A3009 4560 27 7600 000/00 RMK AO2 T03280117                                                               
24015KAKO AKO20190630121510906/30/19 12:15:31  5-MIN KAKO 301915Z AUTO VRB06KT 10SM CLR 34/12 A3009 4560 25 7700 VRB/06 RMK AO2 T03390117                                                               
24015KAKO AKO20190630125510906/30/19 12:55:31  5-MIN KAKO 301955Z AUTO VRB03KT 10SM CLR 34/12 A3008 4570 25 7700 VRB/03 RMK AO2 T03390117                                                               
24015KAKO AKO20190630130510906/30/19 13:05:31  5-MIN KAKO 302005Z AUTO VRB05KT 10SM CLR 34/11 A3008 4570 24 7700 VRB/05 RMK AO2 T03390111                                                               
24015KAKO AKO20190630133510906/30/19 13:35:31  5-MIN KAKO 302035Z AUTO VRB05KT 10SM CLR 34/11 A3007 4580 24 7700 VRB/05 RMK AO2 T03390111                                                               
24015KAKO AKO20190630135510906/30/19 13:55:31  5-MIN KAKO 302055Z AUTO VRB04KT 10SM CLR 34/11 A3006 4590 23 7700 VRB/04 RMK AO2 T03390106                                                               
24015KAKO AKO20190630142511506/30/19 14:25:31  5-MIN KAKO 302125Z AUTO VRB05G14KT 10SM CLR 35/11 A3005 4600 22 7900 VRB/05G14 RMK AO2 T03500106                                                         
24015KAKO AKO20190630150012106/30/19 15:00:31  5-MIN KAKO 302200Z AUTO VRB06KT 10SM CLR 35/11 A3003 4620 22 7900 VRB/06 RMK AO2 LTG DSNT NE T03500106                                                   
24015KAKO AKO20190630154011206/30/19 15:40:31  5-MIN KAKO 302240Z AUTO VRB05KT 10SM BKN110 34/11 A3002 4620 23 7800 VRB/05 RMK AO2 T03390106                                                            
24015KAKO AKO20190630154512406/30/19 15:45:31  5-MIN KAKO 302245Z AUTO VRB03KT 10SM BKN110 33/09 A3002 4630 22 7700 VRB/03 RMK AO2 LTG DSNT NE T03330094                                                
24015KAKO AKO20190630170015706/30/19 17:00:31  5-MIN KAKO 010000Z AUTO VRB06KT 10SM -RA SCT055 BKN070 OVC110 27/16 A3002 4630 50 7000 VRB/06 RMK AO2 LTG DSNT W-NE PRESFR P0000 T02670156               
24015KAKO AKO20190630184013006/30/19 18:40:31  5-MIN KAKO 010140Z AUTO VRB03KT 10SM FEW120 27/12 A3006 4590 40 7000 VRB/03 RMK AO2 LTG DSNT SW AND W T02670122                                          
24015KAKO AKO20190630185512606/30/19 18:55:31  5-MIN KAKO 010155Z AUTO VRB04KT 10SM FEW120 22/16 A3007 4580 68 6500 VRB/04 RMK AO2 LTG DSNT W-NE T02220161                                              
24015KAKO AKO20190630225014306/30/19 22:50:31  5-MIN KAKO 010550Z AUTO 00000KT 10SM FEW110 19/16 A3015 4510 78 6100 000/00 RMK AO2 SLP143 60001 T01940156 10267 20189 53017                             
24015KAKO AKO20190630230011906/30/19 23:00:31  5-MIN KAKO 010600Z AUTO 00000KT 10SM -RA CLR 19/16 A3014 4510 81 6000 000/00 RMK AO2 P0000 T01890156                                                     
24015KAKO AKO20190630230512106/30/19 23:05:31  5-MIN KAKO 010605Z AUTO 00000KT 10SM CLR 19/15 A3014 4510 75 6100 000/00 RMK AO2 RAE02 P0000 T01940150                                                   
24015KAKO AKO20190630231512106/30/19 23:15:31  5-MIN KAKO 010615Z AUTO 00000KT 10SM CLR 19/16 A3015 4510 84 6000 000/00 RMK AO2 RAE02 P0000 T01890161                                                   
24015KAKO AKO20190701042010907/01/19 04:20:31  5-MIN KAKO 011120Z AUTO 00000KT 10SM CLR 17/15 A3008 4570 87 5900 000/00 RMK AO2 T01720150                                                               
24015KAKO AKO20190701042510907/01/19 04:25:31  5-MIN KAKO 011125Z AUTO 00000KT 10SM CLR 17/15 A3009 4570 87 5900 000/00 RMK AO2 T01720150                                                               
24015KAKO AKO20190701204010907/01/19 20:40:31  5-MIN KAKO 020340Z AUTO 00000KT 10SM CLR 23/14 A3006 4590 59 6600 000/00 RMK AO2 T02280144                                                               
24015KAKO AKO20190701204510907/01/19 20:45:31  5-MIN KAKO 020345Z AUTO 00000KT 10SM CLR 23/14 A3006 4590 57 6600 000/00 RMK AO2 T02280139                                                               
24015KAKO AKO20190701205011607/01/19 20:50:31  5-MIN KAKO 020350Z AUTO 00000KT 10SM CLR 23/14 A3006 4590 57 6600 000/00 RMK AO2 SLP116 T02280139                                                        
24015KAKO AKO20190701205510907/01/19 20:55:31  5-MIN KAKO 020355Z AUTO 00000KT 10SM CLR 22/15 A3007 4580 65 6400 000/00 RMK AO2 T02170150                                                               
24015KAKO AKO20190701210010907/01/19 21:00:31  5-MIN KAKO 020400Z AUTO 00000KT 10SM CLR 21/16 A3007 4580 73 6300 000/00 RMK AO2 T02060156                                                               
24015KAKO AKO20190702091010907/02/19 09:10:31  5-MIN KAKO 021610Z AUTO VRB04KT 10SM CLR 24/16 A3006 4590 59 6700 VRB/04 RMK AO2 T02390156                                                               
24015KAKO AKO20190702092010907/02/19 09:20:31  5-MIN KAKO 021620Z AUTO VRB03KT 10SM CLR 24/15 A3007 4580 57 6700 VRB/03 RMK AO2 T02390150                                                               
24015KAKO AKO20190702093010907/02/19 09:30:31  5-MIN KAKO 021630Z AUTO 00000KT 10SM CLR 24/16 A3007 4580 57 6700 000/00 RMK AO2 T02440156                                                               
24015KAKO AKO20190702093510907/02/19 09:35:31  5-MIN KAKO 021635Z AUTO VRB03KT 10SM CLR 24/15 A3007 4580 55 6700 VRB/03 RMK AO2 T02440150                                                               
24015KAKO AKO20190702095011607/02/19 09:50:31  5-MIN KAKO 021650Z AUTO 00000KT 10SM CLR 24/15 A3006 4590 55 6700 000/00 RMK AO2 SLP122 T02440150                                                        
24015KAKO AKO20190702095510907/02/19 09:55:31  5-MIN KAKO 021655Z AUTO VRB03KT 10SM CLR 26/15 A3006 4590 51 6900 VRB/03 RMK AO2 T02560150                                                               
24015KAKO AKO20190702100010907/02/19 10:00:31  5-MIN KAKO 021700Z AUTO VRB03KT 10SM CLR 26/15 A3006 4590 51 6900 VRB/03 RMK AO2 T02560150                                                               
24015KAKO AKO20190702101010907/02/19 10:10:31  5-MIN KAKO 021710Z AUTO VRB04KT 10SM CLR 26/14 A3006 4590 49 6900 VRB/04 RMK AO2 T02560144                                                               
24015KAKO AKO20190702101510907/02/19 10:15:31  5-MIN KAKO 021715Z AUTO 00000KT 10SM CLR 26/14 A3006 4590 49 6900 000/00 RMK AO2 T02560144                                                               
24015KAKO AKO20190702102510907/02/19 10:25:31  5-MIN KAKO 021725Z AUTO VRB04KT 10SM CLR 26/14 A3006 4590 48 6900 VRB/04 RMK AO2 T02560139                                                               
24015KAKO AKO20190702103010907/02/19 10:30:31  5-MIN KAKO 021730Z AUTO VRB04KT 10SM CLR 26/14 A3006 4590 49 6900 VRB/04 RMK AO2 T02560144                                                               
24015KAKO AKO20190702104510907/02/19 10:45:31  5-MIN KAKO 021745Z AUTO VRB06KT 10SM CLR 26/14 A3006 4590 46 6900 VRB/06 RMK AO2 T02610139                                                               
24015KAKO AKO20190702105510907/02/19 10:55:31  5-MIN KAKO 021755Z AUTO VRB06KT 10SM CLR 26/14 A3006 4590 48 6900 VRB/06 RMK AO2 T02610144                                                               
24015KAKO AKO20190704230014407/04/19 23:00:31  5-MIN KAKO 050600Z AUTO 00000KT 10SM FEW055 SCT075 BKN110 19/13 A3009 4570 65 6200 000/00 RMK AO2 LTG DSNT W AND NW T01940128                            
24015KAKO AKO20190704233015007/04/19 23:30:31  5-MIN KAKO 050630Z AUTO VRB03KT 10SM VCTS FEW050 SCT095 17/13 A3008 4570 78 5900 VRB/03 RMK AO2 LTG DSNT E RAB13E26 P0000 T01720133                      
24015KAKO AKO20190705001012307/05/19 00:10:31  5-MIN KAKO 050710Z AUTO VRB03KT 10SM OVC100 18/13 A3008 4570 70 6000 VRB/03 RMK AO2 LTG DSNT W T01830128                                                 
24015KAKO AKO20190705001513907/05/19 00:15:31  5-MIN KAKO 050715Z AUTO 00000KT 10SM -RA OVC100 18/13 A3008 4570 72 6000 000/00 RMK AO2 LTG DSNT W RAB12 P0001 T01830133                                 
24015KAKO AKO20190705002515607/05/19 00:25:31  5-MIN KAKO 050725Z AUTO VRB04KT 10SM VCTS BKN100 19/12 A3007 4580 65 6100 VRB/04 RMK AO2 LTG DSNT N AND SE AND W RAB12E22 P0001 T01890122                
24015KAKO AKO20190705134011207/05/19 13:40:31  5-MIN KAKO 052040Z AUTO VRB05KT 10SM FEW028 24/17 A3021 4460 63 6500 VRB/05 RMK AO2 T02390167                                                            
24015KAKO AKO20190706023511207/06/19 02:35:31  5-MIN KAKO 060935Z AUTO 00000KT 10SM FEW075 13/13 A3030 4370 96 5200 000/00 RMK AO2 T01330128                                                            
24015KAKO AKO20190706025011907/06/19 02:50:31  5-MIN KAKO 060950Z AUTO 00000KT 10SM FEW075 13/12 A3030 4370 93 5200 000/00 RMK AO2 SLP215 T01330122                                                     
24015KAKO AKO20190706130011507/06/19 13:00:31  5-MIN KAKO 062000Z AUTO VRB06G14KT 10SM CLR 27/14 A3025 4420 45 6800 VRB/06G14 RMK AO2 T02670139                                                         
24015KAKO AKO20190708093011207/08/19 09:30:31  5-MIN KAKO 081630Z AUTO VRB06KT 10SM SCT037 24/17 A3000 4650 61 6800 VRB/06 RMK AO2 T02440167                                                            
24015KAKO AKO20190708093511207/08/19 09:35:31  5-MIN KAKO 081635Z AUTO VRB03KT 10SM SCT037 24/17 A2999 4650 61 6800 VRB/03 RMK AO2 T02440167                                                            
24015KAKO AKO20190708094011207/08/19 09:40:31  5-MIN KAKO 081640Z AUTO 00000KT 10SM FEW037 24/16 A2999 4650 59 6800 000/00 RMK AO2 T02440161                                                            
24015KAKO AKO20190708095510907/08/19 09:55:31  5-MIN KAKO 081655Z AUTO VRB04KT 10SM CLR 25/17 A2999 4660 59 6900 VRB/04 RMK AO2 T02500167                                                               
24015KAKO AKO20190708100011207/08/19 10:00:31  5-MIN KAKO 081700Z AUTO VRB03KT 10SM FEW039 25/17 A2999 4660 59 6900 VRB/03 RMK AO2 T02500167                                                            
24015KAKO AKO20190708100511207/08/19 10:05:31  5-MIN KAKO 081705Z AUTO VRB06KT 10SM FEW039 26/17 A2999 4660 59 6900 VRB/06 RMK AO2 T02560172                                                            
24015KAKO AKO20190708101511207/08/19 10:15:31  5-MIN KAKO 081715Z AUTO VRB04KT 10SM FEW039 24/16 A2999 4660 59 6800 VRB/04 RMK AO2 T02440161                                                            
24015KAKO AKO20190708104511207/08/19 10:45:31  5-MIN KAKO 081745Z AUTO VRB04KT 10SM FEW042 26/17 A2998 4670 55 7000 VRB/04 RMK AO2 T02610167                                                            
24015KAKO AKO20190708200510907/08/19 20:05:31  5-MIN KAKO 090305Z AUTO 00000KT 10SM CLR 17/16 A2997 4670 93 6000 000/00 RMK AO2 T01670156                                                               
24015KAKO AKO20190708201010907/08/19 20:10:31  5-MIN KAKO 090310Z AUTO 00000KT 10SM CLR 17/16 A2998 4670 93 6000 000/00 RMK AO2 T01670156                                                               
24015KAKO AKO20190708201510907/08/19 20:15:31  5-MIN KAKO 090315Z AUTO 00000KT 10SM CLR 17/16 A2998 4670 93 6000 000/00 RMK AO2 T01720161                                                               
24015KAKO AKO20190708203010907/08/19 20:30:31  5-MIN KAKO 090330Z AUTO 00000KT 10SM CLR 17/16 A2998 4670 96 6000 000/00 RMK AO2 T01670161                                                               
24015KAKO AKO20190708203510907/08/19 20:35:31  5-MIN KAKO 090335Z AUTO 00000KT 10SM CLR 17/16 A2998 4660 96 6000 000/00 RMK AO2 T01670161                                                               
24015KAKO AKO20190708204510907/08/19 20:45:31  5-MIN KAKO 090345Z AUTO 00000KT 10SM CLR 17/16 A2997 4670 93 6000 000/00 RMK AO2 T01670156                                                               
24015KAKO AKO20190708205011607/08/19 20:50:31  5-MIN KAKO 090350Z AUTO 00000KT 10SM CLR 17/16 A2997 4670 93 6000 000/00 RMK AO2 SLP098 T01670156                                                        
24015KAKO AKO20190708205510907/08/19 20:55:31  5-MIN KAKO 090355Z AUTO 00000KT 10SM CLR 17/16 A2998 4660 93 6000 000/00 RMK AO2 T01670156                                                               
24015KAKO AKO20190708210010907/08/19 21:00:31  5-MIN KAKO 090400Z AUTO 00000KT 10SM CLR 16/16 A2998 4660 96 5900 000/00 RMK AO2 T01610156                                                               
24015KAKO AKO20190708211011007/08/19 21:10:31  5-MIN KAKO 090410Z AUTO 00000KT 10SM CLR 16/16 A2999 4660 100 5800 000/00 RMK AO2 T01560156                                                              
24015KAKO AKO20190708223010907/08/19 22:30:31  5-MIN KAKO 090530Z AUTO VRB03KT 10SM CLR 16/14 A2998 4660 93 5800 VRB/03 RMK AO2 T01560144                                                               
24015KAKO AKO20190708224510907/08/19 22:45:31  5-MIN KAKO 090545Z AUTO 00000KT 10SM CLR 16/14 A2998 4670 93 5800 000/00 RMK AO2 T01560144                                                               
24015KAKO AKO20190708225014007/08/19 22:50:31  5-MIN KAKO 090550Z AUTO 00000KT 10SM CLR 16/14 A2999 4660 90 5900 000/00 RMK AO2 SLP097 60004 T01610144 10189 20150 53000                                
24015KAKO AKO20190708231510907/08/19 23:15:31  5-MIN KAKO 090615Z AUTO 00000KT 10SM CLR 15/14 A3000 4650 93 5700 000/00 RMK AO2 T01500139                                                               
24015KAKO AKO20190709001010907/09/19 00:10:31  5-MIN KAKO 090710Z AUTO 00000KT 10SM CLR 15/14 A3000 4650 93 5800 000/00 RMK AO2 T01500139                                                               
24015KAKO AKO20190709001510907/09/19 00:15:31  5-MIN KAKO 090715Z AUTO 00000KT 10SM CLR 14/14 A3000 4650 96 5700 000/00 RMK AO2 T01440139                                                               
24015KAKO AKO20190709002010907/09/19 00:20:31  5-MIN KAKO 090720Z AUTO 00000KT 10SM CLR 15/14 A3000 4640 93 5700 000/00 RMK AO2 T01500139                                                               
24015KAKO AKO20190709101010907/09/19 10:10:31  5-MIN KAKO 091710Z AUTO VRB04KT 10SM CLR 26/11 A3011 4550 38 6800 VRB/04 RMK AO2 T02560106                                                               
24015KAKO AKO20190709102510907/09/19 10:25:31  5-MIN KAKO 091725Z AUTO VRB05KT 10SM CLR 26/11 A3010 4550 38 6800 VRB/05 RMK AO2 T02560106                                                               
24015KAKO AKO20190709103010907/09/19 10:30:31  5-MIN KAKO 091730Z AUTO VRB05KT 10SM CLR 26/11 A3010 4550 38 6900 VRB/05 RMK AO2 T02610111                                                               
24015KAKO AKO20190709105013407/09/19 10:50:31  5-MIN KAKO 091750Z AUTO VRB04KT 10SM CLR 26/11 A3010 4550 38 6900 VRB/04 RMK AO2 SLP139 T02610111 10261 20139 53011                                      
24015KAKO AKO20190709110010907/09/19 11:00:31  5-MIN KAKO 091800Z AUTO VRB04KT 10SM CLR 27/11 A3010 4550 37 6900 VRB/04 RMK AO2 T02670111                                                               
24015KAKO AKO20190709111010907/09/19 11:10:31  5-MIN KAKO 091810Z AUTO VRB04KT 10SM CLR 27/10 A3010 4560 34 6900 VRB/04 RMK AO2 T02670100                                                               
24015KAKO AKO20190709112010907/09/19 11:20:31  5-MIN KAKO 091820Z AUTO 00000KT 10SM CLR 27/11 A3010 4560 36 6900 000/00 RMK AO2 T02670106                                                               
24015KAKO AKO20190709112510907/09/19 11:25:31  5-MIN KAKO 091825Z AUTO VRB04KT 10SM CLR 27/10 A3010 4560 34 6900 VRB/04 RMK AO2 T02670100                                                               
24015KAKO AKO20190709114010907/09/19 11:40:31  5-MIN KAKO 091840Z AUTO VRB03KT 10SM CLR 27/11 A3009 4560 34 7000 VRB/03 RMK AO2 T02720106                                                               
24015KAKO AKO20190709115011607/09/19 11:50:31  5-MIN KAKO 091850Z AUTO VRB03KT 10SM CLR 27/11 A3009 4560 36 7000 VRB/03 RMK AO2 SLP135 T02720111                                                        
24015KAKO AKO20190709115510907/09/19 11:55:31  5-MIN KAKO 091855Z AUTO VRB03KT 10SM CLR 28/10 A3009 4560 32 7100 VRB/03 RMK AO2 T02780100                                                               
24015KAKO AKO20190709120510907/09/19 12:05:31  5-MIN KAKO 091905Z AUTO VRB05KT 10SM CLR 28/11 A3009 4570 35 7100 VRB/05 RMK AO2 T02780111                                                               
24015KAKO AKO20190709121010907/09/19 12:10:31  5-MIN KAKO 091910Z AUTO VRB05KT 10SM CLR 28/11 A3009 4570 33 7100 VRB/05 RMK AO2 T02780106                                                               
24015KAKO AKO20190709121510907/09/19 12:15:31  5-MIN KAKO 091915Z AUTO 00000KT 10SM CLR 28/11 A3009 4570 35 7100 000/00 RMK AO2 T02780111                                                               
24015KAKO AKO20190709124510907/09/19 12:45:31  5-MIN KAKO 091945Z AUTO VRB06KT 10SM CLR 28/11 A3009 4570 33 7100 VRB/06 RMK AO2 T02780106                                                               
24015KAKO AKO20190709130511507/09/19 13:05:31  5-MIN KAKO 092005Z AUTO VRB05G15KT 10SM CLR 28/09 A3008 4570 30 7100 VRB/05G15 RMK AO2 T02830094                                                         
24015KAKO AKO20190709131010907/09/19 13:10:31  5-MIN KAKO 092010Z AUTO VRB05KT 10SM CLR 29/11 A3008 4570 31 7200 VRB/05 RMK AO2 T02890106                                                               
24015KAKO AKO20190709133010907/09/19 13:30:31  5-MIN KAKO 092030Z AUTO 00000KT 10SM CLR 29/09 A3008 4570 29 7200 000/00 RMK AO2 T02890094                                                               
24015KAKO AKO20190709141010907/09/19 14:10:31  5-MIN KAKO 092110Z AUTO 00000KT 10SM CLR 29/08 A3007 4580 26 7300 000/00 RMK AO2 T02940083                                                               
24015KAKO AKO20190709141510907/09/19 14:15:31  5-MIN KAKO 092115Z AUTO 00000KT 10SM CLR 29/08 A3007 4580 26 7300 000/00 RMK AO2 T02940083                                                               
24015KAKO AKO20190709142510907/09/19 14:25:31  5-MIN KAKO 092125Z AUTO VRB04KT 10SM CLR 30/09 A3007 4580 26 7300 VRB/04 RMK AO2 T03000089                                                               
24015KAKO AKO20190709144010907/09/19 14:40:31  5-MIN KAKO 092140Z AUTO VRB03KT 10SM CLR 29/08 A3007 4580 26 7300 VRB/03 RMK AO2 T02940083                                                               
24015KAKO AKO20190709144510907/09/19 14:45:31  5-MIN KAKO 092145Z AUTO VRB04KT 10SM CLR 30/10 A3007 4580 28 7300 VRB/04 RMK AO2 T03000100                                                               
24015KAKO AKO20190709150010907/09/19 15:00:31  5-MIN KAKO 092200Z AUTO VRB03KT 10SM CLR 30/09 A3007 4580 26 7300 VRB/03 RMK AO2 T03000089                                                               
24015KAKO AKO20190709150510907/09/19 15:05:31  5-MIN KAKO 092205Z AUTO 00000KT 10SM CLR 31/09 A3007 4580 26 7400 000/00 RMK AO2 T03060094                                                               
24015KAKO AKO20190709151010907/09/19 15:10:31  5-MIN KAKO 092210Z AUTO VRB04KT 10SM CLR 31/11 A3007 4580 28 7400 VRB/04 RMK AO2 T03060106                                                               
24015KAKO AKO20190709151510907/09/19 15:15:31  5-MIN KAKO 092215Z AUTO 00000KT 10SM CLR 31/09 A3007 4590 25 7400 000/00 RMK AO2 T03060089                                                               
24015KAKO AKO20190709152010907/09/19 15:20:31  5-MIN KAKO 092220Z AUTO 00000KT 10SM CLR 31/08 A3006 4590 24 7400 000/00 RMK AO2 T03060083                                                               
24015KAKO AKO20190709152510907/09/19 15:25:31  5-MIN KAKO 092225Z AUTO 00000KT 10SM CLR 31/09 A3006 4590 25 7500 000/00 RMK AO2 T03110094                                                               
24015KAKO AKO20190709153010907/09/19 15:30:31  5-MIN KAKO 092230Z AUTO 00000KT 10SM CLR 31/08 A3006 4590 24 7400 000/00 RMK AO2 T03060083                                                               
24015KAKO AKO20190709153510907/09/19 15:35:31  5-MIN KAKO 092235Z AUTO 00000KT 10SM CLR 31/09 A3006 4590 25 7400 000/00 RMK AO2 T03060089                                                               
24015KAKO AKO20190709154010907/09/19 15:40:31  5-MIN KAKO 092240Z AUTO 00000KT 10SM CLR 31/08 A3006 4590 24 7400 000/00 RMK AO2 T03060083                                                               
24015KAKO AKO20190709154510907/09/19 15:45:31  5-MIN KAKO 092245Z AUTO 00000KT 10SM CLR 31/09 A3006 4590 25 7500 000/00 RMK AO2 T03110094                                                               
24015KAKO AKO20190709160510907/09/19 16:05:31  5-MIN KAKO 092305Z AUTO 00000KT 10SM CLR 31/09 A3006 4590 26 7400 000/00 RMK AO2 T03060094                                                               
24015KAKO AKO20190709161010907/09/19 16:10:31  5-MIN KAKO 092310Z AUTO 00000KT 10SM CLR 31/07 A3006 4590 22 7500 000/00 RMK AO2 T03110072                                                               
24015KAKO AKO20190709161510907/09/19 16:15:31  5-MIN KAKO 092315Z AUTO 00000KT 10SM CLR 31/09 A3006 4590 24 7500 000/00 RMK AO2 T03110089                                                               
24015KAKO AKO20190709162010907/09/19 16:20:31  5-MIN KAKO 092320Z AUTO 00000KT 10SM CLR 31/09 A3006 4590 25 7400 000/00 RMK AO2 T03060089                                                               
24015KAKO AKO20190709162510907/09/19 16:25:31  5-MIN KAKO 092325Z AUTO VRB03KT 10SM CLR 31/07 A3006 4590 22 7400 VRB/03 RMK AO2 T03060072                                                               
24015KAKO AKO20190709163010907/09/19 16:30:31  5-MIN KAKO 092330Z AUTO 00000KT 10SM CLR 31/07 A3006 4590 22 7400 000/00 RMK AO2 T03060072                                                               
24015KAKO AKO20190709164010907/09/19 16:40:31  5-MIN KAKO 092340Z AUTO 00000KT 10SM CLR 31/08 A3006 4590 23 7400 000/00 RMK AO2 T03060078                                                               
24015KAKO AKO20190709164510907/09/19 16:45:31  5-MIN KAKO 092345Z AUTO 00000KT 10SM CLR 31/09 A3006 4590 26 7400 000/00 RMK AO2 T03060094                                                               
24015KAKO AKO20190709170510907/09/19 17:05:31  5-MIN KAKO 100005Z AUTO VRB04KT 10SM CLR 31/08 A3005 4600 24 7400 VRB/04 RMK AO2 T03060083                                                               
24015KAKO AKO20190709181010907/09/19 18:10:31  5-MIN KAKO 100110Z AUTO 00000KT 10SM CLR 29/12 A3007 4580 33 7300 000/00 RMK AO2 T02940117                                                               
24015KAKO AKO20190709191010907/09/19 19:10:31  5-MIN KAKO 100210Z AUTO 00000KT 10SM CLR 28/10 A3009 4570 32 7100 000/00 RMK AO2 T02780100                                                               
24015KAKO AKO20190709192010907/09/19 19:20:31  5-MIN KAKO 100220Z AUTO 00000KT 10SM CLR 27/10 A3009 4560 33 7000 000/00 RMK AO2 T02720100                                                               
24015KAKO AKO20190709193010907/09/19 19:30:31  5-MIN KAKO 100230Z AUTO VRB03KT 10SM CLR 23/13 A3009 4560 53 6600 VRB/03 RMK AO2 T02330133                                                               
24015KAKO AKO20190709193510907/09/19 19:35:31  5-MIN KAKO 100235Z AUTO 00000KT 10SM CLR 24/12 A3009 4560 47 6600 000/00 RMK AO2 T02390122                                                               
24015KAKO AKO20190710101010907/10/19 10:10:31  5-MIN KAKO 101710Z AUTO VRB05KT 10SM CLR 22/08 A3038 4290 42 6100 VRB/05 RMK AO2 T02170083                                                               
24015KAKO AKO20190710101510907/10/19 10:15:31  5-MIN KAKO 101715Z AUTO VRB03KT 10SM CLR 22/09 A3038 4290 43 6100 VRB/03 RMK AO2 T02170089                                                               
24015KAKO AKO20190710102010907/10/19 10:20:31  5-MIN KAKO 101720Z AUTO VRB04KT 10SM CLR 22/08 A3038 4290 40 6100 VRB/04 RMK AO2 T02220083                                                               
24015KAKO AKO20190710102510907/10/19 10:25:31  5-MIN KAKO 101725Z AUTO 00000KT 10SM CLR 22/08 A3038 4290 40 6100 000/00 RMK AO2 T02170078                                                               
24015KAKO AKO20190710103010907/10/19 10:30:31  5-MIN KAKO 101730Z AUTO 00000KT 10SM CLR 22/09 A3038 4300 42 6100 000/00 RMK AO2 T02220089                                                               
24015KAKO AKO20190710103510907/10/19 10:35:31  5-MIN KAKO 101735Z AUTO VRB05KT 10SM CLR 23/09 A3038 4300 40 6200 VRB/05 RMK AO2 T02280089                                                               
24015KAKO AKO20190710104510907/10/19 10:45:31  5-MIN KAKO 101745Z AUTO VRB03KT 10SM CLR 23/08 A3038 4300 37 6200 VRB/03 RMK AO2 T02280078                                                               
24015KAKO AKO20190710105510907/10/19 10:55:31  5-MIN KAKO 101755Z AUTO 00000KT 10SM CLR 23/08 A3038 4300 39 6200 000/00 RMK AO2 T02280083                                                               
24015KAKO AKO20190710110010907/10/19 11:00:31  5-MIN KAKO 101800Z AUTO 00000KT 10SM CLR 22/08 A3037 4300 40 6100 000/00 RMK AO2 T02220083                                                               
24015KAKO AKO20190710110510907/10/19 11:05:31  5-MIN KAKO 101805Z AUTO VRB04KT 10SM CLR 23/09 A3037 4300 39 6300 VRB/04 RMK AO2 T02330089                                                               
24015KAKO AKO20190710112010907/10/19 11:20:31  5-MIN KAKO 101820Z AUTO VRB05KT 10SM CLR 23/08 A3037 4310 36 6300 VRB/05 RMK AO2 T02330078                                                               
24015KAKO AKO20190710112510907/10/19 11:25:31  5-MIN KAKO 101825Z AUTO VRB04KT 10SM CLR 23/08 A3037 4310 36 6300 VRB/04 RMK AO2 T02330078                                                               
24015KAKO AKO20190710113510907/10/19 11:35:31  5-MIN KAKO 101835Z AUTO 00000KT 10SM CLR 23/08 A3036 4310 36 6300 000/00 RMK AO2 T02330078                                                               
24015KAKO AKO20190710114510907/10/19 11:45:31  5-MIN KAKO 101845Z AUTO 00000KT 10SM CLR 23/08 A3036 4310 36 6300 000/00 RMK AO2 T02330078                                                               
24015KAKO AKO20190710115510907/10/19 11:55:31  5-MIN KAKO 101855Z AUTO 00000KT 10SM CLR 24/08 A3036 4310 35 6300 000/00 RMK AO2 T02390078                                                               
24015KAKO AKO20190710120010907/10/19 12:00:31  5-MIN KAKO 101900Z AUTO VRB04KT 10SM CLR 24/09 A3036 4320 36 6400 VRB/04 RMK AO2 T02440089                                                               
24015KAKO AKO20190710121010907/10/19 12:10:31  5-MIN KAKO 101910Z AUTO VRB03KT 10SM CLR 24/08 A3036 4320 35 6400 VRB/03 RMK AO2 T02440083                                                               
24015KAKO AKO20190710122010907/10/19 12:20:31  5-MIN KAKO 101920Z AUTO 00000KT 10SM CLR 24/09 A3035 4320 36 6400 000/00 RMK AO2 T02440089                                                               
24015KAKO AKO20190710122510907/10/19 12:25:31  5-MIN KAKO 101925Z AUTO 00000KT 10SM CLR 24/08 A3035 4320 35 6400 000/00 RMK AO2 T02440083                                                               
24015KAKO AKO20190710123010907/10/19 12:30:31  5-MIN KAKO 101930Z AUTO VRB04KT 10SM CLR 25/09 A3035 4330 35 6500 VRB/04 RMK AO2 T02500089                                                               
24015KAKO AKO20190710124010907/10/19 12:40:31  5-MIN KAKO 101940Z AUTO VRB03KT 10SM CLR 24/08 A3034 4330 35 6400 VRB/03 RMK AO2 T02440083                                                               
24015KAKO AKO20190710125011607/10/19 12:50:31  5-MIN KAKO 101950Z AUTO 00000KT 10SM CLR 24/08 A3034 4330 34 6400 000/00 RMK AO2 SLP226 T02440078                                                        
24015KAKO AKO20190710125510907/10/19 12:55:31  5-MIN KAKO 101955Z AUTO 00000KT 10SM CLR 25/08 A3034 4330 34 6500 000/00 RMK AO2 T02500083                                                               
24015KAKO AKO20190710130010907/10/19 13:00:31  5-MIN KAKO 102000Z AUTO VRB04KT 10SM CLR 25/08 A3034 4330 34 6500 VRB/04 RMK AO2 T02500083                                                               
24015KAKO AKO20190710130510907/10/19 13:05:31  5-MIN KAKO 102005Z AUTO VRB05KT 10SM CLR 25/09 A3034 4330 35 6500 VRB/05 RMK AO2 T02500089                                                               
24015KAKO AKO20190710131510907/10/19 13:15:31  5-MIN KAKO 102015Z AUTO VRB05KT 10SM CLR 26/09 A3034 4330 35 6500 VRB/05 RMK AO2 T02560094                                                               
24015KAKO AKO20190710132010907/10/19 13:20:31  5-MIN KAKO 102020Z AUTO VRB03KT 10SM CLR 25/09 A3034 4340 35 6500 VRB/03 RMK AO2 T02500089                                                               
24015KAKO AKO20190710132510907/10/19 13:25:31  5-MIN KAKO 102025Z AUTO VRB03KT 10SM CLR 26/09 A3034 4340 35 6600 VRB/03 RMK AO2 T02560094                                                               
24015KAKO AKO20190710133010907/10/19 13:30:31  5-MIN KAKO 102030Z AUTO VRB04KT 10SM CLR 26/09 A3033 4340 34 6600 VRB/04 RMK AO2 T02610094                                                               
24015KAKO AKO20190710133510907/10/19 13:35:31  5-MIN KAKO 102035Z AUTO VRB04KT 10SM CLR 26/09 A3033 4340 35 6600 VRB/04 RMK AO2 T02560094                                                               
24015KAKO AKO20190710134010907/10/19 13:40:31  5-MIN KAKO 102040Z AUTO 00000KT 10SM CLR 26/09 A3033 4340 34 6600 000/00 RMK AO2 T02560089                                                               
24015KAKO AKO20190710140510907/10/19 14:05:31  5-MIN KAKO 102105Z AUTO VRB03KT 10SM CLR 26/09 A3033 4350 34 6600 VRB/03 RMK AO2 T02610094                                                               
24015KAKO AKO20190710141010907/10/19 14:10:31  5-MIN KAKO 102110Z AUTO VRB04KT 10SM CLR 26/10 A3032 4350 36 6600 VRB/04 RMK AO2 T02610100                                                               
24015KAKO AKO20190710143510907/10/19 14:35:31  5-MIN KAKO 102135Z AUTO 00000KT 10SM CLR 27/09 A3031 4360 33 6700 000/00 RMK AO2 T02670094                                                               
24015KAKO AKO20190710145510907/10/19 14:55:31  5-MIN KAKO 102155Z AUTO 00000KT 10SM CLR 27/08 A3031 4360 31 6700 000/00 RMK AO2 T02670083                                                               
24015KAKO AKO20190710151510907/10/19 15:15:31  5-MIN KAKO 102215Z AUTO 00000KT 10SM CLR 27/09 A3031 4360 33 6700 000/00 RMK AO2 T02670094                                                               
24015KAKO AKO20190710153010907/10/19 15:30:31  5-MIN KAKO 102230Z AUTO VRB04KT 10SM CLR 27/09 A3030 4370 33 6700 VRB/04 RMK AO2 T02670094                                                               
24015KAKO AKO20190710154010907/10/19 15:40:31  5-MIN KAKO 102240Z AUTO 00000KT 10SM CLR 27/09 A3030 4370 33 6700 000/00 RMK AO2 T02670094                                                               
24015KAKO AKO20190710155510907/10/19 15:55:31  5-MIN KAKO 102255Z AUTO VRB03KT 10SM CLR 27/09 A3030 4370 33 6700 VRB/03 RMK AO2 T02670094                                                               
24015KAKO AKO20190710161010907/10/19 16:10:31  5-MIN KAKO 102310Z AUTO 00000KT 10SM CLR 27/09 A3030 4370 31 6800 000/00 RMK AO2 T02720089                                                               
24015KAKO AKO20190710161510907/10/19 16:15:31  5-MIN KAKO 102315Z AUTO VRB06KT 10SM CLR 27/09 A3029 4380 32 6800 VRB/06 RMK AO2 T02720094                                                               
24015KAKO AKO20190710164010907/10/19 16:40:31  5-MIN KAKO 102340Z AUTO VRB04KT 10SM CLR 27/09 A3029 4380 31 6800 VRB/04 RMK AO2 T02720089                                                               
24015KAKO AKO20190711122510907/11/19 12:25:31  5-MIN KAKO 111925Z AUTO VRB03KT 10SM CLR 33/14 A3017 4490 31 7500 VRB/03 RMK AO2 T03280139                                                               
24015KAKO AKO20190711124010907/11/19 12:40:31  5-MIN KAKO 111940Z AUTO VRB04KT 10SM CLR 33/14 A3017 4490 31 7500 VRB/04 RMK AO2 T03280139                                                               
24015KAKO AKO20190711124510907/11/19 12:45:31  5-MIN KAKO 111945Z AUTO VRB06KT 10SM CLR 33/14 A3016 4500 31 7600 VRB/06 RMK AO2 T03330144                                                               
24015KAKO AKO20190711131510907/11/19 13:15:31  5-MIN KAKO 112015Z AUTO VRB03KT 10SM CLR 33/11 A3015 4500 25 7600 VRB/03 RMK AO2 T03330111                                                               
24015KAKO AKO20190711133510907/11/19 13:35:31  5-MIN KAKO 112035Z AUTO VRB05KT 10SM CLR 34/09 A3015 4510 21 7600 VRB/05 RMK AO2 T03390089                                                               
24015KAKO AKO20190711134510907/11/19 13:45:31  5-MIN KAKO 112045Z AUTO 00000KT 10SM CLR 34/09 A3015 4510 21 7700 000/00 RMK AO2 T03390089                                                               
24015KAKO AKO20190711135012207/11/19 13:50:31  5-MIN KAKO 112050Z AUTO VRB03KT 10SM CLR 34/09 A3015 4510 21 7700 VRB/03 RMK AO2 SLP142 T03390089 58016                                                  
24015KAKO AKO20190711135510907/11/19 13:55:31  5-MIN KAKO 112055Z AUTO VRB04KT 10SM CLR 34/10 A3015 4510 22 7700 VRB/04 RMK AO2 T03390100                                                               
24015KAKO AKO20190711140010907/11/19 14:00:31  5-MIN KAKO 112100Z AUTO VRB05KT 10SM CLR 34/10 A3014 4510 22 7700 VRB/05 RMK AO2 T03390100                                                               
24015KAKO AKO20190711141010907/11/19 14:10:31  5-MIN KAKO 112110Z AUTO VRB05KT 10SM CLR 34/08 A3014 4520 20 7700 VRB/05 RMK AO2 T03390083                                                               
24015KAKO AKO20190711142510907/11/19 14:25:31  5-MIN KAKO 112125Z AUTO 00000KT 10SM CLR 34/07 A3013 4520 18 7700 000/00 RMK AO2 T03390067                                                               
24015KAKO AKO20190711150010907/11/19 15:00:31  5-MIN KAKO 112200Z AUTO VRB03KT 10SM CLR 34/07 A3012 4530 18 7700 VRB/03 RMK AO2 T03440072                                                               
24015KAKO AKO20190711151510907/11/19 15:15:31  5-MIN KAKO 112215Z AUTO 00000KT 10SM CLR 34/07 A3011 4540 18 7700 000/00 RMK AO2 T03440072                                                               
24015KAKO AKO20190711154010907/11/19 15:40:31  5-MIN KAKO 112240Z AUTO 00000KT 10SM CLR 34/08 A3011 4550 20 7700 000/00 RMK AO2 T03390083                                                               
24015KAKO AKO20190711155011607/11/19 15:50:31  5-MIN KAKO 112250Z AUTO 00000KT 10SM CLR 34/09 A3011 4550 21 7700 000/00 RMK AO2 SLP128 T03390089                                                        
24015KAKO AKO20190711160010907/11/19 16:00:31  5-MIN KAKO 112300Z AUTO 00000KT 10SM CLR 34/08 A3010 4550 19 7700 000/00 RMK AO2 T03390078                                                               
24015KAKO AKO20190711161510907/11/19 16:15:31  5-MIN KAKO 112315Z AUTO 00000KT 10SM CLR 34/07 A3010 4550 19 7700 000/00 RMK AO2 T03390072                                                               
24015KAKO AKO20190711162010907/11/19 16:20:31  5-MIN KAKO 112320Z AUTO 00000KT 10SM CLR 34/07 A3010 4550 19 7700 000/00 RMK AO2 T03390072                                                               
24015KAKO AKO20190711164010907/11/19 16:40:31  5-MIN KAKO 112340Z AUTO 00000KT 10SM CLR 33/09 A3010 4560 22 7700 000/00 RMK AO2 T03330094                                                               
24015KAKO AKO20190711165013407/11/19 16:50:31  5-MIN KAKO 112350Z AUTO 00000KT 10SM CLR 33/11 A3010 4560 24 7700 000/00 RMK AO2 SLP122 T03330106 10344 20306 56016                                      
24015KAKO AKO20190711165510907/11/19 16:55:31  5-MIN KAKO 112355Z AUTO 00000KT 10SM CLR 34/09 A3009 4560 21 7700 000/00 RMK AO2 T03390089                                                               
24015KAKO AKO20190711170510907/11/19 17:05:31  5-MIN KAKO 120005Z AUTO 00000KT 10SM CLR 33/08 A3009 4560 21 7700 000/00 RMK AO2 T03330083                                                               
24015KAKO AKO20190711171010907/11/19 17:10:31  5-MIN KAKO 120010Z AUTO 00000KT 10SM CLR 33/11 A3009 4560 25 7600 000/00 RMK AO2 T03280106                                                               
24015KAKO AKO20190711171510907/11/19 17:15:31  5-MIN KAKO 120015Z AUTO 00000KT 10SM CLR 33/11 A3009 4560 25 7700 000/00 RMK AO2 T03330111                                                               
24015KAKO AKO20190711172010907/11/19 17:20:31  5-MIN KAKO 120020Z AUTO 00000KT 10SM CLR 33/11 A3009 4560 25 7700 000/00 RMK AO2 T03330111                                                               
24015KAKO AKO20190711172510907/11/19 17:25:31  5-MIN KAKO 120025Z AUTO 00000KT 10SM CLR 33/11 A3009 4560 25 7700 000/00 RMK AO2 T03330111                                                               
24015KAKO AKO20190711173010907/11/19 17:30:31  5-MIN KAKO 120030Z AUTO 00000KT 10SM CLR 33/12 A3009 4560 26 7700 000/00 RMK AO2 T03330117                                                               
24015KAKO AKO20190711173510907/11/19 17:35:31  5-MIN KAKO 120035Z AUTO 00000KT 10SM CLR 34/09 A3009 4560 22 7700 000/00 RMK AO2 T03390094                                                               
24015KAKO AKO20190711174010907/11/19 17:40:31  5-MIN KAKO 120040Z AUTO 00000KT 10SM CLR 34/07 A3009 4560 18 7700 000/00 RMK AO2 T03390067                                                               
24015KAKO AKO20190711181510907/11/19 18:15:31  5-MIN KAKO 120115Z AUTO 00000KT 10SM CLR 32/09 A3009 4560 25 7500 000/00 RMK AO2 T03170094                                                               
24015KAKO AKO20190712102510907/12/19 10:25:31  5-MIN KAKO 121725Z AUTO VRB06KT 10SM CLR 32/11 A3012 4540 27 7500 VRB/06 RMK AO2 T03170111                                                               
24015KAKO AKO20190712105013407/12/19 10:50:31  5-MIN KAKO 121750Z AUTO VRB05KT 10SM CLR 32/11 A3011 4540 27 7500 VRB/05 RMK AO2 SLP122 T03170111 10322 20183 51007                                      
24015KAKO AKO20190712112010907/12/19 11:20:31  5-MIN KAKO 121820Z AUTO 00000KT 10SM CLR 33/11 A3011 4540 26 7600 000/00 RMK AO2 T03280111                                                               
24015KAKO AKO20190712115011607/12/19 11:50:31  5-MIN KAKO 121850Z AUTO 00000KT 10SM CLR 33/10 A3010 4550 23 7600 000/00 RMK AO2 SLP117 T03330100                                                        
24015KAKO AKO20190712115510907/12/19 11:55:31  5-MIN KAKO 121855Z AUTO 00000KT 10SM CLR 33/10 A3010 4550 23 7600 000/00 RMK AO2 T03330100                                                               
24015KAKO AKO20190712120010907/12/19 12:00:31  5-MIN KAKO 121900Z AUTO VRB03KT 10SM CLR 33/11 A3010 4550 24 7600 VRB/03 RMK AO2 T03330106                                                               
24015KAKO AKO20190712120510907/12/19 12:05:31  5-MIN KAKO 121905Z AUTO VRB03KT 10SM CLR 33/10 A3010 4550 23 7600 VRB/03 RMK AO2 T03330100                                                               
24015KAKO AKO20190712121510907/12/19 12:15:31  5-MIN KAKO 121915Z AUTO VRB03KT 10SM CLR 34/11 A3010 4550 24 7700 VRB/03 RMK AO2 T03390111                                                               
24015KAKO AKO20190712122010907/12/19 12:20:31  5-MIN KAKO 121920Z AUTO 00000KT 10SM CLR 34/11 A3010 4550 24 7700 000/00 RMK AO2 T03390111                                                               
24015KAKO AKO20190712122510907/12/19 12:25:31  5-MIN KAKO 121925Z AUTO 00000KT 10SM CLR 33/10 A3010 4550 23 7600 000/00 RMK AO2 T03330100                                                               
24015KAKO AKO20190712123010907/12/19 12:30:31  5-MIN KAKO 121930Z AUTO VRB03KT 10SM CLR 34/10 A3010 4560 22 7700 VRB/03 RMK AO2 T03390100                                                               
24015KAKO AKO20190712125011607/12/19 12:50:31  5-MIN KAKO 121950Z AUTO 00000KT 10SM CLR 34/08 A3009 4560 19 7800 000/00 RMK AO2 SLP112 T03440083                                                        
24015KAKO AKO20190712130010907/12/19 13:00:31  5-MIN KAKO 122000Z AUTO 00000KT 10SM CLR 34/09 A3009 4560 20 7800 000/00 RMK AO2 T03440089                                                               
24015KAKO AKO20190712131010907/12/19 13:10:31  5-MIN KAKO 122010Z AUTO VRB03KT 10SM CLR 34/09 A3009 4570 21 7800 VRB/03 RMK AO2 T03440094                                                               
24015KAKO AKO20190712134010907/12/19 13:40:31  5-MIN KAKO 122040Z AUTO 00000KT 10SM CLR 34/11 A3007 4580 23 7800 000/00 RMK AO2 T03440106                                                               
24015KAKO AKO20190712134510907/12/19 13:45:31  5-MIN KAKO 122045Z AUTO 00000KT 10SM CLR 34/10 A3007 4580 22 7800 000/00 RMK AO2 T03440100                                                               
24015KAKO AKO20190712135012207/12/19 13:50:31  5-MIN KAKO 122050Z AUTO VRB04KT 10SM CLR 34/10 A3007 4580 22 7800 VRB/04 RMK AO2 SLP106 T03440100 58002                                                  
24015KAKO AKO20190712140510907/12/19 14:05:31  5-MIN KAKO 122105Z AUTO 00000KT 10SM CLR 34/09 A3006 4590 21 7800 000/00 RMK AO2 T03440094                                                               
24015KAKO AKO20190712141010907/12/19 14:10:31  5-MIN KAKO 122110Z AUTO VRB05KT 10SM CLR 35/11 A3006 4590 22 7900 VRB/05 RMK AO2 T03500106                                                               
24015KAKO AKO20190712142010907/12/19 14:20:31  5-MIN KAKO 122120Z AUTO 00000KT 10SM CLR 34/09 A3006 4590 20 7800 000/00 RMK AO2 T03440089                                                               
24015KAKO AKO20190712143010907/12/19 14:30:31  5-MIN KAKO 122130Z AUTO 00000KT 10SM CLR 34/09 A3006 4590 20 7800 000/00 RMK AO2 T03440089                                                               
24015KAKO AKO20190712144010907/12/19 14:40:31  5-MIN KAKO 122140Z AUTO VRB04KT 10SM CLR 35/09 A3005 4600 20 7900 VRB/04 RMK AO2 T03500094                                                               
24015KAKO AKO20190712145011607/12/19 14:50:31  5-MIN KAKO 122150Z AUTO 00000KT 10SM CLR 36/08 A3004 4600 18 7900 000/00 RMK AO2 SLP096 T03560083                                                        
24015KAKO AKO20190712152013907/12/19 15:20:31  5-MIN KAKO 122220Z AUTO 00000KT 10SM VCTS CLR 35/07 A3004 4610 17 7900 000/00 RMK AO2 LTG DSNT N AND NE AND SW T03500072                                 
24015KAKO AKO20190712214010907/12/19 21:40:31  5-MIN KAKO 130440Z AUTO 00000KT 10SM CLR 21/13 A3010 4550 58 6300 000/00 RMK AO2 T02110128                                                               
24015KAKO AKO20190712214510907/12/19 21:45:31  5-MIN KAKO 130445Z AUTO 00000KT 10SM CLR 20/13 A3010 4550 63 6200 000/00 RMK AO2 T02000128                                                               
24015KAKO AKO20190712215011607/12/19 21:50:31  5-MIN KAKO 130450Z AUTO 00000KT 10SM CLR 19/14 A3010 4560 70 6100 000/00 RMK AO2 SLP125 T01940139                                                        
24015KAKO AKO20190713102510907/13/19 10:25:31  5-MIN KAKO 131725Z AUTO VRB05KT 10SM CLR 33/13 A3012 4530 30 7600 VRB/05 RMK AO2 T03280133                                                               
24015KAKO AKO20190713103010907/13/19 10:30:31  5-MIN KAKO 131730Z AUTO VRB03KT 10SM CLR 32/13 A3012 4540 31 7500 VRB/03 RMK AO2 T03220133                                                               
24015KAKO AKO20190713104010907/13/19 10:40:31  5-MIN KAKO 131740Z AUTO VRB03KT 10SM CLR 32/13 A3012 4540 30 7500 VRB/03 RMK AO2 T03220128                                                               
24015KAKO AKO20190713105013407/13/19 10:50:31  5-MIN KAKO 131750Z AUTO VRB04KT 10SM CLR 33/13 A3012 4540 29 7600 VRB/04 RMK AO2 SLP126 T03280128 10328 20161 55000                                      
24015KAKO AKO20190713110010907/13/19 11:00:31  5-MIN KAKO 131800Z AUTO 00000KT 10SM CLR 33/13 A3012 4540 30 7600 000/00 RMK AO2 T03280133                                                               
24015KAKO AKO20190713110510907/13/19 11:05:31  5-MIN KAKO 131805Z AUTO VRB04KT 10SM CLR 33/13 A3012 4540 29 7600 VRB/04 RMK AO2 T03330133                                                               
24015KAKO AKO20190713111511507/13/19 11:15:31  5-MIN KAKO 131815Z AUTO VRB05G15KT 10SM CLR 34/13 A3012 4540 27 7700 VRB/05G15 RMK AO2 T03390128                                                         
24015KAKO AKO20190713115511207/13/19 11:55:31  5-MIN KAKO 131855Z AUTO 00000KT 10SM SCT110 32/13 A3011 4550 30 7500 000/00 RMK AO2 T03220128                                                            
24015KAKO AKO20190713120011207/13/19 12:00:31  5-MIN KAKO 131900Z AUTO 00000KT 10SM SCT110 33/12 A3011 4550 28 7600 000/00 RMK AO2 T03280122                                                            
24015KAKO AKO20190713120511207/13/19 12:05:31  5-MIN KAKO 131905Z AUTO 00000KT 10SM SCT110 33/12 A3011 4550 28 7600 000/00 RMK AO2 T03280122                                                            
24015KAKO AKO20190713121011207/13/19 12:10:31  5-MIN KAKO 131910Z AUTO 00000KT 10SM BKN110 33/12 A3011 4550 27 7600 000/00 RMK AO2 T03330122                                                            
24015KAKO AKO20190713121511207/13/19 12:15:31  5-MIN KAKO 131915Z AUTO 00000KT 10SM SCT100 34/12 A3011 4550 25 7700 000/00 RMK AO2 T03390117                                                            
24015KAKO AKO20190713122511207/13/19 12:25:31  5-MIN KAKO 131925Z AUTO VRB04KT 10SM BKN100 32/13 A3011 4550 31 7500 VRB/04 RMK AO2 T03170128                                                            
24015KAKO AKO20190714125011907/14/19 12:50:31  5-MIN KAKO 141950Z AUTO VRB05KT 10SM FEW100 34/12 A3010 4560 26 7700 VRB/05 RMK AO2 SLP116 T03390122                                                     
24015KAKO AKO20190714143015907/14/19 14:30:31  5-MIN KAKO 142130Z AUTO VRB03G15KT 10SM FEW090 FEW110 34/12 A3007 4580 25 7800 VRB/03G15 RMK AO2 LTG DSNT NE AND SE RAB03E19 P0000 T03440122             
24015KAKO AKO20190714144014307/14/19 14:40:31  5-MIN KAKO 142140Z AUTO 00000KT 10SM CLR 34/13 A3007 4580 26 7800 000/00 RMK AO2 LTG DSNT NE AND SE RAB03E19 P0000 T03440128                             
24015KAKO AKO20190714144514207/14/19 14:45:31  5-MIN KAKO 142145Z AUTO VRB03KT 10SM CLR 34/12 A3007 4580 24 7800 VRB/03 RMK AO2 LTG DSNT NE AND E RAB03E19 P0000 T03440117                              
24015KAKO AKO20190714152013007/14/19 15:20:31  5-MIN KAKO 142220Z AUTO VRB05KT 10SM BKN110 34/12 A3006 4590 25 7800 VRB/05 RMK AO2 LTG DSNT NE AND E T03440122                                          
24015KAKO AKO20190715022010907/15/19 02:20:31  5-MIN KAKO 150920Z AUTO 00000KT 10SM CLR 17/13 A3008 4570 78 5900 000/00 RMK AO2 T01720133                                                               
24015KAKO AKO20190715081010907/15/19 08:10:31  5-MIN KAKO 151510Z AUTO 00000KT 10SM CLR 26/14 A3009 4560 48 6900 000/00 RMK AO2 T02610144                                                               
24015KAKO AKO20190715084010907/15/19 08:40:31  5-MIN KAKO 151540Z AUTO 00000KT 10SM CLR 27/14 A3009 4560 46 6900 000/00 RMK AO2 T02670144                                                               
24015KAKO AKO20190715085011607/15/19 08:50:31  5-MIN KAKO 151550Z AUTO 00000KT 10SM CLR 28/14 A3009 4560 43 7100 000/00 RMK AO2 SLP124 T02780144                                                        
24015KAKO AKO20190715085510907/15/19 08:55:31  5-MIN KAKO 151555Z AUTO 00000KT 10SM CLR 28/14 A3009 4560 43 7100 000/00 RMK AO2 T02780144                                                               
24015KAKO AKO20190715090010907/15/19 09:00:31  5-MIN KAKO 151600Z AUTO 00000KT 10SM CLR 28/15 A3009 4560 43 7100 000/00 RMK AO2 T02830150                                                               
24015KAKO AKO20190715090510907/15/19 09:05:31  5-MIN KAKO 151605Z AUTO 00000KT 10SM CLR 28/15 A3009 4560 45 7100 000/00 RMK AO2 T02780150                                                               
24015KAKO AKO20190715091010907/15/19 09:10:31  5-MIN KAKO 151610Z AUTO 00000KT 10SM CLR 28/15 A3009 4560 43 7100 000/00 RMK AO2 T02830150                                                               
24015KAKO AKO20190715092010907/15/19 09:20:31  5-MIN KAKO 151620Z AUTO 00000KT 10SM CLR 28/14 A3009 4570 42 7100 000/00 RMK AO2 T02830144                                                               
24015KAKO AKO20190715092510907/15/19 09:25:31  5-MIN KAKO 151625Z AUTO 00000KT 10SM CLR 29/15 A3009 4570 42 7200 000/00 RMK AO2 T02890150                                                               
24015KAKO AKO20190715093010907/15/19 09:30:31  5-MIN KAKO 151630Z AUTO VRB03KT 10SM CLR 29/16 A3009 4570 44 7200 VRB/03 RMK AO2 T02890156                                                               
24015KAKO AKO20190715094010907/15/19 09:40:31  5-MIN KAKO 151640Z AUTO 00000KT 10SM CLR 29/16 A3008 4570 42 7300 000/00 RMK AO2 T02940156                                                               
24015KAKO AKO20190715094510907/15/19 09:45:31  5-MIN KAKO 151645Z AUTO VRB04KT 10SM CLR 30/15 A3008 4570 39 7300 VRB/04 RMK AO2 T03000150                                                               
24015KAKO AKO20190715095011607/15/19 09:50:31  5-MIN KAKO 151650Z AUTO VRB03KT 10SM CLR 29/14 A3008 4570 39 7300 VRB/03 RMK AO2 SLP118 T02940144                                                        
24015KAKO AKO20190715100010907/15/19 10:00:31  5-MIN KAKO 151700Z AUTO VRB03KT 10SM CLR 29/15 A3008 4570 41 7300 VRB/03 RMK AO2 T02940150                                                               
24015KAKO AKO20190715101010907/15/19 10:10:31  5-MIN KAKO 151710Z AUTO VRB03KT 10SM CLR 29/15 A3008 4570 41 7300 VRB/03 RMK AO2 T02940150                                                               
24015KAKO AKO20190715103010907/15/19 10:30:31  5-MIN KAKO 151730Z AUTO VRB04KT 10SM CLR 31/15 A3008 4570 38 7400 VRB/04 RMK AO2 T03060150                                                               
24015KAKO AKO20190715103510907/15/19 10:35:31  5-MIN KAKO 151735Z AUTO VRB04KT 10SM CLR 31/15 A3009 4570 38 7400 VRB/04 RMK AO2 T03060150                                                               
24015KAKO AKO20190715105510907/15/19 10:55:31  5-MIN KAKO 151755Z AUTO VRB05KT 10SM CLR 31/14 A3009 4570 35 7400 VRB/05 RMK AO2 T03110144                                                               
24015KAKO AKO20190715110510907/15/19 11:05:31  5-MIN KAKO 151805Z AUTO 00000KT 10SM CLR 31/14 A3008 4570 34 7400 000/00 RMK AO2 T03110139                                                               
24015KAKO AKO20190715112010907/15/19 11:20:31  5-MIN KAKO 151820Z AUTO VRB04KT 10SM CLR 32/15 A3008 4570 36 7500 VRB/04 RMK AO2 T03170150                                                               
24015KAKO AKO20190715112510907/15/19 11:25:31  5-MIN KAKO 151825Z AUTO VRB03KT 10SM CLR 31/14 A3008 4570 35 7400 VRB/03 RMK AO2 T03110144                                                               
24015KAKO AKO20190715113010907/15/19 11:30:31  5-MIN KAKO 151830Z AUTO 00000KT 10SM CLR 31/15 A3008 4570 37 7400 000/00 RMK AO2 T03110150                                                               
24015KAKO AKO20190715115011607/15/19 11:50:31  5-MIN KAKO 151850Z AUTO 00000KT 10SM CLR 31/14 A3008 4570 35 7400 000/00 RMK AO2 SLP117 T03110144                                                        
24015KAKO AKO20190715121510907/15/19 12:15:31  5-MIN KAKO 151915Z AUTO 00000KT 10SM CLR 32/14 A3008 4580 33 7600 000/00 RMK AO2 T03220144                                                               
24015KAKO AKO20190715122510907/15/19 12:25:31  5-MIN KAKO 151925Z AUTO VRB04KT 10SM CLR 32/15 A3007 4580 34 7600 VRB/04 RMK AO2 T03220150                                                               
24015KAKO AKO20190715125511207/15/19 12:55:31  5-MIN KAKO 151955Z AUTO 00000KT 10SM FEW080 32/13 A3007 4580 31 7600 000/00 RMK AO2 T03220133                                                            
24015KAKO AKO20190715133510907/15/19 13:35:31  5-MIN KAKO 152035Z AUTO VRB05KT 10SM CLR 32/14 A3006 4590 33 7600 VRB/05 RMK AO2 T03220144                                                               
24015KAKO AKO20190715135012207/15/19 13:50:31  5-MIN KAKO 152050Z AUTO VRB05KT 10SM CLR 33/14 A3006 4590 31 7600 VRB/05 RMK AO2 SLP109 T03280139 55002                                                  
24015KAKO AKO20190715140510907/15/19 14:05:31  5-MIN KAKO 152105Z AUTO VRB05KT 10SM CLR 33/14 A3005 4600 31 7700 VRB/05 RMK AO2 T03330144                                                               
24015KAKO AKO20190715141511507/15/19 14:15:31  5-MIN KAKO 152115Z AUTO VRB04G14KT 10SM CLR 33/14 A3005 4600 30 7700 VRB/04G14 RMK AO2 T03330139                                                         
24015KAKO AKO20190715142010907/15/19 14:20:31  5-MIN KAKO 152120Z AUTO VRB04KT 10SM CLR 33/13 A3005 4600 29 7700 VRB/04 RMK AO2 T03330133                                                               
24015KAKO AKO20190715192017707/15/19 19:20:31  5-MIN KAKO 160220Z AUTO VRB04KT 10SM TS SCT018 BKN095 18/16 A3013 4530 84 6000 VRB/04 RMK AO2 PK WND 28032/0153 WSHFT 0139 LTG DSNT NE-S RAE17 P0052 T018
24015KAKO AKO20190718005011607/18/19 00:50:31  5-MIN KAKO 180750Z AUTO 00000KT 10SM CLR 22/11 A2995 4690 49 6600 000/00 RMK AO2 SLP074 T02170106                                                        
24015KAKO AKO20190718010010907/18/19 01:00:31  5-MIN KAKO 180800Z AUTO 00000KT 10SM CLR 19/11 A2995 4690 58 6300 000/00 RMK AO2 T01940111                                                               
24015KAKO AKO20190718110010907/18/19 11:00:31  5-MIN KAKO 181800Z AUTO VRB04KT 10SM CLR 33/08 A2995 4700 20 7800 VRB/04 RMK AO2 T03330078                                                               
24015KAKO AKO20190718110510907/18/19 11:05:31  5-MIN KAKO 181805Z AUTO VRB03KT 10SM CLR 33/07 A2994 4700 18 7800 VRB/03 RMK AO2 T03330067                                                               
24015KAKO AKO20190718113510907/18/19 11:35:31  5-MIN KAKO 181835Z AUTO VRB04KT 10SM CLR 33/07 A2994 4700 18 7800 VRB/04 RMK AO2 T03330067                                                               
24015KAKO AKO20190718115510907/18/19 11:55:31  5-MIN KAKO 181855Z AUTO VRB06KT 10SM CLR 34/07 A2993 4710 18 7900 VRB/06 RMK AO2 T03390067                                                               
24015KAKO AKO20190718122010907/18/19 12:20:31  5-MIN KAKO 181920Z AUTO VRB03KT 10SM CLR 35/06 A2992 4720 15 8000 VRB/03 RMK AO2 T03500056                                                               
24015KAKO AKO20190718122510907/18/19 12:25:31  5-MIN KAKO 181925Z AUTO VRB04KT 10SM CLR 35/06 A2992 4720 16 8000 VRB/04 RMK AO2 T03500061                                                               
24015KAKO AKO20190718123010907/18/19 12:30:31  5-MIN KAKO 181930Z AUTO 00000KT 10SM CLR 35/03 A2992 4720 13 8000 000/00 RMK AO2 T03500033                                                               
24015KAKO AKO20190718124010907/18/19 12:40:31  5-MIN KAKO 181940Z AUTO 00000KT 10SM CLR 35/02 A2992 4720 12 8000 000/00 RMK AO2 T03500017                                                               
24015KAKO AKO20190718124510907/18/19 12:45:31  5-MIN KAKO 181945Z AUTO VRB03KT 10SM CLR 35/03 A2992 4720 13 8000 VRB/03 RMK AO2 T03500028                                                               
24015KAKO AKO20190718131510907/18/19 13:15:31  5-MIN KAKO 182015Z AUTO VRB03KT 10SM CLR 35/06 A2991 4730 15 8000 VRB/03 RMK AO2 T03500056                                                               
24015KAKO AKO20190718132010907/18/19 13:20:31  5-MIN KAKO 182020Z AUTO VRB03KT 10SM CLR 36/05 A2991 4730 14 8100 VRB/03 RMK AO2 T03560050                                                               
24015KAKO AKO20190718133010907/18/19 13:30:31  5-MIN KAKO 182030Z AUTO VRB04KT 10SM CLR 36/03 A2991 4730 13 8100 VRB/04 RMK AO2 T03560033                                                               
24015KAKO AKO20190718141510907/18/19 14:15:31  5-MIN KAKO 182115Z AUTO VRB06KT 10SM CLR 36/04 A2990 4740 14 8100 VRB/06 RMK AO2 T03560044                                                               
24015KAKO AKO20190718182510907/18/19 18:25:31  5-MIN KAKO 190125Z AUTO 00000KT 10SM CLR 33/09 A2986 4770 22 7900 000/00 RMK AO2 T03330094                                                               
24015KAKO AKO20190718183010907/18/19 18:30:31  5-MIN KAKO 190130Z AUTO 00000KT 10SM CLR 33/10 A2986 4770 24 7900 000/00 RMK AO2 T03280100                                                               
24015KAKO AKO20190718183510907/18/19 18:35:31  5-MIN KAKO 190135Z AUTO 00000KT 10SM CLR 33/09 A2986 4770 23 7900 000/00 RMK AO2 T03280094                                                               
24015KAKO AKO20190718190010907/18/19 19:00:31  5-MIN KAKO 190200Z AUTO 00000KT 10SM CLR 31/08 A2986 4770 23 7700 000/00 RMK AO2 T03110078                                                               
24015KAKO AKO20190719123510907/19/19 12:35:31  5-MIN KAKO 191935Z AUTO VRB05KT 10SM CLR 36/05 A2991 4730 14 8100 VRB/05 RMK AO2 T03560050                                                               
24015KAKO AKO20190719125510907/19/19 12:55:31  5-MIN KAKO 191955Z AUTO VRB03KT 10SM CLR 36/05 A2990 4740 14 8100 VRB/03 RMK AO2 T03560050                                                               
24015KAKO AKO20190720051510907/20/19 05:15:31  5-MIN KAKO 201215Z AUTO VRB03KT 10SM CLR 21/19 A2990 4740 87 6600 VRB/03 RMK AO2 T02110189                                                               
24015KAKO AKO20190721015511207/21/19 01:55:31  5-MIN KAKO 210855Z AUTO 00000KT 10SM BKN009 18/17 A3010 4550 90 6000 000/00 RMK AO2 T01830167                                                            
24015KAKO AKO20190721095511207/21/19 09:55:31  5-MIN KAKO 211655Z AUTO VRB06KT 10SM SCT019 22/16 A3020 4460 68 6300 VRB/06 RMK AO2 T02220161                                                            
24015KAKO AKO20190721130511207/21/19 13:05:31  5-MIN KAKO 212005Z AUTO VRB04KT 10SM FEW032 25/16 A3020 4460 55 6600 VRB/04 RMK AO2 T02500156                                                            
24015KAKO AKO20190721134510907/21/19 13:45:31  5-MIN KAKO 212045Z AUTO 00000KT 10SM CLR 26/16 A3020 4460 53 6700 000/00 RMK AO2 T02560156                                                               
24015KAKO AKO20190721142511207/21/19 14:25:31  5-MIN KAKO 212125Z AUTO VRB05KT 10SM FEW039 27/15 A3021 4460 48 6800 VRB/05 RMK AO2 T02670150                                                            
24015KAKO AKO20190721143511207/21/19 14:35:31  5-MIN KAKO 212135Z AUTO 00000KT 10SM SCT040 27/16 A3021 4460 50 6800 000/00 RMK AO2 T02670156                                                            
24015KAKO AKO20190721145011907/21/19 14:50:31  5-MIN KAKO 212150Z AUTO VRB05KT 10SM BKN042 26/15 A3021 4460 51 6700 VRB/05 RMK AO2 SLP173 T02560150                                                     
24015KAKO AKO20190721151511207/21/19 15:15:31  5-MIN KAKO 212215Z AUTO VRB05KT 10SM SCT042 27/16 A3020 4460 48 6900 VRB/05 RMK AO2 T02720156                                                            
24015KAKO AKO20190721152511807/21/19 15:25:31  5-MIN KAKO 212225Z AUTO VRB06G16KT 10SM BKN045 27/16 A3021 4460 50 6800 VRB/06G16 RMK AO2 T02670156                                                      
24015KAKO AKO20190724082510907/24/19 08:25:31  5-MIN KAKO 241525Z AUTO VRB03KT 10SM CLR 26/13 A3019 4470 44 6800 VRB/03 RMK AO2 T02610133                                                               
24015KAKO AKO20190724083010907/24/19 08:30:31  5-MIN KAKO 241530Z AUTO VRB03KT 10SM CLR 26/13 A3018 4480 44 6800 VRB/03 RMK AO2 T02610133                                                               
24015KAKO AKO20190724083510907/24/19 08:35:31  5-MIN KAKO 241535Z AUTO 00000KT 10SM CLR 27/13 A3018 4480 43 6800 000/00 RMK AO2 T02670133                                                               
24015KAKO AKO20190724084010907/24/19 08:40:31  5-MIN KAKO 241540Z AUTO 00000KT 10SM CLR 27/14 A3018 4480 43 6900 000/00 RMK AO2 T02720139                                                               
24015KAKO AKO20190724084510907/24/19 08:45:31  5-MIN KAKO 241545Z AUTO 00000KT 10SM CLR 27/13 A3018 4480 43 6800 000/00 RMK AO2 T02670133                                                               
24015KAKO AKO20190724085510907/24/19 08:55:31  5-MIN KAKO 241555Z AUTO 00000KT 10SM CLR 27/13 A3018 4480 42 6900 000/00 RMK AO2 T02720133                                                               
24015KAKO AKO20190724090010907/24/19 09:00:31  5-MIN KAKO 241600Z AUTO 00000KT 10SM CLR 28/13 A3018 4480 40 7000 000/00 RMK AO2 T02780133                                                               
24015KAKO AKO20190724090510907/24/19 09:05:31  5-MIN KAKO 241605Z AUTO 00000KT 10SM CLR 27/13 A3018 4480 42 6900 000/00 RMK AO2 T02720133                                                               
24015KAKO AKO20190724091510907/24/19 09:15:31  5-MIN KAKO 241615Z AUTO 00000KT 10SM CLR 28/13 A3017 4490 40 7000 000/00 RMK AO2 T02780133                                                               
24015KAKO AKO20190724092010907/24/19 09:20:31  5-MIN KAKO 241620Z AUTO 00000KT 10SM CLR 28/14 A3017 4490 42 7000 000/00 RMK AO2 T02780139                                                               
24015KAKO AKO20190724092510907/24/19 09:25:31  5-MIN KAKO 241625Z AUTO VRB04KT 10SM CLR 29/14 A3017 4490 39 7100 VRB/04 RMK AO2 T02890139                                                               
24015KAKO AKO20190724093010907/24/19 09:30:31  5-MIN KAKO 241630Z AUTO VRB04KT 10SM CLR 29/14 A3017 4490 39 7100 VRB/04 RMK AO2 T02890139                                                               
24015KAKO AKO20190724093510907/24/19 09:35:31  5-MIN KAKO 241635Z AUTO VRB03KT 10SM CLR 29/13 A3017 4490 38 7100 VRB/03 RMK AO2 T02890133                                                               
24015KAKO AKO20190724100511507/24/19 10:05:31  5-MIN KAKO 241705Z AUTO VRB04G15KT 10SM CLR 30/13 A3016 4500 35 7200 VRB/04G15 RMK AO2 T03000133                                                         
24015KAKO AKO20190724103510907/24/19 10:35:31  5-MIN KAKO 241735Z AUTO VRB04KT 10SM CLR 31/13 A3015 4510 33 7400 VRB/04 RMK AO2 T03110133                                                               
24015KAKO AKO20190724111010907/24/19 11:10:31  5-MIN KAKO 241810Z AUTO VRB05KT 10SM CLR 32/13 A3014 4520 30 7500 VRB/05 RMK AO2 T03220128                                                               
24015KAKO AKO20190724112511507/24/19 11:25:31  5-MIN KAKO 241825Z AUTO VRB05G16KT 10SM CLR 33/11 A3013 4520 25 7600 VRB/05G16 RMK AO2 T03330111                                                         
24015KAKO AKO20190724114010907/24/19 11:40:31  5-MIN KAKO 241840Z AUTO VRB04KT 10SM CLR 33/12 A3013 4530 26 7600 VRB/04 RMK AO2 T03330117                                                               
24015KAKO AKO20190724121511507/24/19 12:15:31  5-MIN KAKO 241915Z AUTO VRB03G14KT 10SM CLR 34/11 A3011 4540 24 7700 VRB/03G14 RMK AO2 T03390111                                                         
24015KAKO AKO20190724122010907/24/19 12:20:31  5-MIN KAKO 241920Z AUTO 00000KT 10SM CLR 33/11 A3011 4540 25 7600 000/00 RMK AO2 T03330111                                                               
24015KAKO AKO20190724185516407/24/19 18:55:31  5-MIN KAKO 250155Z AUTO VRB06G19KT 5SM +TSRA FEW060 FEW075 OVC100 26/13 A3011 4550 44 6900 VRB/06G19 RMK AO2 LTG DSNT E-SW PRESRR P0002 T02610133        
24015KAKO AKO20190724190015507/24/19 19:00:31  5-MIN KAKO 250200Z AUTO 00000KT 3SM TSRA FEW055 OVC095 24/15 A3013 4530 55 6700 000/00 RMK AO2 LTG DSNT SE AND SW PRESRR P0003 T02440150                 
24015KAKO AKO20190725021012407/25/19 02:10:31  5-MIN KAKO 250910Z AUTO 00000KT 10SM OVC100 22/13 A3010 4560 56 6400 000/00 RMK AO2 RAE09 P0000 T02220133                                                
24015KAKO AKO20190725022512407/25/19 02:25:31  5-MIN KAKO 250925Z AUTO VRB03KT 10SM OVC110 21/16 A3010 4550 70 6300 VRB/03 RMK AO2 RAE09 P0000 T02110156                                                
24015KAKO AKO20190725040010907/25/19 04:00:31  5-MIN KAKO 251100Z AUTO VRB03KT 10SM CLR 18/14 A3011 4540 78 6000 VRB/03 RMK AO2 T01830144                                                               
24015KAKO AKO20190725043010907/25/19 04:30:31  5-MIN KAKO 251130Z AUTO 00000KT 10SM CLR 17/14 A3011 4540 83 5900 000/00 RMK AO2 T01720144                                                               
24015KAKO AKO20190725043510907/25/19 04:35:31  5-MIN KAKO 251135Z AUTO 00000KT 10SM CLR 17/14 A3012 4540 83 5900 000/00 RMK AO2 T01720144                                                               
24015KAKO AKO20190725052010907/25/19 05:20:31  5-MIN KAKO 251220Z AUTO 00000KT 10SM CLR 17/14 A3013 4530 83 5900 000/00 RMK AO2 T01720144                                                               
24015KAKO AKO20190725053010907/25/19 05:30:31  5-MIN KAKO 251230Z AUTO 00000KT 10SM CLR 17/15 A3013 4530 87 5900 000/00 RMK AO2 T01720150                                                               
24015KAKO AKO20190725053510907/25/19 05:35:31  5-MIN KAKO 251235Z AUTO 00000KT 10SM CLR 17/15 A3013 4530 87 5900 000/00 RMK AO2 T01720150                                                               
24015KAKO AKO20190725113510907/25/19 11:35:31  5-MIN KAKO 251835Z AUTO VRB03KT 10SM CLR 29/13 A3014 4510 36 7100 VRB/03 RMK AO2 T02890128                                                               
24015KAKO AKO20190725122010907/25/19 12:20:31  5-MIN KAKO 251920Z AUTO VRB03KT 10SM CLR 29/12 A3013 4530 34 7200 VRB/03 RMK AO2 T02940122                                                               
24015KAKO AKO20190725122510907/25/19 12:25:31  5-MIN KAKO 251925Z AUTO 00000KT 10SM CLR 30/13 A3013 4530 34 7300 000/00 RMK AO2 T03000128                                                               
24015KAKO AKO20190725124010907/25/19 12:40:31  5-MIN KAKO 251940Z AUTO 00000KT 10SM CLR 31/13 A3012 4530 34 7300 000/00 RMK AO2 T03060133                                                               
24015KAKO AKO20190725124510907/25/19 12:45:31  5-MIN KAKO 251945Z AUTO VRB03KT 10SM CLR 31/13 A3012 4530 33 7400 VRB/03 RMK AO2 T03110133                                                               
24015KAKO AKO20190725125011607/25/19 12:50:31  5-MIN KAKO 251950Z AUTO VRB04KT 10SM CLR 31/13 A3012 4530 33 7400 VRB/04 RMK AO2 SLP130 T03110133                                                        
24015KAKO AKO20190725125510907/25/19 12:55:31  5-MIN KAKO 251955Z AUTO VRB03KT 10SM CLR 31/13 A3012 4540 32 7400 VRB/03 RMK AO2 T03110128                                                               
24015KAKO AKO20190725130010907/25/19 13:00:31  5-MIN KAKO 252000Z AUTO VRB03KT 10SM CLR 31/13 A3012 4540 32 7400 VRB/03 RMK AO2 T03110128                                                               
24015KAKO AKO20190725131010907/25/19 13:10:31  5-MIN KAKO 252010Z AUTO 00000KT 10SM CLR 31/13 A3011 4540 33 7300 000/00 RMK AO2 T03060128                                                               
24015KAKO AKO20190725132010907/25/19 13:20:31  5-MIN KAKO 252020Z AUTO 00000KT 10SM CLR 31/13 A3011 4540 32 7400 000/00 RMK AO2 T03110128                                                               
24015KAKO AKO20190725133510907/25/19 13:35:31  5-MIN KAKO 252035Z AUTO VRB03KT 10SM CLR 31/13 A3011 4540 32 7400 VRB/03 RMK AO2 T03110128                                                               
24015KAKO AKO20190725154510907/25/19 15:45:31  5-MIN KAKO 252245Z AUTO VRB04KT 10SM CLR 31/13 A3010 4550 32 7400 VRB/04 RMK AO2 T03110128                                                               
24015KAKO AKO20190725161510907/25/19 16:15:31  5-MIN KAKO 252315Z AUTO VRB03KT 10SM CLR 31/12 A3009 4560 31 7400 VRB/03 RMK AO2 T03110122                                                               
24015KAKO AKO20190725164010907/25/19 16:40:31  5-MIN KAKO 252340Z AUTO VRB03KT 10SM CLR 31/12 A3009 4570 31 7400 VRB/03 RMK AO2 T03110122                                                               
24015KAKO AKO20190725173010907/25/19 17:30:31  5-MIN KAKO 260030Z AUTO 00000KT 10SM CLR 30/12 A3009 4560 33 7300 000/00 RMK AO2 T03000122                                                               
24015KAKO AKO20190725173510907/25/19 17:35:31  5-MIN KAKO 260035Z AUTO 00000KT 10SM CLR 30/12 A3009 4560 33 7300 000/00 RMK AO2 T03000122                                                               
24015KAKO AKO20190725174010907/25/19 17:40:31  5-MIN KAKO 260040Z AUTO 00000KT 10SM CLR 30/12 A3010 4560 31 7300 000/00 RMK AO2 T03000117                                                               
24015KAKO AKO20190725174511207/25/19 17:45:31  5-MIN KAKO 260045Z AUTO 00000KT 10SM FEW120 30/13 A3010 4560 35 7300 000/00 RMK AO2 T03000133                                                            
24015KAKO AKO20190726074010907/26/19 07:40:31  5-MIN KAKO 261440Z AUTO VRB03KT 10SM CLR 25/14 A3015 4500 49 6700 VRB/03 RMK AO2 T02500139                                                               
24015KAKO AKO20190726074510907/26/19 07:45:31  5-MIN KAKO 261445Z AUTO 00000KT 10SM CLR 26/14 A3016 4500 48 6800 000/00 RMK AO2 T02560139                                                               
24015KAKO AKO20190726075510907/26/19 07:55:31  5-MIN KAKO 261455Z AUTO 00000KT 10SM CLR 26/14 A3016 4500 48 6800 000/00 RMK AO2 T02610144                                                               
24015KAKO AKO20190726080010907/26/19 08:00:31  5-MIN KAKO 261500Z AUTO 00000KT 10SM CLR 26/14 A3016 4500 46 6800 000/00 RMK AO2 T02610139                                                               
24015KAKO AKO20190726081510907/26/19 08:15:31  5-MIN KAKO 261515Z AUTO 00000KT 10SM CLR 27/14 A3016 4500 43 6900 000/00 RMK AO2 T02720139                                                               
24015KAKO AKO20190726083510907/26/19 08:35:31  5-MIN KAKO 261535Z AUTO 00000KT 10SM CLR 28/13 A3016 4500 40 7000 000/00 RMK AO2 T02780133                                                               
24015KAKO AKO20190726084010907/26/19 08:40:31  5-MIN KAKO 261540Z AUTO 00000KT 10SM CLR 28/14 A3016 4500 40 7000 000/00 RMK AO2 T02830139                                                               
24015KAKO AKO20190726084510907/26/19 08:45:31  5-MIN KAKO 261545Z AUTO 00000KT 10SM CLR 28/13 A3016 4500 39 7000 000/00 RMK AO2 T02830133                                                               
24015KAKO AKO20190726085011607/26/19 08:50:31  5-MIN KAKO 261550Z AUTO 00000KT 10SM CLR 29/13 A3016 4500 38 7100 000/00 RMK AO2 SLP144 T02890133                                                        
24015KAKO AKO20190726085510907/26/19 08:55:31  5-MIN KAKO 261555Z AUTO 00000KT 10SM CLR 29/14 A3016 4500 38 7200 000/00 RMK AO2 T02940139                                                               
24015KAKO AKO20190726090010907/26/19 09:00:31  5-MIN KAKO 261600Z AUTO 00000KT 10SM CLR 29/14 A3016 4500 38 7200 000/00 RMK AO2 T02940139                                                               
24015KAKO AKO20190726090510907/26/19 09:05:31  5-MIN KAKO 261605Z AUTO VRB03KT 10SM CLR 29/14 A3016 4500 38 7200 VRB/03 RMK AO2 T02940139                                                               
24015KAKO AKO20190726092010907/26/19 09:20:31  5-MIN KAKO 261620Z AUTO VRB04KT 10SM CLR 30/13 A3016 4490 34 7200 VRB/04 RMK AO2 T03000128                                                               
24015KAKO AKO20190726094510907/26/19 09:45:31  5-MIN KAKO 261645Z AUTO VRB04KT 10SM CLR 30/13 A3016 4500 35 7200 VRB/04 RMK AO2 T03000133                                                               
24015KAKO AKO20190726095011607/26/19 09:50:31  5-MIN KAKO 261650Z AUTO VRB04KT 10SM CLR 30/13 A3016 4500 34 7200 VRB/04 RMK AO2 SLP143 T03000128                                                        
24015KAKO AKO20190726101510907/26/19 10:15:31  5-MIN KAKO 261715Z AUTO VRB04KT 10SM CLR 31/13 A3017 4490 32 7300 VRB/04 RMK AO2 T03110128                                                               
24015KAKO AKO20190726102510907/26/19 10:25:31  5-MIN KAKO 261725Z AUTO VRB03KT 10SM CLR 32/12 A3017 4490 30 7400 VRB/03 RMK AO2 T03170122                                                               
24015KAKO AKO20190726103510907/26/19 10:35:31  5-MIN KAKO 261735Z AUTO VRB03KT 10SM CLR 32/13 A3017 4490 31 7400 VRB/03 RMK AO2 T03170128                                                               
24015KAKO AKO20190726105510907/26/19 10:55:31  5-MIN KAKO 261755Z AUTO VRB03KT 10SM CLR 32/11 A3016 4490 27 7400 VRB/03 RMK AO2 T03170111                                                               
24015KAKO AKO20190726111010907/26/19 11:10:31  5-MIN KAKO 261810Z AUTO VRB03KT 10SM CLR 32/11 A3017 4490 27 7500 VRB/03 RMK AO2 T03220111                                                               
24015KAKO AKO20190726111510907/26/19 11:15:31  5-MIN KAKO 261815Z AUTO VRB03KT 10SM CLR 32/11 A3016 4490 27 7500 VRB/03 RMK AO2 T03220111                                                               
24015KAKO AKO20190726112010907/26/19 11:20:31  5-MIN KAKO 261820Z AUTO VRB03KT 10SM CLR 32/12 A3016 4500 28 7500 VRB/03 RMK AO2 T03220117                                                               
24015KAKO AKO20190726112510907/26/19 11:25:31  5-MIN KAKO 261825Z AUTO VRB06KT 10SM CLR 32/12 A3016 4500 28 7500 VRB/06 RMK AO2 T03220117                                                               
24015KAKO AKO20190726114510907/26/19 11:45:31  5-MIN KAKO 261845Z AUTO 00000KT 10SM CLR 32/11 A3016 4500 26 7500 000/00 RMK AO2 T03220106                                                               
24015KAKO AKO20190726120511507/26/19 12:05:31  5-MIN KAKO 261905Z AUTO VRB04G14KT 10SM CLR 33/11 A3015 4510 24 7600 VRB/04G14 RMK AO2 T03330106                                                         
24015KAKO AKO20190726121011507/26/19 12:10:31  5-MIN KAKO 261910Z AUTO VRB04G14KT 10SM CLR 33/11 A3015 4510 24 7600 VRB/04G14 RMK AO2 T03330106                                                         
24015KAKO AKO20190726121510907/26/19 12:15:31  5-MIN KAKO 261915Z AUTO VRB03KT 10SM CLR 33/10 A3015 4510 23 7600 VRB/03 RMK AO2 T03330100                                                               
24015KAKO AKO20190726131511507/26/19 13:15:31  5-MIN KAKO 262015Z AUTO VRB06G19KT 10SM CLR 33/11 A3013 4520 24 7600 VRB/06G19 RMK AO2 T03330106                                                         
24015KAKO AKO20190726135011807/26/19 13:50:31  5-MIN KAKO 262050Z AUTO VRB05KT 10SM VCTS BKN110 32/09 A3013 4530 24 7500 VRB/05 RMK AO2 LTG DSNT N                                                      
24015KAKO AKO20190727022010907/27/19 02:20:31  5-MIN KAKO 270920Z AUTO 00000KT 10SM CLR 20/14 A3016 4500 70 6100 000/00 RMK AO2 T02000144                                                               
24015KAKO AKO20190727025510907/27/19 02:55:31  5-MIN KAKO 270955Z AUTO 00000KT 10SM CLR 19/14 A3016 4500 72 6100 000/00 RMK AO2 T01940144                                                               
24015KAKO AKO20190727030010907/27/19 03:00:31  5-MIN KAKO 271000Z AUTO 00000KT 10SM CLR 20/14 A3016 4500 70 6100 000/00 RMK AO2 T02000144                                                               
24015KAKO AKO20190727034510907/27/19 03:45:31  5-MIN KAKO 271045Z AUTO 00000KT 10SM CLR 19/14 A3016 4500 75 6000 000/00 RMK AO2 T01890144                                                               
24015KAKO AKO20190727035011607/27/19 03:50:31  5-MIN KAKO 271050Z AUTO 00000KT 10SM CLR 19/14 A3016 4500 75 6000 000/00 RMK AO2 SLP151 T01890144                                                        
24015KAKO AKO20190727035510907/27/19 03:55:31  5-MIN KAKO 271055Z AUTO 00000KT 10SM CLR 19/14 A3016 4500 72 6100 000/00 RMK AO2 T01940144                                                               
24015KAKO AKO20190727040010907/27/19 04:00:31  5-MIN KAKO 271100Z AUTO 00000KT 10SM CLR 19/15 A3016 4500 78 6000 000/00 RMK AO2 T01890150                                                               
24015KAKO AKO20190727040510907/27/19 04:05:31  5-MIN KAKO 271105Z AUTO 00000KT 10SM CLR 19/15 A3016 4500 78 6000 000/00 RMK AO2 T01890150                                                               
24015KAKO AKO20190727041010907/27/19 04:10:31  5-MIN KAKO 271110Z AUTO 00000KT 10SM CLR 19/15 A3016 4500 78 6000 000/00 RMK AO2 T01890150                                                               
24015KAKO AKO20190727041510907/27/19 04:15:31  5-MIN KAKO 271115Z AUTO 00000KT 10SM CLR 19/15 A3015 4500 78 6000 000/00 RMK AO2 T01890150                                                               
24015KAKO AKO20190727042010907/27/19 04:20:31  5-MIN KAKO 271120Z AUTO 00000KT 10SM CLR 19/15 A3016 4500 78 6000 000/00 RMK AO2 T01890150                                                               
24015KAKO AKO20190727042510907/27/19 04:25:31  5-MIN KAKO 271125Z AUTO 00000KT 10SM CLR 19/15 A3016 4500 78 6000 000/00 RMK AO2 T01890150                                                               
24015KAKO AKO20190727043010907/27/19 04:30:31  5-MIN KAKO 271130Z AUTO 00000KT 10SM CLR 19/14 A3016 4500 72 6100 000/00 RMK AO2 T01940144                                                               
24015KAKO AKO20190727043510907/27/19 04:35:31  5-MIN KAKO 271135Z AUTO 00000KT 10SM CLR 19/14 A3016 4500 72 6100 000/00 RMK AO2 T01940144                                                               
24015KAKO AKO20190727044010907/27/19 04:40:31  5-MIN KAKO 271140Z AUTO 00000KT 10SM CLR 19/14 A3016 4500 72 6100 000/00 RMK AO2 T01940144                                                               
24015KAKO AKO20190727044510907/27/19 04:45:31  5-MIN KAKO 271145Z AUTO 00000KT 10SM CLR 19/14 A3016 4500 72 6100 000/00 RMK AO2 T01940144                                                               
24015KAKO AKO20190727045510907/27/19 04:55:31  5-MIN KAKO 271155Z AUTO 00000KT 10SM CLR 20/14 A3016 4500 70 6100 000/00 RMK AO2 T02000144                                                               
24015KAKO AKO20190727050010907/27/19 05:00:31  5-MIN KAKO 271200Z AUTO 00000KT 10SM CLR 20/14 A3016 4500 67 6100 000/00 RMK AO2 T02000139                                                               
24015KAKO AKO20190727050510907/27/19 05:05:31  5-MIN KAKO 271205Z AUTO 00000KT 10SM CLR 20/14 A3016 4500 67 6100 000/00 RMK AO2 T02000139                                                               
24015KAKO AKO20190727051010907/27/19 05:10:31  5-MIN KAKO 271210Z AUTO 00000KT 10SM CLR 21/14 A3016 4500 65 6200 000/00 RMK AO2 T02060139                                                               
24015KAKO AKO20190727051510907/27/19 05:15:31  5-MIN KAKO 271215Z AUTO 00000KT 10SM CLR 21/14 A3016 4500 65 6200 000/00 RMK AO2 T02060139                                                               
24015KAKO AKO20190727054010907/27/19 05:40:31  5-MIN KAKO 271240Z AUTO 00000KT 10SM CLR 21/14 A3017 4490 67 6200 000/00 RMK AO2 T02060144                                                               
24015KAKO AKO20190727054510907/27/19 05:45:31  5-MIN KAKO 271245Z AUTO 00000KT 10SM CLR 21/14 A3017 4490 67 6200 000/00 RMK AO2 T02060144                                                               
24015KAKO AKO20190727055011607/27/19 05:50:31  5-MIN KAKO 271250Z AUTO 00000KT 10SM CLR 21/14 A3017 4490 67 6200 000/00 RMK AO2 SLP153 T02060144                                                        
24015KAKO AKO20190727064010907/27/19 06:40:31  5-MIN KAKO 271340Z AUTO 00000KT 10SM CLR 22/14 A3018 4480 63 6300 000/00 RMK AO2 T02170144                                                               
24015KAKO AKO20190727064510907/27/19 06:45:31  5-MIN KAKO 271345Z AUTO 00000KT 10SM CLR 22/14 A3019 4480 63 6300 000/00 RMK AO2 T02170144                                                               
24015KAKO AKO20190727065011607/27/19 06:50:31  5-MIN KAKO 271350Z AUTO 00000KT 10SM CLR 22/14 A3018 4480 59 6400 000/00 RMK AO2 SLP157 T02220139                                                        
24015KAKO AKO20190727065510907/27/19 06:55:31  5-MIN KAKO 271355Z AUTO 00000KT 10SM CLR 23/14 A3019 4470 57 6400 000/00 RMK AO2 T02280139                                                               
24015KAKO AKO20190727070010907/27/19 07:00:31  5-MIN KAKO 271400Z AUTO 00000KT 10SM CLR 23/13 A3019 4470 55 6400 000/00 RMK AO2 T02280133                                                               
24015KAKO AKO20190727100010907/27/19 10:00:31  5-MIN KAKO 271700Z AUTO VRB03KT 10SM CLR 30/14 A3017 4490 38 7200 VRB/03 RMK AO2 T03000144                                                               
24015KAKO AKO20190727103010907/27/19 10:30:31  5-MIN KAKO 271730Z AUTO VRB04KT 10SM CLR 31/13 A3016 4500 34 7300 VRB/04 RMK AO2 T03060133                                                               
24015KAKO AKO20190727103511507/27/19 10:35:31  5-MIN KAKO 271735Z AUTO VRB05G14KT 10SM CLR 31/13 A3016 4500 33 7300 VRB/05G14 RMK AO2 T03110133                                                         
24015KAKO AKO20190727104011507/27/19 10:40:31  5-MIN KAKO 271740Z AUTO VRB04G14KT 10SM CLR 31/14 A3016 4500 35 7300 VRB/04G14 RMK AO2 T03060139                                                         
24015KAKO AKO20190727111510907/27/19 11:15:31  5-MIN KAKO 271815Z AUTO VRB04KT 10SM CLR 31/13 A3015 4510 34 7300 VRB/04 RMK AO2 T03060133                                                               
24015KAKO AKO20190727112010907/27/19 11:20:31  5-MIN KAKO 271820Z AUTO 00000KT 10SM CLR 31/13 A3015 4510 33 7400 000/00 RMK AO2 T03110133                                                               
24015KAKO AKO20190727120510907/27/19 12:05:31  5-MIN KAKO 271905Z AUTO VRB04KT 10SM CLR 32/13 A3013 4530 31 7500 VRB/04 RMK AO2 T03220133                                                               
24015KAKO AKO20190727123010907/27/19 12:30:31  5-MIN KAKO 271930Z AUTO VRB03KT 10SM CLR 31/13 A3012 4530 33 7400 VRB/03 RMK AO2 T03110133                                                               
24015KAKO AKO20190727130510907/27/19 13:05:31  5-MIN KAKO 272005Z AUTO 00000KT 10SM CLR 31/12 A3011 4540 31 7400 000/00 RMK AO2 T03110122                                                               
24015KAKO AKO20190727131010907/27/19 13:10:31  5-MIN KAKO 272010Z AUTO VRB03KT 10SM CLR 31/12 A3011 4550 31 7400 VRB/03 RMK AO2 T03110122                                                               
24015KAKO AKO20190727131510907/27/19 13:15:31  5-MIN KAKO 272015Z AUTO VRB03KT 10SM CLR 31/12 A3011 4550 32 7300 VRB/03 RMK AO2 T03060122                                                               
24015KAKO AKO20190727132010907/27/19 13:20:31  5-MIN KAKO 272020Z AUTO VRB04KT 10SM CLR 31/12 A3011 4550 31 7400 VRB/04 RMK AO2 T03110122                                                               
24015KAKO AKO20190727133011207/27/19 13:30:31  5-MIN KAKO 272030Z AUTO VRB03KT 10SM SCT120 31/12 A3010 4550 31 7400 VRB/03 RMK AO2 T03110122                                                            
24015KAKO AKO20190727133511207/27/19 13:35:31  5-MIN KAKO 272035Z AUTO VRB05KT 10SM SCT120 32/13 A3010 4560 31 7500 VRB/05 RMK AO2 T03170128                                                            
24015KAKO AKO20190727134011207/27/19 13:40:31  5-MIN KAKO 272040Z AUTO VRB06KT 10SM SCT120 32/12 A3010 4560 30 7500 VRB/06 RMK AO2 T03170122                                                            
24015KAKO AKO20190727134511207/27/19 13:45:31  5-MIN KAKO 272045Z AUTO 00000KT 10SM SCT120 31/12 A3010 4560 29 7400 000/00 RMK AO2 T03110117                                                            
24015KAKO AKO20190727141511907/27/19 14:15:31  5-MIN KAKO 272115Z AUTO 00000KT 10SM FEW080 SCT110 32/11 A3009 4570 26 7500 000/00 RMK AO2 T03170106                                                     
24015KAKO AKO20190727142011207/27/19 14:20:31  5-MIN KAKO 272120Z AUTO 00000KT 10SM SCT110 32/11 A3009 4570 27 7500 000/00 RMK AO2 T03170111                                                            
24015KAKO AKO20190727225510907/27/19 22:55:31  5-MIN KAKO 280555Z AUTO 00000KT 10SM CLR 18/17 A3009 4560 90 6000 000/00 RMK AO2 T01830167                                                               
24015KAKO AKO20190727230010907/27/19 23:00:31  5-MIN KAKO 280600Z AUTO 00000KT 10SM CLR 18/16 A3009 4560 87 6000 000/00 RMK AO2 T01830161                                                               
24015KAKO AKO20190730114010907/30/19 11:40:31  5-MIN KAKO 301840Z AUTO VRB05KT 10SM CLR 32/12 A3009 4570 29 7500 VRB/05 RMK AO2 T03170117                                                               
24015KAKO AKO20190730115011607/30/19 11:50:31  5-MIN KAKO 301850Z AUTO VRB04KT 10SM CLR 31/12 A3008 4570 29 7400 VRB/04 RMK AO2 SLP118 T03110117                                                        
24015KAKO AKO20190730120010907/30/19 12:00:31  5-MIN KAKO 301900Z AUTO VRB04KT 10SM CLR 32/11 A3007 4580 27 7500 VRB/04 RMK AO2 T03170111                                                               
24015KAKO AKO20190730120510907/30/19 12:05:31  5-MIN KAKO 301905Z AUTO VRB06KT 10SM CLR 32/11 A3007 4580 27 7600 VRB/06 RMK AO2 T03220111                                                               
24015KAKO AKO20190730121010907/30/19 12:10:31  5-MIN KAKO 301910Z AUTO VRB04KT 10SM CLR 33/11 A3007 4580 26 7600 VRB/04 RMK AO2 T03280111                                                               
24015KAKO AKO20190730124010907/30/19 12:40:31  5-MIN KAKO 301940Z AUTO 00000KT 10SM CLR 33/11 A3006 4590 25 7600 000/00 RMK AO2 T03280106                                                               
24015KAKO AKO20190730125011607/30/19 12:50:31  5-MIN KAKO 301950Z AUTO VRB03KT 10SM CLR 34/10 A3006 4590 22 7700 VRB/03 RMK AO2 SLP110 T03390100                                                        
24015KAKO AKO20190730125510907/30/19 12:55:31  5-MIN KAKO 301955Z AUTO VRB04KT 10SM CLR 34/10 A3006 4590 22 7700 VRB/04 RMK AO2 T03390100                                                               
24015KAKO AKO20190730130010907/30/19 13:00:31  5-MIN KAKO 302000Z AUTO VRB05KT 10SM CLR 34/10 A3006 4590 22 7700 VRB/05 RMK AO2 T03390100                                                               
24015KAKO AKO20190730130510907/30/19 13:05:31  5-MIN KAKO 302005Z AUTO VRB05KT 10SM CLR 34/10 A3006 4590 22 7800 VRB/05 RMK AO2 T03440100                                                               
24015KAKO AKO20190730131010907/30/19 13:10:31  5-MIN KAKO 302010Z AUTO 00000KT 10SM CLR 34/09 A3006 4590 22 7800 000/00 RMK AO2 T03390094                                                               
24015KAKO AKO20190730132010907/30/19 13:20:31  5-MIN KAKO 302020Z AUTO 00000KT 10SM CLR 34/09 A3005 4600 22 7800 000/00 RMK AO2 T03390094                                                               
24015KAKO AKO20190730135012207/30/19 13:50:31  5-MIN KAKO 302050Z AUTO VRB04KT 10SM CLR 34/09 A3005 4600 20 7800 VRB/04 RMK AO2 SLP102 T03440089 58001                                                  
24015KAKO AKO20190730142510907/30/19 14:25:31  5-MIN KAKO 302125Z AUTO VRB03KT 10SM CLR 35/08 A3003 4620 19 7900 VRB/03 RMK AO2 T03500083                                                               
24015KAKO AKO20190730143010907/30/19 14:30:31  5-MIN KAKO 302130Z AUTO 00000KT 10SM CLR 34/08 A3003 4620 19 7800 000/00 RMK AO2 T03440078                                                               
24015KAKO AKO20190730143510907/30/19 14:35:31  5-MIN KAKO 302135Z AUTO VRB03KT 10SM CLR 36/08 A3002 4620 18 8000 VRB/03 RMK AO2 T03560083                                                               
24015KAKO AKO20190730150510907/30/19 15:05:31  5-MIN KAKO 302205Z AUTO VRB04KT 10SM CLR 36/07 A3002 4630 16 8000 VRB/04 RMK AO2 T03610067                                                               
24015KAKO AKO20190730151010907/30/19 15:10:31  5-MIN KAKO 302210Z AUTO VRB04KT 10SM CLR 36/07 A3002 4630 16 8000 VRB/04 RMK AO2 T03610067                                                               
24015KAKO AKO20190730151510907/30/19 15:15:31  5-MIN KAKO 302215Z AUTO VRB03KT 10SM CLR 36/07 A3002 4630 16 8000 VRB/03 RMK AO2 T03610072                                                               
24015KAKO AKO20190730153510907/30/19 15:35:31  5-MIN KAKO 302235Z AUTO VRB03KT 10SM CLR 36/06 A3002 4630 15 8000 VRB/03 RMK AO2 T03610061                                                               
24015KAKO AKO20190730154010907/30/19 15:40:31  5-MIN KAKO 302240Z AUTO 00000KT 10SM CLR 36/06 A3002 4630 15 8000 000/00 RMK AO2 T03610061                                                               
24015KAKO AKO20190730154510907/30/19 15:45:31  5-MIN KAKO 302245Z AUTO 00000KT 10SM CLR 36/06 A3002 4630 15 8000 000/00 RMK AO2 T03560056                                                               
24015KAKO AKO20190731011010907/31/19 01:10:31  5-MIN KAKO 310810Z AUTO 00000KT 10SM CLR 19/09 A3004 4610 50 6200 000/00 RMK AO2 T01940089                                                               
24015KAKO AKO20190731011510907/31/19 01:15:31  5-MIN KAKO 310815Z AUTO 00000KT 10SM CLR 20/09 A3004 4610 48 6300 000/00 RMK AO2 T02000089                                                               
24015KAKO AKO20190731114010907/31/19 11:40:31  5-MIN KAKO 311840Z AUTO VRB04KT 10SM CLR 31/14 A3014 4510 34 7400 VRB/04 RMK AO2 T03110139                                                               
24015KAKO AKO20190731121010907/31/19 12:10:31  5-MIN KAKO 311910Z AUTO 00000KT 10SM CLR 31/13 A3014 4520 33 7400 000/00 RMK AO2 T03110133                                                               
24015KAKO AKO20190731123010907/31/19 12:30:31  5-MIN KAKO 311930Z AUTO VRB04KT 10SM CLR 31/13 A3013 4530 32 7400 VRB/04 RMK AO2 T03110128                                                               
24015KAKO AKO20190731124010907/31/19 12:40:31  5-MIN KAKO 311940Z AUTO 00000KT 10SM CLR 31/12 A3013 4530 32 7300 000/00 RMK AO2 T03060122                                                               
24015KAKO AKO20190731124510907/31/19 12:45:31  5-MIN KAKO 311945Z AUTO 00000KT 10SM CLR 31/13 A3013 4530 32 7400 000/00 RMK AO2 T03110128                                                               
24015KAKO AKO20190731125011607/31/19 12:50:31  5-MIN KAKO 311950Z AUTO 00000KT 10SM CLR 31/13 A3013 4530 32 7400 000/00 RMK AO2 SLP130 T03110128                                                        
24015KAKO AKO20190731130010907/31/19 13:00:31  5-MIN KAKO 312000Z AUTO VRB03KT 10SM CLR 33/12 A3012 4530 27 7600 VRB/03 RMK AO2 T03280117                                                               
24015KAKO AKO20190731130510907/31/19 13:05:31  5-MIN KAKO 312005Z AUTO VRB04KT 10SM CLR 32/12 A3012 4540 28 7500 VRB/04 RMK AO2 T03220117                                                               
24015KAKO AKO20190731131010907/31/19 13:10:31  5-MIN KAKO 312010Z AUTO VRB03KT 10SM CLR 33/13 A3012 4540 29 7600 VRB/03 RMK AO2 T03280128                                                               
24015KAKO AKO20190731131510907/31/19 13:15:31  5-MIN KAKO 312015Z AUTO VRB04KT 10SM CLR 33/12 A3012 4540 27 7600 VRB/04 RMK AO2 T03330122                                                               
24015KAKO AKO20190731132010907/31/19 13:20:31  5-MIN KAKO 312020Z AUTO VRB05KT 10SM CLR 33/12 A3012 4540 26 7600 VRB/05 RMK AO2 T03330117                                                               
24015KAKO AKO20190731132510907/31/19 13:25:31  5-MIN KAKO 312025Z AUTO VRB04KT 10SM CLR 33/12 A3012 4540 26 7600 VRB/04 RMK AO2 T03330117                                                               
24015KAKO AKO20190731133010907/31/19 13:30:31  5-MIN KAKO 312030Z AUTO VRB05KT 10SM CLR 33/12 A3011 4540 26 7600 VRB/05 RMK AO2 T03330117                                                               
24015KAKO AKO20190731133510907/31/19 13:35:31  5-MIN KAKO 312035Z AUTO 00000KT 10SM CLR 33/12 A3011 4540 27 7600 000/00 RMK AO2 T03280117                                                               
24015KAKO AKO20190731134510907/31/19 13:45:31  5-MIN KAKO 312045Z AUTO VRB05KT 10SM CLR 34/13 A3011 4550 27 7700 VRB/05 RMK AO2 T03390128                                                               
24015KAKO AKO20190731140010907/31/19 14:00:31  5-MIN KAKO 312100Z AUTO VRB04KT 10SM CLR 34/12 A3010 4550 26 7700 VRB/04 RMK AO2 T03390122                                                               
24015KAKO AKO20190731141010907/31/19 14:10:31  5-MIN KAKO 312110Z AUTO VRB04KT 10SM CLR 34/12 A3010 4560 25 7700 VRB/04 RMK AO2 T03390117                                                               
24015KAKO AKO20190731141510907/31/19 14:15:31  5-MIN KAKO 312115Z AUTO VRB05KT 10SM CLR 34/13 A3010 4560 26 7800 VRB/05 RMK AO2 T03440128                                                               
24015KAKO AKO20190731143010907/31/19 14:30:31  5-MIN KAKO 312130Z AUTO VRB04KT 10SM CLR 34/11 A3010 4560 23 7800 VRB/04 RMK AO2 T03440111                                                               
24015KAKO AKO20190731145012207/31/19 14:50:31  5-MIN KAKO 312150Z AUTO VRB05G15KT 10SM CLR 34/12 A3009 4560 24 7800 VRB/05G15 RMK AO2 SLP117 T03440117                                                  
24015KAKO AKO20190731155012207/31/19 15:50:31  5-MIN KAKO 312250Z AUTO VRB05G17KT 10SM CLR 34/12 A3009 4560 26 7700 VRB/05G17 RMK AO2 SLP118 T03390122                                                  
24015KAKO AKO20190801015511208/01/19 01:55:31  5-MIN KAKO 010855Z AUTO 00000KT 10SM FEW008 20/18 A3017 4490 90 6100 000/00 RMK AO2 T02000183                                                            
24015KAKO AKO20190801020010908/01/19 02:00:31  5-MIN KAKO 010900Z AUTO 00000KT 10SM CLR 20/18 A3017 4490 90 6100 000/00 RMK AO2 T02000183                                                               
24015KAKO AKO20190801020510908/01/19 02:05:31  5-MIN KAKO 010905Z AUTO 00000KT 10SM CLR 20/18 A3017 4490 90 6100 000/00 RMK AO2 T02000183                                                               
24015KAKO AKO20190801021011208/01/19 02:10:31  5-MIN KAKO 010910Z AUTO 00000KT 10SM FEW008 19/18 A3017 4490 90 6100 000/00 RMK AO2 T01940178                                                            
24015KAKO AKO20190801021511208/01/19 02:15:31  5-MIN KAKO 010915Z AUTO 00000KT 10SM SCT008 19/18 A3017 4490 93 6100 000/00 RMK AO2 T01940183                                                            
24015KAKO AKO20190801022011208/01/19 02:20:31  5-MIN KAKO 010920Z AUTO 00000KT 10SM BKN007 20/18 A3017 4490 90 6100 000/00 RMK AO2 T02000183                                                            
24015KAKO AKO20190801022511208/01/19 02:25:31  5-MIN KAKO 010925Z AUTO 00000KT 10SM BKN007 20/18 A3017 4490 90 6100 000/00 RMK AO2 T02000183                                                            
24015KAKO AKO20190801023011208/01/19 02:30:31  5-MIN KAKO 010930Z AUTO 00000KT 10SM BKN007 21/19 A3017 4490 90 6200 000/00 RMK AO2 T02060189                                                            
24015KAKO AKO20190801023511208/01/19 02:35:31  5-MIN KAKO 010935Z AUTO 00000KT 10SM OVC007 21/19 A3017 4490 90 6200 000/00 RMK AO2 T02060189                                                            
24015KAKO AKO20190801024511208/01/19 02:45:31  5-MIN KAKO 010945Z AUTO 00000KT 10SM OVC007 20/19 A3017 4490 93 6100 000/00 RMK AO2 T02000189                                                            
24015KAKO AKO20190801042511508/01/19 04:25:31  5-MIN KAKO 011125Z AUTO 00000KT 1/4SM FG VV001 19/19 A3014 4520 97 6100 000/00 RMK AO2 T01940189                                                         
24015KAKO AKO20190801043011508/01/19 04:30:31  5-MIN KAKO 011130Z AUTO 00000KT 1/2SM FG VV001 19/19 A3014 4510 97 6100 000/00 RMK AO2 T01940189                                                         
24015KAKO AKO20190801043511608/01/19 04:35:31  5-MIN KAKO 011135Z AUTO 00000KT 1/4SM FG VV001 19/19 A3015 4510 100 6000 000/00 RMK AO2 T01890189                                                        
24015KAKO AKO20190801063511608/01/19 06:35:31  5-MIN KAKO 011335Z AUTO 00000KT 1/4SM FG VV002 19/19 A3019 4470 100 6000 000/00 RMK AO2 T01940194                                                        
24015KAKO AKO20190801064011608/01/19 06:40:31  5-MIN KAKO 011340Z AUTO 00000KT 1/4SM FG VV002 19/19 A3019 4470 100 6000 000/00 RMK AO2 T01940194                                                        
24015KAKO AKO20190801064511608/01/19 06:45:31  5-MIN KAKO 011345Z AUTO 00000KT 1/4SM FG VV002 19/19 A3019 4470 100 6000 000/00 RMK AO2 T01940194                                                        
24015KAKO AKO20190801065012308/01/19 06:50:31  5-MIN KAKO 011350Z AUTO 00000KT 1/4SM FG VV002 19/19 A3019 4470 100 6000 000/00 RMK AO2 SLP162 T01940194                                                 
24015KAKO AKO20190801065511508/01/19 06:55:31  5-MIN KAKO 011355Z AUTO 00000KT 1/2SM FG VV002 19/19 A3019 4480 97 6000 000/00 RMK AO2 T01940189                                                         
24015KAKO AKO20190801070011508/01/19 07:00:31  5-MIN KAKO 011400Z AUTO 00000KT 1/2SM FG VV002 19/19 A3019 4470 97 6000 000/00 RMK AO2 T01940189                                                         
24015KAKO AKO20190801070511608/01/19 07:05:31  5-MIN KAKO 011405Z AUTO 00000KT 3/4SM BR VV002 19/19 A3019 4470 100 6000 000/00 RMK AO2 T01940194                                                        
24015KAKO AKO20190801071011708/01/19 07:10:31  5-MIN KAKO 011410Z AUTO 00000KT 3/4SM BR OVC002 19/19 A3019 4470 100 6000 000/00 RMK AO2 T01940194                                                       
24015KAKO AKO20190801072011408/01/19 07:20:31  5-MIN KAKO 011420Z AUTO 00000KT 1SM BR OVC002 20/19 A3020 4470 97 6100 000/00 RMK AO2 T02000194                                                          
24015KAKO AKO20190801084510908/01/19 08:45:31  5-MIN KAKO 011545Z AUTO VRB04KT 10SM CLR 24/19 A3021 4450 73 6500 VRB/04 RMK AO2 T02390189                                                               
24015KAKO AKO20190801102011708/01/19 10:20:31  5-MIN KAKO 011720Z AUTO VRB06G14KT 10SM CLR 28/15 A3020 4460 43 7000 VRB/06G14 RMK AO2 T02830150 $                                                       
24015KAKO AKO20190801104011108/01/19 10:40:31  5-MIN KAKO 011740Z AUTO VRB05KT 10SM CLR 28/15 A3019 4470 43 7000 VRB/05 RMK AO2 T02830150 $                                                             
24015KAKO AKO20190801105511108/01/19 10:55:31  5-MIN KAKO 011755Z AUTO VRB05KT 10SM CLR 29/15 A3019 4470 42 7100 VRB/05 RMK AO2 T02890150 $                                                             
24015KAKO AKO20190801120511508/01/19 12:05:31  5-MIN KAKO 011905Z AUTO VRB04G15KT 10SM CLR 29/16 A3017 4490 44 7200 VRB/04G15 RMK AO2 T02940161                                                         
24015KAKO AKO20190801121511508/01/19 12:15:31  5-MIN KAKO 011915Z AUTO VRB06G16KT 10SM CLR 30/17 A3017 4490 44 7200 VRB/06G16 RMK AO2 T03000167                                                         
24015KAKO AKO20190801133010908/01/19 13:30:31  5-MIN KAKO 012030Z AUTO VRB03KT 10SM CLR 30/17 A3015 4510 44 7200 VRB/03 RMK AO2 T03000167                                                               
24015KAKO AKO20190801221012608/01/19 22:10:31  5-MIN KAKO 020510Z AUTO 00000KT 9SM RA OVC100 18/17 A3021 4450 93 5900 000/00 RMK AO2 RAB02 P0002 T01830172                                              
24015KAKO AKO20190802025511308/02/19 02:55:31  5-MIN KAKO 020955Z AUTO 00000KT 1SM BR VV004 17/16 A3015 4510 96 5800 000/00 RMK AO2 T01670161                                                           
24015KAKO AKO20190802030011808/02/19 03:00:31  5-MIN KAKO 021000Z AUTO 00000KT 1 3/4SM BR BKN004 17/16 A3014 4510 96 5800 000/00 RMK AO2 T01670161                                                      
24015KAKO AKO20190802032011708/02/19 03:20:31  5-MIN KAKO 021020Z AUTO 00000KT 1/4SM FG VV004 17/16 A3014 4520 96 5800 000/00 RMK AO2 T01670161 $                                                       
24015KAKO AKO20190802032511708/02/19 03:25:31  5-MIN KAKO 021025Z AUTO 00000KT 1/4SM FG VV004 17/16 A3014 4510 96 5800 000/00 RMK AO2 T01670161 $                                                       
24015KAKO AKO20190802044012408/02/19 04:40:31  5-MIN KAKO 021140Z AUTO 00000KT 1SM BR BKN003 BKN009 16/16 A3016 4500 100 5700 000/00 RMK AO2 T01610161 $                                                
24015KAKO AKO20190802044512508/02/19 04:45:31  5-MIN KAKO 021145Z AUTO 00000KT 1/2SM FG BKN003 BKN009 16/16 A3016 4490 96 5700 000/00 RMK AO2 T01610156 $                                               
24015KAKO AKO20190802045511808/02/19 04:55:31  5-MIN KAKO 021155Z AUTO 00000KT M1/4SM FG VV002 16/16 A3017 4490 96 5700 000/00 RMK AO2 T01610156 $                                                      
24015KAKO AKO20190802050011808/02/19 05:00:31  5-MIN KAKO 021200Z AUTO 00000KT M1/4SM FG VV001 16/16 A3017 4490 96 5700 000/00 RMK AO2 T01610156 $                                                      
24015KAKO AKO20190802071511208/02/19 07:15:31  5-MIN KAKO 021415Z AUTO 00000KT 10SM SCT006 18/18 A3019 4470 96 5900 000/00 RMK AO2 T01830178                                                            
24015KAKO AKO20190802072011208/02/19 07:20:31  5-MIN KAKO 021420Z AUTO 00000KT 10SM FEW006 19/18 A3020 4460 93 6000 000/00 RMK AO2 T01940183                                                            
24015KAKO AKO20190802072511208/02/19 07:25:31  5-MIN KAKO 021425Z AUTO VRB03KT 10SM FEW006 21/18 A3020 4460 87 6200 VRB/03 RMK AO2 T02060183                                                            
24015KAKO AKO20190802073011908/02/19 07:30:31  5-MIN KAKO 021430Z AUTO 00000KT 10SM FEW004 FEW008 21/18 A3020 4460 84 6200 000/00 RMK AO2 T02060178                                                     
24015KAKO AKO20190802073511208/02/19 07:35:31  5-MIN KAKO 021435Z AUTO 00000KT 10SM FEW008 21/18 A3020 4470 87 6200 000/00 RMK AO2 T02060183                                                            
24015KAKO AKO20190802074510908/02/19 07:45:31  5-MIN KAKO 021445Z AUTO VRB03KT 10SM CLR 21/18 A3020 4460 81 6200 VRB/03 RMK AO2 T02110178                                                               
24015KAKO AKO20190802075012208/02/19 07:50:31  5-MIN KAKO 021450Z AUTO VRB03KT 10SM CLR 21/18 A3020 4460 81 6200 VRB/03 RMK AO2 SLP177 T02110178 51006                                                  
24015KAKO AKO20190802083010908/02/19 08:30:31  5-MIN KAKO 021530Z AUTO 00000KT 10SM CLR 22/18 A3020 4460 75 6300 000/00 RMK AO2 T02220178                                                               
24015KAKO AKO20190802084510908/02/19 08:45:31  5-MIN KAKO 021545Z AUTO VRB04KT 10SM CLR 22/18 A3020 4460 75 6300 VRB/04 RMK AO2 T02220178                                                               
24015KAKO AKO20190802085011608/02/19 08:50:31  5-MIN KAKO 021550Z AUTO 00000KT 10SM CLR 23/18 A3020 4460 76 6400 000/00 RMK AO2 SLP175 T02280183                                                        
24015KAKO AKO20190802085510908/02/19 08:55:31  5-MIN KAKO 021555Z AUTO 00000KT 10SM CLR 23/18 A3020 4460 73 6400 000/00 RMK AO2 T02280178                                                               
24015KAKO AKO20190802090010908/02/19 09:00:31  5-MIN KAKO 021600Z AUTO VRB03KT 10SM CLR 23/18 A3020 4460 73 6400 VRB/03 RMK AO2 T02280178                                                               
24015KAKO AKO20190802090510908/02/19 09:05:31  5-MIN KAKO 021605Z AUTO 00000KT 10SM CLR 23/18 A3020 4460 76 6400 000/00 RMK AO2 T02280183                                                               
24015KAKO AKO20190802091011208/02/19 09:10:31  5-MIN KAKO 021610Z AUTO VRB03KT 10SM FEW021 24/18 A3020 4460 71 6500 VRB/03 RMK AO2 T02390183                                                            
24015KAKO AKO20190802092511208/02/19 09:25:31  5-MIN KAKO 021625Z AUTO 00000KT 10SM BKN021 23/18 A3020 4460 76 6400 000/00 RMK AO2 T02280183                                                            
24015KAKO AKO20190802093011208/02/19 09:30:31  5-MIN KAKO 021630Z AUTO VRB03KT 10SM BKN021 24/18 A3021 4450 71 6500 VRB/03 RMK AO2 T02390183                                                            
24015KAKO AKO20190802095511208/02/19 09:55:31  5-MIN KAKO 021655Z AUTO 00000KT 10SM OVC021 24/18 A3021 4460 71 6500 000/00 RMK AO2 T02390183                                                            
24015KAKO AKO20190802100511808/02/19 10:05:31  5-MIN KAKO 021705Z AUTO VRB04KT 9SM BKN022 BKN028 24/18 A3020 4460 71 6500 VRB/04 RMK AO2 T02390183                                                      
24015KAKO AKO20190802101511108/02/19 10:15:31  5-MIN KAKO 021715Z AUTO 00000KT 9SM BKN024 23/18 A3021 4460 70 6500 000/00 RMK AO2 T02330178                                                             
24015KAKO AKO20190802102512608/02/19 10:25:31  5-MIN KAKO 021725Z AUTO 00000KT 10SM SCT025 BKN036 BKN044 24/18 A3021 4460 66 6600 000/00 RMK AO2 T02440178                                              
24015KAKO AKO20190802104011808/02/19 10:40:31  5-MIN KAKO 021740Z AUTO 00000KT 9SM SCT025 BKN034 24/18 A3020 4460 71 6500 000/00 RMK AO2 T02390183                                                      
24015KAKO AKO20190802105014408/02/19 10:50:31  5-MIN KAKO 021750Z AUTO VRB06KT 10SM FEW025 BKN036 24/18 A3020 4460 71 6500 VRB/06 RMK AO2 SLP174 T02390183 10244 20161 51005                            
24015KAKO AKO20190802105511908/02/19 10:55:31  5-MIN KAKO 021755Z AUTO VRB03KT 10SM FEW025 BKN036 24/18 A3020 4460 68 6600 VRB/03 RMK AO2 T02440183                                                     
24015KAKO AKO20190802110011908/02/19 11:00:31  5-MIN KAKO 021800Z AUTO VRB03KT 10SM FEW025 BKN036 25/18 A3020 4460 66 6600 VRB/03 RMK AO2 T02500183                                                     
24015KAKO AKO20190802112011908/02/19 11:20:31  5-MIN KAKO 021820Z AUTO VRB04KT 10SM FEW032 SCT040 25/18 A3020 4470 64 6600 VRB/04 RMK AO2 T02500178                                                     
24015KAKO AKO20190802113511108/02/19 11:35:31  5-MIN KAKO 021835Z AUTO VRB05KT 9SM BKN034 26/18 A3019 4470 64 6700 VRB/05 RMK AO2 T02560183                                                             
24015KAKO AKO20190802115011908/02/19 11:50:31  5-MIN KAKO 021850Z AUTO VRB06KT 10SM BKN034 26/18 A3019 4470 61 6700 VRB/06 RMK AO2 SLP166 T02560178                                                     
24015KAKO AKO20190802120011208/02/19 12:00:31  5-MIN KAKO 021900Z AUTO VRB03KT 10SM BKN036 26/17 A3019 4470 57 6800 VRB/03 RMK AO2 T02610172                                                            
24015KAKO AKO20190802121011208/02/19 12:10:31  5-MIN KAKO 021910Z AUTO 00000KT 10SM SCT038 26/17 A3019 4470 57 6800 000/00 RMK AO2 T02610172                                                            
24015KAKO AKO20190802123511208/02/19 12:35:31  5-MIN KAKO 021935Z AUTO 00000KT 10SM FEW040 26/17 A3019 4470 57 6800 000/00 RMK AO2 T02610172                                                            
24015KAKO AKO20190802124011208/02/19 12:40:31  5-MIN KAKO 021940Z AUTO VRB05KT 10SM FEW040 27/17 A3019 4470 55 6800 VRB/05 RMK AO2 T02670172                                                            
24015KAKO AKO20190802125011608/02/19 12:50:31  5-MIN KAKO 021950Z AUTO VRB03KT 10SM CLR 27/17 A3019 4470 53 6800 VRB/03 RMK AO2 SLP163 T02670167                                                        
24015KAKO AKO20190802130511208/02/19 13:05:31  5-MIN KAKO 022005Z AUTO VRB03KT 10SM SCT044 27/17 A3019 4470 55 6800 VRB/03 RMK AO2 T02670172                                                            
24015KAKO AKO20190802131011208/02/19 13:10:31  5-MIN KAKO 022010Z AUTO VRB03KT 10SM FEW044 27/17 A3019 4470 54 6900 VRB/03 RMK AO2 T02720172                                                            
24015KAKO AKO20190802204010908/02/19 20:40:31  5-MIN KAKO 030340Z AUTO 00000KT 10SM CLR 23/17 A3022 4440 68 6400 000/00 RMK AO2 T02280167                                                               
24015KAKO AKO20190802204510908/02/19 20:45:31  5-MIN KAKO 030345Z AUTO 00000KT 10SM CLR 23/17 A3022 4440 68 6400 000/00 RMK AO2 T02280167                                                               
24015KAKO AKO20190802205011608/02/19 20:50:31  5-MIN KAKO 030350Z AUTO 00000KT 10SM CLR 23/17 A3023 4440 68 6400 000/00 RMK AO2 SLP177 T02280167                                                        
24015KAKO AKO20190802205510908/02/19 20:55:31  5-MIN KAKO 030355Z AUTO 00000KT 10SM CLR 23/17 A3022 4440 70 6400 000/00 RMK AO2 T02280172                                                               
24015KAKO AKO20190802210010908/02/19 21:00:31  5-MIN KAKO 030400Z AUTO 00000KT 10SM CLR 21/17 A3022 4440 78 6200 000/00 RMK AO2 T02110172                                                               
24015KAKO AKO20190802233010908/02/19 23:30:31  5-MIN KAKO 030630Z AUTO 00000KT 10SM CLR 20/16 A3023 4440 78 6100 000/00 RMK AO2 T02000161                                                               
24015KAKO AKO20190802233510908/02/19 23:35:31  5-MIN KAKO 030635Z AUTO 00000KT 10SM CLR 19/17 A3022 4440 84 6000 000/00 RMK AO2 T01940167                                                               
24015KAKO AKO20190802234510908/02/19 23:45:31  5-MIN KAKO 030645Z AUTO 00000KT 10SM CLR 19/17 A3022 4440 84 6000 000/00 RMK AO2 T01940167                                                               
24015KAKO AKO20190802235510908/02/19 23:55:31  5-MIN KAKO 030655Z AUTO 00000KT 10SM CLR 19/17 A3022 4450 87 5900 000/00 RMK AO2 T01890167                                                               
24015KAKO AKO20190803000010908/03/19 00:00:31  5-MIN KAKO 030700Z AUTO 00000KT 10SM CLR 19/16 A3022 4450 84 5900 000/00 RMK AO2 T01890161                                                               
24015KAKO AKO20190803000510908/03/19 00:05:31  5-MIN KAKO 030705Z AUTO 00000KT 10SM CLR 19/16 A3022 4450 81 6000 000/00 RMK AO2 T01940161                                                               
24015KAKO AKO20190803011010908/03/19 01:10:31  5-MIN KAKO 030810Z AUTO 00000KT 10SM CLR 18/16 A3021 4450 90 5800 000/00 RMK AO2 T01780161                                                               
24015KAKO AKO20190803013010908/03/19 01:30:31  5-MIN KAKO 030830Z AUTO VRB04KT 10SM CLR 18/17 A3021 4450 90 5900 VRB/04 RMK AO2 T01830167                                                               
24015KAKO AKO20190803013510908/03/19 01:35:31  5-MIN KAKO 030835Z AUTO 00000KT 10SM CLR 18/16 A3021 4450 90 5800 000/00 RMK AO2 T01780161                                                               
24015KAKO AKO20190803122510908/03/19 12:25:31  5-MIN KAKO 031925Z AUTO VRB05KT 10SM CLR 29/17 A3020 4460 48 7100 VRB/05 RMK AO2 T02890172                                                               
24015KAKO AKO20190804060010908/04/19 06:00:31  5-MIN KAKO 041300Z AUTO VRB05KT 10SM CLR 19/16 A3018 4480 84 6000 VRB/05 RMK AO2 T01890161                                                               
24015KAKO AKO20190804191013608/04/19 19:10:31  5-MIN KAKO 050210Z AUTO VRB03KT 10SM -RA SCT050 BKN070 OVC110 24/14 A3011 4550 55 6600 VRB/03 RMK AO2 P0000 T02390144                                    
24015KAKO AKO20190805054511208/05/19 05:45:31  5-MIN KAKO 051245Z AUTO 00000KT 10SM BKN110 17/16 A3020 4470 93 5800 000/00 RMK AO2 T01720161                                                            
24015KAKO AKO20190805060013608/05/19 06:00:31  5-MIN KAKO 051300Z AUTO 00000KT 10SM -RA FEW045 SCT075 OVC110 17/16 A3019 4470 93 5800 000/00 RMK AO2 P0000 T01720161                                    
24015KAKO AKO20190805060513608/05/19 06:05:31  5-MIN KAKO 051305Z AUTO 00000KT 10SM -RA SCT042 BKN095 BKN110 18/16 A3019 4470 90 5900 000/00 RMK AO2 P0000 T01780161                                    
24015KAKO AKO20190805110510908/05/19 11:05:31  5-MIN KAKO 051805Z AUTO VRB05KT 10SM CLR 27/18 A3016 4500 57 6900 VRB/05 RMK AO2 T02670178                                                               
24015KAKO AKO20190805140010908/05/19 14:00:31  5-MIN KAKO 052100Z AUTO VRB04KT 10SM CLR 31/13 A3014 4520 33 7300 VRB/04 RMK AO2 T03060128                                                               
24015KAKO AKO20190805150510908/05/19 15:05:31  5-MIN KAKO 052205Z AUTO VRB04KT 10SM CLR 30/13 A3013 4520 34 7300 VRB/04 RMK AO2 T03000128                                                               
24015KAKO AKO20190805192011208/05/19 19:20:31  5-MIN KAKO 060220Z AUTO 00000KT 10SM FEW100 24/16 A3016 4500 61 6600 000/00 RMK AO2 T02390161                                                            
24015KAKO AKO20190805210010908/05/19 21:00:31  5-MIN KAKO 060400Z AUTO 00000KT 10SM CLR 20/14 A3016 4500 67 6100 000/00 RMK AO2 T02000139                                                               
24015KAKO AKO20190805210510908/05/19 21:05:31  5-MIN KAKO 060405Z AUTO 00000KT 10SM CLR 21/13 A3016 4500 63 6200 000/00 RMK AO2 T02060133                                                               
24015KAKO AKO20190805211010908/05/19 21:10:31  5-MIN KAKO 060410Z AUTO 00000KT 10SM CLR 21/14 A3016 4500 65 6200 000/00 RMK AO2 T02060139                                                               
24015KAKO AKO20190805211510908/05/19 21:15:31  5-MIN KAKO 060415Z AUTO 00000KT 10SM CLR 21/13 A3016 4500 58 6300 000/00 RMK AO2 T02110128                                                               
24015KAKO AKO20190805212010908/05/19 21:20:31  5-MIN KAKO 060420Z AUTO 00000KT 10SM CLR 22/13 A3016 4500 56 6300 000/00 RMK AO2 T02170128                                                               
24015KAKO AKO20190806010010908/06/19 01:00:31  5-MIN KAKO 060800Z AUTO 00000KT 10SM CLR 19/13 A3018 4480 70 6000 000/00 RMK AO2 T01890133                                                               
24015KAKO AKO20190806010510908/06/19 01:05:31  5-MIN KAKO 060805Z AUTO 00000KT 10SM CLR 19/13 A3018 4480 65 6100 000/00 RMK AO2 T01940128                                                               
24015KAKO AKO20190806011010908/06/19 01:10:31  5-MIN KAKO 060810Z AUTO 00000KT 10SM CLR 19/13 A3017 4490 65 6100 000/00 RMK AO2 T01940128                                                               
24015KAKO AKO20190806012510908/06/19 01:25:31  5-MIN KAKO 060825Z AUTO 00000KT 10SM CLR 19/13 A3017 4490 67 6000 000/00 RMK AO2 T01890128                                                               
24015KAKO AKO20190806013010908/06/19 01:30:31  5-MIN KAKO 060830Z AUTO 00000KT 10SM CLR 19/13 A3016 4490 67 6000 000/00 RMK AO2 T01890128                                                               
24015KAKO AKO20190806040510908/06/19 04:05:31  5-MIN KAKO 061105Z AUTO 00000KT 10SM CLR 17/12 A3014 4510 75 5800 000/00 RMK AO2 T01670122                                                               
24015KAKO AKO20190806041010908/06/19 04:10:31  5-MIN KAKO 061110Z AUTO 00000KT 10SM CLR 16/13 A3014 4510 80 5700 000/00 RMK AO2 T01610128                                                               
24015KAKO AKO20190806041510908/06/19 04:15:31  5-MIN KAKO 061115Z AUTO 00000KT 10SM CLR 18/12 A3014 4510 69 5900 000/00 RMK AO2 T01780122                                                               
24015KAKO AKO20190806042010908/06/19 04:20:31  5-MIN KAKO 061120Z AUTO 00000KT 10SM CLR 18/12 A3014 4520 69 5900 000/00 RMK AO2 T01780122                                                               
24015KAKO AKO20190806043010908/06/19 04:30:31  5-MIN KAKO 061130Z AUTO 00000KT 10SM CLR 18/12 A3014 4520 69 5900 000/00 RMK AO2 T01780122                                                               
24015KAKO AKO20190806083510908/06/19 08:35:31  5-MIN KAKO 061535Z AUTO VRB04KT 10SM CLR 24/16 A3015 4510 61 6600 VRB/04 RMK AO2 T02390161                                                               
24015KAKO AKO20190806084010908/06/19 08:40:31  5-MIN KAKO 061540Z AUTO VRB03KT 10SM CLR 24/16 A3015 4510 61 6600 VRB/03 RMK AO2 T02390161                                                               
24015KAKO AKO20190806085510908/06/19 08:55:31  5-MIN KAKO 061555Z AUTO VRB03KT 10SM CLR 25/16 A3015 4510 57 6700 VRB/03 RMK AO2 T02500161                                                               
24015KAKO AKO20190806090010908/06/19 09:00:31  5-MIN KAKO 061600Z AUTO VRB03KT 10SM CLR 24/16 A3015 4510 59 6600 VRB/03 RMK AO2 T02440161                                                               
24015KAKO AKO20190806090510908/06/19 09:05:31  5-MIN KAKO 061605Z AUTO 00000KT 10SM CLR 25/17 A3015 4510 59 6700 000/00 RMK AO2 T02500167                                                               
24015KAKO AKO20190806091010908/06/19 09:10:31  5-MIN KAKO 061610Z AUTO 00000KT 10SM CLR 26/17 A3015 4510 55 6800 000/00 RMK AO2 T02610167                                                               
24015KAKO AKO20190806092510908/06/19 09:25:31  5-MIN KAKO 061625Z AUTO 00000KT 10SM CLR 26/17 A3014 4510 55 6800 000/00 RMK AO2 T02610167                                                               
24015KAKO AKO20190806093510908/06/19 09:35:31  5-MIN KAKO 061635Z AUTO VRB03KT 10SM CLR 27/17 A3014 4510 53 6900 VRB/03 RMK AO2 T02670167                                                               
24015KAKO AKO20190806095510908/06/19 09:55:31  5-MIN KAKO 061655Z AUTO VRB04KT 10SM CLR 27/17 A3014 4520 52 6900 VRB/04 RMK AO2 T02720167                                                               
24015KAKO AKO20190806102510908/06/19 10:25:31  5-MIN KAKO 061725Z AUTO VRB04KT 10SM CLR 28/16 A3013 4530 47 7100 VRB/04 RMK AO2 T02830161                                                               
24015KAKO AKO20190806111010908/06/19 11:10:31  5-MIN KAKO 061810Z AUTO VRB05KT 10SM CLR 30/16 A3012 4540 42 7300 VRB/05 RMK AO2 T03000161                                                               
24015KAKO AKO20190806112010908/06/19 11:20:31  5-MIN KAKO 061820Z AUTO VRB03KT 10SM CLR 29/15 A3011 4540 41 7200 VRB/03 RMK AO2 T02940150                                                               
24015KAKO AKO20190806112510908/06/19 11:25:31  5-MIN KAKO 061825Z AUTO 00000KT 10SM CLR 30/16 A3011 4540 41 7300 000/00 RMK AO2 T03000156                                                               
24015KAKO AKO20190806115011608/06/19 11:50:31  5-MIN KAKO 061850Z AUTO VRB04KT 10SM CLR 32/16 A3010 4550 37 7500 VRB/04 RMK AO2 SLP123 T03170156                                                        
24015KAKO AKO20190806120010908/06/19 12:00:31  5-MIN KAKO 061900Z AUTO VRB03KT 10SM CLR 32/15 A3009 4560 36 7500 VRB/03 RMK AO2 T03170150                                                               
24015KAKO AKO20190806121010908/06/19 12:10:31  5-MIN KAKO 061910Z AUTO VRB04KT 10SM CLR 32/15 A3009 4560 34 7500 VRB/04 RMK AO2 T03220150                                                               
24015KAKO AKO20190806121510908/06/19 12:15:31  5-MIN KAKO 061915Z AUTO VRB03KT 10SM CLR 32/15 A3009 4570 34 7500 VRB/03 RMK AO2 T03220150                                                               
24015KAKO AKO20190806122510908/06/19 12:25:31  5-MIN KAKO 061925Z AUTO VRB05KT 10SM CLR 32/14 A3008 4570 32 7500 VRB/05 RMK AO2 T03220139                                                               
24015KAKO AKO20190806123010908/06/19 12:30:31  5-MIN KAKO 061930Z AUTO VRB04KT 10SM CLR 32/14 A3008 4570 32 7600 VRB/04 RMK AO2 T03220139                                                               
24015KAKO AKO20190806124010908/06/19 12:40:31  5-MIN KAKO 061940Z AUTO VRB06KT 10SM CLR 33/14 A3008 4570 31 7600 VRB/06 RMK AO2 T03280139                                                               
24015KAKO AKO20190806125011608/06/19 12:50:31  5-MIN KAKO 061950Z AUTO 00000KT 10SM CLR 33/13 A3007 4580 30 7600 000/00 RMK AO2 SLP114 T03280133                                                        
24015KAKO AKO20190806125510908/06/19 12:55:31  5-MIN KAKO 061955Z AUTO 00000KT 10SM CLR 33/13 A3007 4580 30 7600 000/00 RMK AO2 T03280133                                                               
24015KAKO AKO20190806130010908/06/19 13:00:31  5-MIN KAKO 062000Z AUTO VRB04KT 10SM CLR 33/13 A3007 4580 30 7600 VRB/04 RMK AO2 T03280133                                                               
24015KAKO AKO20190806130510908/06/19 13:05:31  5-MIN KAKO 062005Z AUTO 00000KT 10SM CLR 33/13 A3007 4580 29 7600 000/00 RMK AO2 T03280128                                                               
24015KAKO AKO20190806131010908/06/19 13:10:31  5-MIN KAKO 062010Z AUTO VRB03KT 10SM CLR 33/12 A3007 4580 28 7600 VRB/03 RMK AO2 T03280122                                                               
24015KAKO AKO20190806131510908/06/19 13:15:31  5-MIN KAKO 062015Z AUTO VRB03KT 10SM CLR 33/12 A3007 4580 27 7700 VRB/03 RMK AO2 T03330122                                                               
24015KAKO AKO20190806132010908/06/19 13:20:31  5-MIN KAKO 062020Z AUTO VRB03KT 10SM CLR 33/12 A3006 4590 27 7700 VRB/03 RMK AO2 T03330122                                                               
24015KAKO AKO20190806133010908/06/19 13:30:31  5-MIN KAKO 062030Z AUTO 00000KT 10SM CLR 33/12 A3006 4590 27 7700 000/00 RMK AO2 T03330122                                                               
24015KAKO AKO20190806134510908/06/19 13:45:31  5-MIN KAKO 062045Z AUTO VRB04KT 10SM CLR 34/16 A3006 4590 34 7800 VRB/04 RMK AO2 T03390161                                                               
24015KAKO AKO20190806135012208/06/19 13:50:31  5-MIN KAKO 062050Z AUTO VRB05KT 10SM CLR 33/15 A3006 4590 32 7700 VRB/05 RMK AO2 SLP109 T03330150 58010                                                  
24015KAKO AKO20190806140012008/06/19 14:00:31  5-MIN KAKO 062100Z AUTO VRB04KT 10SM CLR 33/13 A3005 4600 28 7700 VRB/04 RMK AO2 LTG DSNT E T03330128                                                    
24015KAKO AKO20190807222016108/07/19 22:20:31  5-MIN KAKO 080520Z AUTO VRB04G23KT 10SM VCTS -RA FEW039 SCT070 OVC100 19/18 A3011 4550 93 6100 VRB/04G23 RMK AO2 LTG DSNT NW-E P0005 T01890178           
24015KAKO AKO20190807235014008/07/19 23:50:31  5-MIN KAKO 080650Z AUTO VRB03KT 10SM OVC100 18/17 A3011 4550 93 5900 VRB/03 RMK AO2 LTG DSNT E SLP134 T01780167 403110167                                
24015KAKO AKO20190807235513308/07/19 23:55:31  5-MIN KAKO 080655Z AUTO 00000KT 10SM -RA OVC100 18/17 A3011 4550 93 5900 000/00 RMK AO2 LTG DSNT E P0000 T01780167                                       
24015KAKO AKO20190808000013308/08/19 00:00:31  5-MIN KAKO 080700Z AUTO 00000KT 10SM -RA OVC100 18/17 A3011 4540 90 6000 000/00 RMK AO2 LTG DSNT E P0001 T01830167                                       
24015KAKO AKO20190808000512108/08/19 00:05:31  5-MIN KAKO 080705Z AUTO 00000KT 8SM -RA OVC100 18/17 A3012 4540 90 6000 000/00 RMK AO2 P0001 T01830167                                                   
24015KAKO AKO20190808024510908/08/19 02:45:31  5-MIN KAKO 080945Z AUTO VRB05KT 10SM CLR 18/17 A3009 4570 93 6000 VRB/05 RMK AO2 T01780167                                                               
24015KAKO AKO20190808032510908/08/19 03:25:31  5-MIN KAKO 081025Z AUTO 00000KT 10SM CLR 18/17 A3010 4560 93 6000 000/00 RMK AO2 T01780167                                                               
24015KAKO AKO20190808033010908/08/19 03:30:31  5-MIN KAKO 081030Z AUTO 00000KT 10SM CLR 18/17 A3010 4550 93 6000 000/00 RMK AO2 T01780167                                                               
24015KAKO AKO20190808102511208/08/19 10:25:31  5-MIN KAKO 081725Z AUTO 00000KT 10SM SCT120 25/16 A3013 4530 55 6700 000/00 RMK AO2 T02500156                                                            
24015KAKO AKO20190808103011208/08/19 10:30:31  5-MIN KAKO 081730Z AUTO 00000KT 10SM SCT120 26/16 A3013 4530 55 6800 000/00 RMK AO2 T02560161                                                            
24015KAKO AKO20190808103511208/08/19 10:35:31  5-MIN KAKO 081735Z AUTO 00000KT 10SM FEW120 25/16 A3013 4530 57 6700 000/00 RMK AO2 T02500161                                                            
24015KAKO AKO20190808104011208/08/19 10:40:31  5-MIN KAKO 081740Z AUTO 00000KT 10SM SCT120 26/16 A3013 4530 55 6800 000/00 RMK AO2 T02560161                                                            
24015KAKO AKO20190808105013708/08/19 10:50:31  5-MIN KAKO 081750Z AUTO 00000KT 10SM BKN120 26/16 A3013 4530 55 6800 000/00 RMK AO2 SLP145 T02560161 10256 20172 53006                                   
24015KAKO AKO20190808105511208/08/19 10:55:31  5-MIN KAKO 081755Z AUTO VRB04KT 10SM BKN120 26/16 A3013 4530 55 6800 VRB/04 RMK AO2 T02560161                                                            
24015KAKO AKO20190808110511908/08/19 11:05:31  5-MIN KAKO 081805Z AUTO 00000KT 10SM FEW044 BKN120 26/16 A3013 4530 55 6800 000/00 RMK AO2 T02560161                                                     
24015KAKO AKO20190808111011908/08/19 11:10:31  5-MIN KAKO 081810Z AUTO VRB04KT 10SM FEW044 BKN120 26/17 A3013 4530 55 6800 VRB/04 RMK AO2 T02610167                                                     
24015KAKO AKO20190808111511908/08/19 11:15:31  5-MIN KAKO 081815Z AUTO VRB06KT 10SM FEW044 BKN110 26/16 A3013 4530 53 6800 VRB/06 RMK AO2 T02610161                                                     
24015KAKO AKO20190808114011908/08/19 11:40:31  5-MIN KAKO 081840Z AUTO VRB04KT 10SM FEW042 OVC110 26/17 A3012 4530 57 6900 VRB/04 RMK AO2 T02610172                                                     
24015KAKO AKO20190809082510908/09/19 08:25:31  5-MIN KAKO 091525Z AUTO VRB04KT 10SM CLR 24/16 A3007 4580 61 6700 VRB/04 RMK AO2 T02390161                                                               
24015KAKO AKO20190809103010908/09/19 10:30:31  5-MIN KAKO 091730Z AUTO VRB05KT 10SM CLR 29/14 A3005 4600 40 7200 VRB/05 RMK AO2 T02890144                                                               
24015KAKO AKO20190809105013408/09/19 10:50:31  5-MIN KAKO 091750Z AUTO VRB05KT 10SM CLR 30/14 A3005 4600 36 7400 VRB/05 RMK AO2 SLP107 T03000139 10300 20172 58001                                      
24015KAKO AKO20190809110010908/09/19 11:00:31  5-MIN KAKO 091800Z AUTO VRB03KT 10SM CLR 29/13 A3004 4600 36 7300 VRB/03 RMK AO2 T02940133                                                               
24015KAKO AKO20190809112010908/09/19 11:20:31  5-MIN KAKO 091820Z AUTO VRB05KT 10SM CLR 30/14 A3003 4610 36 7400 VRB/05 RMK AO2 T03000139                                                               
24015KAKO AKO20190809112510908/09/19 11:25:31  5-MIN KAKO 091825Z AUTO 00000KT 10SM CLR 29/14 A3003 4620 38 7300 000/00 RMK AO2 T02940139                                                               
24015KAKO AKO20190809113510908/09/19 11:35:31  5-MIN KAKO 091835Z AUTO VRB03KT 10SM CLR 30/14 A3003 4620 36 7400 VRB/03 RMK AO2 T03000139                                                               
24015KAKO AKO20190809114010908/09/19 11:40:31  5-MIN KAKO 091840Z AUTO VRB04KT 10SM CLR 31/14 A3003 4620 37 7400 VRB/04 RMK AO2 T03060144                                                               
24015KAKO AKO20190809115011608/09/19 11:50:31  5-MIN KAKO 091850Z AUTO VRB03KT 10SM CLR 30/14 A3002 4620 38 7400 VRB/03 RMK AO2 SLP101 T03000144                                                        
24015KAKO AKO20190809120010908/09/19 12:00:31  5-MIN KAKO 091900Z AUTO VRB04KT 10SM CLR 31/14 A3002 4620 35 7400 VRB/04 RMK AO2 T03060139                                                               
24015KAKO AKO20190809120510908/09/19 12:05:31  5-MIN KAKO 091905Z AUTO VRB05KT 10SM CLR 31/14 A3002 4620 37 7400 VRB/05 RMK AO2 T03060144                                                               
24015KAKO AKO20190809121010908/09/19 12:10:31  5-MIN KAKO 091910Z AUTO 00000KT 10SM CLR 31/14 A3002 4630 35 7400 000/00 RMK AO2 T03060139                                                               
24015KAKO AKO20190809123510908/09/19 12:35:31  5-MIN KAKO 091935Z AUTO VRB03KT 10SM CLR 31/13 A3001 4630 33 7500 VRB/03 RMK AO2 T03110133                                                               
24015KAKO AKO20190809125011608/09/19 12:50:31  5-MIN KAKO 091950Z AUTO VRB03KT 10SM CLR 31/13 A3001 4640 32 7500 VRB/03 RMK AO2 SLP095 T03110128                                                        
24015KAKO AKO20190809125510908/09/19 12:55:31  5-MIN KAKO 091955Z AUTO VRB03KT 10SM CLR 32/13 A3001 4640 31 7600 VRB/03 RMK AO2 T03220133                                                               
24015KAKO AKO20190809131010908/09/19 13:10:31  5-MIN KAKO 092010Z AUTO VRB03KT 10SM CLR 32/12 A3001 4640 30 7600 VRB/03 RMK AO2 T03170122                                                               
24015KAKO AKO20190809131510908/09/19 13:15:31  5-MIN KAKO 092015Z AUTO VRB04KT 10SM CLR 32/13 A3001 4640 30 7600 VRB/04 RMK AO2 T03220128                                                               
24015KAKO AKO20190809132010908/09/19 13:20:31  5-MIN KAKO 092020Z AUTO 00000KT 10SM CLR 32/13 A3001 4640 31 7600 000/00 RMK AO2 T03170128                                                               
24015KAKO AKO20190809135012208/09/19 13:50:31  5-MIN KAKO 092050Z AUTO VRB06KT 10SM CLR 33/14 A3000 4650 31 7700 VRB/06 RMK AO2 SLP089 T03280139 58009                                                  
24015KAKO AKO20190809135510908/09/19 13:55:31  5-MIN KAKO 092055Z AUTO VRB04KT 10SM CLR 32/13 A2999 4650 31 7600 VRB/04 RMK AO2 T03220133                                                               
24015KAKO AKO20190809142510908/09/19 14:25:31  5-MIN KAKO 092125Z AUTO VRB04KT 10SM CLR 32/13 A2999 4660 30 7700 VRB/04 RMK AO2 T03220128                                                               
24015KAKO AKO20190809143010908/09/19 14:30:31  5-MIN KAKO 092130Z AUTO VRB05KT 10SM CLR 33/13 A2999 4660 29 7700 VRB/05 RMK AO2 T03280128                                                               
24015KAKO AKO20190809144010908/09/19 14:40:31  5-MIN KAKO 092140Z AUTO VRB04KT 10SM CLR 33/12 A2998 4660 28 7700 VRB/04 RMK AO2 T03280122                                                               
24015KAKO AKO20190809150010908/09/19 15:00:31  5-MIN KAKO 092200Z AUTO 00000KT 10SM CLR 33/11 A2998 4670 26 7700 000/00 RMK AO2 T03280111                                                               
24015KAKO AKO20190809151510908/09/19 15:15:31  5-MIN KAKO 092215Z AUTO VRB03KT 10SM CLR 33/11 A2997 4670 26 7700 VRB/03 RMK AO2 T03280111                                                               
24015KAKO AKO20190809152510908/09/19 15:25:31  5-MIN KAKO 092225Z AUTO VRB03KT 10SM CLR 33/09 A2997 4670 23 7700 VRB/03 RMK AO2 T03280094                                                               
24015KAKO AKO20190809153010908/09/19 15:30:31  5-MIN KAKO 092230Z AUTO 00000KT 10SM CLR 33/08 A2997 4670 21 7700 000/00 RMK AO2 T03280078                                                               
24015KAKO AKO20190809153510908/09/19 15:35:31  5-MIN KAKO 092235Z AUTO 00000KT 10SM CLR 33/07 A2997 4670 20 7700 000/00 RMK AO2 T03280072                                                               
24015KAKO AKO20190809154010908/09/19 15:40:31  5-MIN KAKO 092240Z AUTO 00000KT 10SM CLR 33/07 A2997 4670 20 7700 000/00 RMK AO2 T03280072                                                               
24015KAKO AKO20190809154510908/09/19 15:45:31  5-MIN KAKO 092245Z AUTO 00000KT 10SM CLR 33/06 A2997 4670 18 7700 000/00 RMK AO2 T03280061                                                               
24015KAKO AKO20190809155510908/09/19 15:55:31  5-MIN KAKO 092255Z AUTO 00000KT 10SM CLR 33/05 A2997 4670 16 7800 000/00 RMK AO2 T03330050                                                               
24015KAKO AKO20190810000510908/10/19 00:05:31  5-MIN KAKO 100705Z AUTO 00000KT 10SM CLR 22/14 A3001 4630 63 6500 000/00 RMK AO2 T02170144                                                               
24015KAKO AKO20190810090010908/10/19 09:00:31  5-MIN KAKO 101600Z AUTO 00000KT 10SM CLR 27/14 A3006 4590 46 7000 000/00 RMK AO2 T02670144                                                               
24015KAKO AKO20190810092010908/10/19 09:20:31  5-MIN KAKO 101620Z AUTO 00000KT 10SM CLR 27/15 A3006 4590 48 7000 000/00 RMK AO2 T02670150                                                               
24015KAKO AKO20190810092510908/10/19 09:25:31  5-MIN KAKO 101625Z AUTO 00000KT 10SM CLR 27/14 A3007 4590 46 7000 000/00 RMK AO2 T02670144                                                               
24015KAKO AKO20190810093510908/10/19 09:35:31  5-MIN KAKO 101635Z AUTO 00000KT 10SM CLR 27/14 A3007 4580 46 7000 000/00 RMK AO2 T02670144                                                               
24015KAKO AKO20190810094010908/10/19 09:40:31  5-MIN KAKO 101640Z AUTO 00000KT 10SM CLR 27/14 A3007 4580 46 7000 000/00 RMK AO2 T02670144                                                               
24015KAKO AKO20190810094510908/10/19 09:45:31  5-MIN KAKO 101645Z AUTO 00000KT 10SM CLR 27/15 A3007 4580 48 7000 000/00 RMK AO2 T02670150                                                               
24015KAKO AKO20190810095011608/10/19 09:50:31  5-MIN KAKO 101650Z AUTO 00000KT 10SM CLR 27/14 A3007 4580 45 7000 000/00 RMK AO2 SLP115 T02720144                                                        
24015KAKO AKO20190810095510908/10/19 09:55:31  5-MIN KAKO 101655Z AUTO 00000KT 10SM CLR 27/14 A3007 4580 45 7000 000/00 RMK AO2 T02720144                                                               
24015KAKO AKO20190810100010908/10/19 10:00:31  5-MIN KAKO 101700Z AUTO 00000KT 10SM CLR 27/15 A3007 4580 46 7000 000/00 RMK AO2 T02720150                                                               
24015KAKO AKO20190810100510908/10/19 10:05:31  5-MIN KAKO 101705Z AUTO 00000KT 10SM CLR 27/14 A3007 4580 45 7000 000/00 RMK AO2 T02720144                                                               
24015KAKO AKO20190810102510908/10/19 10:25:31  5-MIN KAKO 101725Z AUTO VRB04KT 10SM CLR 28/15 A3007 4580 45 7100 VRB/04 RMK AO2 T02780150                                                               
24015KAKO AKO20190810125013108/10/19 12:50:31  5-MIN KAKO 101950Z AUTO 00000KT 10SM CLR 29/16 A3006 4590 45 7200 000/00 RMK AO2 RAB15E32 SLP112 P0000 T02890161                                         
24015KAKO AKO20190810131010908/10/19 13:10:31  5-MIN KAKO 102010Z AUTO VRB04KT 10SM CLR 29/16 A3006 4590 42 7300 VRB/04 RMK AO2 T02940156                                                               
24015KAKO AKO20190810131510908/10/19 13:15:31  5-MIN KAKO 102015Z AUTO VRB04KT 10SM CLR 29/16 A3006 4590 42 7300 VRB/04 RMK AO2 T02940156                                                               
24015KAKO AKO20190810133010908/10/19 13:30:31  5-MIN KAKO 102030Z AUTO 00000KT 10SM CLR 29/16 A3006 4590 42 7300 000/00 RMK AO2 T02940156                                                               
24015KAKO AKO20190810133510908/10/19 13:35:31  5-MIN KAKO 102035Z AUTO 00000KT 10SM CLR 30/15 A3006 4590 39 7300 000/00 RMK AO2 T03000150                                                               
24015KAKO AKO20190810145510908/10/19 14:55:31  5-MIN KAKO 102155Z AUTO VRB05KT 10SM CLR 30/16 A3004 4610 42 7400 VRB/05 RMK AO2 T03000161                                                               
24015KAKO AKO20190810150010908/10/19 15:00:31  5-MIN KAKO 102200Z AUTO VRB05KT 10SM CLR 31/16 A3004 4610 41 7400 VRB/05 RMK AO2 T03060161                                                               
24015KAKO AKO20190810152011208/10/19 15:20:31  5-MIN KAKO 102220Z AUTO 00000KT 10SM FEW120 31/15 A3003 4620 37 7500 000/00 RMK AO2 T03110150                                                            
24015KAKO AKO20190811013510908/11/19 01:35:31  5-MIN KAKO 110835Z AUTO VRB04KT 10SM CLR 18/17 A3005 4600 90 6100 VRB/04 RMK AO2 T01830167                                                               
24015KAKO AKO20190811064511208/11/19 06:45:31  5-MIN KAKO 111345Z AUTO 00000KT 7SM BKN002 18/18 A3008 4570 100 6000 000/00 RMK AO2 T01830183                                                            
24015KAKO AKO20190811065010208/11/19 06:50:31  5-MIN KAKO 111350Z AUTO 00000KT 8SM SCT002 18/18 A3008 4570 100 6000 000/00 RMK AO2                                                                      
24015KAKO AKO20190811070011208/11/19 07:00:31  5-MIN KAKO 111400Z AUTO 00000KT 9SM FEW004 18/18 A3009 4560 100 6000 000/00 RMK AO2 T01830183                                                            
24015KAKO AKO20190811070511208/11/19 07:05:31  5-MIN KAKO 111405Z AUTO 00000KT 9SM SCT004 18/18 A3009 4560 100 6000 000/00 RMK AO2 T01830183                                                            
24015KAKO AKO20190811085512408/11/19 08:55:31  5-MIN KAKO 111555Z AUTO VRB04KT 10SM BKN010 23/19 A3009 4570 78 6500 VRB/04 RMK AO2 CIG 007V012 T02280189                                                
24015KAKO AKO20190811090511208/11/19 09:05:31  5-MIN KAKO 111605Z AUTO VRB03KT 10SM SCT010 23/19 A3009 4560 76 6600 VRB/03 RMK AO2 T02330189                                                            
24015KAKO AKO20190811091011208/11/19 09:10:31  5-MIN KAKO 111610Z AUTO VRB03KT 10SM FEW012 23/19 A3009 4560 76 6600 VRB/03 RMK AO2 T02330189                                                            
24015KAKO AKO20190811092510908/11/19 09:25:31  5-MIN KAKO 111625Z AUTO VRB03KT 10SM CLR 23/18 A3009 4560 73 6600 VRB/03 RMK AO2 T02330183                                                               
24015KAKO AKO20190811093010908/11/19 09:30:31  5-MIN KAKO 111630Z AUTO 00000KT 10SM CLR 23/18 A3009 4560 73 6600 000/00 RMK AO2 T02330183                                                               
24015KAKO AKO20190811093510908/11/19 09:35:31  5-MIN KAKO 111635Z AUTO 00000KT 10SM CLR 23/18 A3009 4560 76 6500 000/00 RMK AO2 T02280183                                                               
24015KAKO AKO20190811094010908/11/19 09:40:31  5-MIN KAKO 111640Z AUTO 00000KT 10SM CLR 24/19 A3009 4570 73 6600 000/00 RMK AO2 T02390189                                                               
24015KAKO AKO20190811095011608/11/19 09:50:31  5-MIN KAKO 111650Z AUTO VRB03KT 10SM CLR 24/18 A3008 4570 71 6600 VRB/03 RMK AO2 SLP133 T02390183                                                        
24015KAKO AKO20190811102010908/11/19 10:20:31  5-MIN KAKO 111720Z AUTO 00000KT 10SM CLR 26/18 A3008 4570 61 6800 000/00 RMK AO2 T02560178                                                               
24015KAKO AKO20190811102510908/11/19 10:25:31  5-MIN KAKO 111725Z AUTO 00000KT 10SM CLR 25/17 A3008 4570 61 6800 000/00 RMK AO2 T02500172                                                               
24015KAKO AKO20190811103010908/11/19 10:30:31  5-MIN KAKO 111730Z AUTO 00000KT 10SM CLR 26/17 A3008 4580 57 6900 000/00 RMK AO2 T02610172                                                               
24015KAKO AKO20190811103510908/11/19 10:35:31  5-MIN KAKO 111735Z AUTO 00000KT 10SM CLR 26/17 A3008 4580 57 6900 000/00 RMK AO2 T02610172                                                               
24015KAKO AKO20190811104010908/11/19 10:40:31  5-MIN KAKO 111740Z AUTO 00000KT 10SM CLR 27/18 A3007 4580 57 7000 000/00 RMK AO2 T02670178                                                               
24015KAKO AKO20190811104510908/11/19 10:45:31  5-MIN KAKO 111745Z AUTO 00000KT 10SM CLR 27/18 A3007 4580 57 7000 000/00 RMK AO2 T02670178                                                               
24015KAKO AKO20190811105013408/11/19 10:50:31  5-MIN KAKO 111750Z AUTO VRB03KT 10SM CLR 27/17 A3007 4580 54 7000 VRB/03 RMK AO2 SLP121 T02720172 10272 20172 53005                                      
24015KAKO AKO20190811105510908/11/19 10:55:31  5-MIN KAKO 111755Z AUTO 00000KT 10SM CLR 27/17 A3007 4590 54 7000 000/00 RMK AO2 T02720172                                                               
24015KAKO AKO20190811110010908/11/19 11:00:31  5-MIN KAKO 111800Z AUTO 00000KT 10SM CLR 27/17 A3006 4590 55 7000 000/00 RMK AO2 T02670172                                                               
24015KAKO AKO20190811110510908/11/19 11:05:31  5-MIN KAKO 111805Z AUTO 00000KT 10SM CLR 27/17 A3006 4590 52 7000 000/00 RMK AO2 T02720167                                                               
24015KAKO AKO20190811111510908/11/19 11:15:31  5-MIN KAKO 111815Z AUTO 00000KT 10SM CLR 28/16 A3006 4590 46 7100 000/00 RMK AO2 T02780156                                                               
24015KAKO AKO20190811112010908/11/19 11:20:31  5-MIN KAKO 111820Z AUTO VRB03KT 10SM CLR 28/16 A3006 4590 45 7200 VRB/03 RMK AO2 T02830156                                                               
24015KAKO AKO20190811112510908/11/19 11:25:31  5-MIN KAKO 111825Z AUTO VRB03KT 10SM CLR 28/16 A3006 4590 47 7200 VRB/03 RMK AO2 T02830161                                                               
24015KAKO AKO20190811113010908/11/19 11:30:31  5-MIN KAKO 111830Z AUTO 00000KT 10SM CLR 28/16 A3005 4600 45 7200 000/00 RMK AO2 T02830156                                                               
24015KAKO AKO20190811113510908/11/19 11:35:31  5-MIN KAKO 111835Z AUTO 00000KT 10SM CLR 28/16 A3005 4600 45 7200 000/00 RMK AO2 T02830156                                                               
24015KAKO AKO20190811114510908/11/19 11:45:31  5-MIN KAKO 111845Z AUTO 00000KT 10SM CLR 29/16 A3005 4600 44 7300 000/00 RMK AO2 T02940161                                                               
24015KAKO AKO20190811120010908/11/19 12:00:31  5-MIN KAKO 111900Z AUTO 00000KT 10SM CLR 29/16 A3004 4610 44 7200 000/00 RMK AO2 T02890156                                                               
24015KAKO AKO20190811120511208/11/19 12:05:31  5-MIN KAKO 111905Z AUTO 00000KT 10SM FEW110 29/16 A3004 4610 42 7300 000/00 RMK AO2 T02940156                                                            
24015KAKO AKO20190811121011908/11/19 12:10:31  5-MIN KAKO 111910Z AUTO VRB04KT 10SM FEW055 FEW110 30/16 A3004 4610 42 7400 VRB/04 RMK AO2 T03000161                                                     
24015KAKO AKO20190811121511208/11/19 12:15:31  5-MIN KAKO 111915Z AUTO VRB04KT 10SM FEW055 29/16 A3004 4610 44 7300 VRB/04 RMK AO2 T02940161                                                            
24015KAKO AKO20190811122011208/11/19 12:20:31  5-MIN KAKO 111920Z AUTO VRB03KT 10SM FEW055 29/16 A3003 4610 45 7200 VRB/03 RMK AO2 T02890161                                                            
24015KAKO AKO20190811161516908/11/19 16:15:31  5-MIN KAKO 112315Z AUTO 00000KT 1SM +TSRA BR FEW017 BKN049 OVC090 21/19 A3003 4620 90 6400 000/00 RMK AO2 LTG DSNT ALQDS RAB2254 TSB01 P0016 T02110194   
24015KAKO AKO20190811162017108/11/19 16:20:31  5-MIN KAKO 112320Z AUTO VRB05KT 1/2SM +TSRA FG FEW017 BKN035 OVC090 20/19 A3000 4650 97 6300 VRB/05 RMK AO2 LTG DSNT ALQDS RAB2254 TSB01 P0033 T02000194 
24015KAKO AKO20190811184510908/11/19 18:45:31  5-MIN KAKO 120145Z AUTO 00000KT 10SM CLR 19/17 A3003 4620 87 6200 000/00 RMK AO2 T01890167                                                               
24015KAKO AKO20190811185011608/11/19 18:50:31  5-MIN KAKO 120150Z AUTO 00000KT 10SM CLR 19/17 A3003 4620 87 6200 000/00 RMK AO2 SLP120 T01890167                                                        
24015KAKO AKO20190811204510908/11/19 20:45:31  5-MIN KAKO 120345Z AUTO 00000KT 10SM CLR 18/17 A3004 4610 93 6000 000/00 RMK AO2 T01780167                                                               
24015KAKO AKO20190811224010908/11/19 22:40:31  5-MIN KAKO 120540Z AUTO 00000KT 10SM CLR 17/16 A3002 4620 93 5900 000/00 RMK AO2 T01670156                                                               
24015KAKO AKO20190813231012508/13/19 23:10:31  5-MIN KAKO 140610Z AUTO VRB03KT 10SM VCTS CLR 14/13 A3033 4350 90 5300 VRB/03 RMK AO2 LTG DSNT W T01440128                                               
24015KAKO AKO20190813232012908/13/19 23:20:31  5-MIN KAKO 140620Z AUTO 00000KT 10SM VCTS SCT100 14/13 A3034 4330 90 5300 000/00 RMK AO2 LTG DSNT SW T01440128                                           
24015KAKO AKO20190814005013408/14/19 00:50:31  5-MIN KAKO 140750Z AUTO 00000KT 10SM CLR 14/13 A3028 4390 90 5400 000/00 RMK AO2 LTG DSNT S AND SW SLP199 T01440128                                      
24015KAKO AKO20190814015012808/14/19 01:50:31  5-MIN KAKO 140850Z AUTO 00000KT 10SM CLR 14/12 A3026 4400 86 5400 000/00 RMK AO2 SLP195 60003 T01440122 53016                                            
24015KAKO AKO20190814130510908/14/19 13:05:31  5-MIN KAKO 142005Z AUTO VRB06KT 10SM CLR 29/14 A3016 4500 40 7100 VRB/06 RMK AO2 T02890144                                                               
24015KAKO AKO20190814140010908/14/19 14:00:31  5-MIN KAKO 142100Z AUTO 00000KT 10SM CLR 29/12 A3014 4520 33 7200 000/00 RMK AO2 T02940117                                                               
24015KAKO AKO20190814142510908/14/19 14:25:31  5-MIN KAKO 142125Z AUTO 00000KT 10SM CLR 30/11 A3013 4530 29 7300 000/00 RMK AO2 T03000106                                                               
24015KAKO AKO20190814143010908/14/19 14:30:31  5-MIN KAKO 142130Z AUTO VRB03KT 10SM CLR 30/11 A3013 4530 29 7300 VRB/03 RMK AO2 T03000106                                                               
24015KAKO AKO20190814143510908/14/19 14:35:31  5-MIN KAKO 142135Z AUTO VRB03KT 10SM CLR 30/11 A3013 4530 29 7300 VRB/03 RMK AO2 T03000106                                                               
24015KAKO AKO20190815101010908/15/19 10:10:31  5-MIN KAKO 151710Z AUTO 00000KT 10SM CLR 22/15 A3014 4520 63 6400 000/00 RMK AO2 T02220150                                                               
24015KAKO AKO20190815103510908/15/19 10:35:31  5-MIN KAKO 151735Z AUTO VRB06KT 10SM CLR 23/14 A3012 4530 59 6500 VRB/06 RMK AO2 T02280144                                                               
24015KAKO AKO20190815111010908/15/19 11:10:31  5-MIN KAKO 151810Z AUTO VRB05KT 10SM CLR 24/15 A3011 4550 57 6600 VRB/05 RMK AO2 T02390150                                                               
24015KAKO AKO20190815111510908/15/19 11:15:31  5-MIN KAKO 151815Z AUTO VRB03KT 10SM CLR 24/14 A3011 4550 53 6700 VRB/03 RMK AO2 T02440144                                                               
24015KAKO AKO20190815112510908/15/19 11:25:31  5-MIN KAKO 151825Z AUTO VRB03KT 10SM CLR 24/14 A3010 4550 51 6700 VRB/03 RMK AO2 T02440139                                                               
24015KAKO AKO20190815113510908/15/19 11:35:31  5-MIN KAKO 151835Z AUTO VRB05KT 10SM CLR 25/14 A3010 4550 49 6800 VRB/05 RMK AO2 T02500139                                                               
24015KAKO AKO20190815114510908/15/19 11:45:31  5-MIN KAKO 151845Z AUTO VRB05KT 10SM CLR 26/14 A3010 4560 48 6800 VRB/05 RMK AO2 T02560139                                                               
24015KAKO AKO20190815115011608/15/19 11:50:31  5-MIN KAKO 151850Z AUTO VRB06KT 10SM CLR 26/14 A3009 4560 46 6900 VRB/06 RMK AO2 SLP130 T02610139                                                        
24015KAKO AKO20190815120010908/15/19 12:00:31  5-MIN KAKO 151900Z AUTO VRB03KT 10SM CLR 26/14 A3009 4560 46 6900 VRB/03 RMK AO2 T02610139                                                               
24015KAKO AKO20190815122510908/15/19 12:25:31  5-MIN KAKO 151925Z AUTO VRB03KT 10SM CLR 27/14 A3008 4570 45 7000 VRB/03 RMK AO2 T02670139                                                               
24015KAKO AKO20190815123510908/15/19 12:35:31  5-MIN KAKO 151935Z AUTO VRB04KT 10SM CLR 27/13 A3008 4580 42 7000 VRB/04 RMK AO2 T02720133                                                               
24015KAKO AKO20190815124010908/15/19 12:40:31  5-MIN KAKO 151940Z AUTO VRB05KT 10SM CLR 27/14 A3007 4580 43 7000 VRB/05 RMK AO2 T02720139                                                               
24015KAKO AKO20190815124510908/15/19 12:45:31  5-MIN KAKO 151945Z AUTO VRB03KT 10SM CLR 28/14 A3007 4580 42 7100 VRB/03 RMK AO2 T02780139                                                               
24015KAKO AKO20190815125011608/15/19 12:50:31  5-MIN KAKO 151950Z AUTO VRB04KT 10SM CLR 28/13 A3007 4580 40 7100 VRB/04 RMK AO2 SLP121 T02780133                                                        
24015KAKO AKO20190815130510908/15/19 13:05:31  5-MIN KAKO 152005Z AUTO VRB05KT 10SM CLR 28/13 A3007 4580 37 7100 VRB/05 RMK AO2 T02830128                                                               
24015KAKO AKO20190815131510908/15/19 13:15:31  5-MIN KAKO 152015Z AUTO 00000KT 10SM CLR 28/12 A3007 4580 36 7200 000/00 RMK AO2 T02830122                                                               
24015KAKO AKO20190815133010908/15/19 13:30:31  5-MIN KAKO 152030Z AUTO VRB04KT 10SM CLR 28/12 A3006 4590 36 7200 VRB/04 RMK AO2 T02830122                                                               
24015KAKO AKO20190815134510908/15/19 13:45:31  5-MIN KAKO 152045Z AUTO 00000KT 10SM CLR 29/12 A3006 4590 34 7200 000/00 RMK AO2 T02890117                                                               
24015KAKO AKO20190815135510908/15/19 13:55:31  5-MIN KAKO 152055Z AUTO 00000KT 10SM CLR 29/11 A3005 4600 30 7300 000/00 RMK AO2 T02940106                                                               
24015KAKO AKO20190815142010908/15/19 14:20:31  5-MIN KAKO 152120Z AUTO VRB05KT 10SM CLR 30/11 A3004 4610 30 7400 VRB/05 RMK AO2 T03000111                                                               
24015KAKO AKO20190815143010908/15/19 14:30:31  5-MIN KAKO 152130Z AUTO VRB06KT 10SM CLR 30/11 A3003 4610 29 7400 VRB/06 RMK AO2 T03000106                                                               
24015KAKO AKO20190816103510908/16/19 10:35:31  5-MIN KAKO 161735Z AUTO VRB05KT 10SM CLR 25/16 A3003 4620 57 6800 VRB/05 RMK AO2 T02500161                                                               
24015KAKO AKO20190816105510908/16/19 10:55:31  5-MIN KAKO 161755Z AUTO VRB03KT 10SM CLR 26/15 A3002 4630 50 7000 VRB/03 RMK AO2 T02610150                                                               
24015KAKO AKO20190816114010908/16/19 11:40:31  5-MIN KAKO 161840Z AUTO 00000KT 10SM CLR 28/15 A2999 4660 45 7200 000/00 RMK AO2 T02780150                                                               
24015KAKO AKO20190816114510908/16/19 11:45:31  5-MIN KAKO 161845Z AUTO 00000KT 10SM CLR 28/15 A2999 4660 43 7200 000/00 RMK AO2 T02830150                                                               
24015KAKO AKO20190816115011608/16/19 11:50:31  5-MIN KAKO 161850Z AUTO VRB03KT 10SM CLR 28/15 A2998 4660 43 7200 VRB/03 RMK AO2 SLP092 T02830150                                                        
24015KAKO AKO20190816115510908/16/19 11:55:31  5-MIN KAKO 161855Z AUTO VRB04KT 10SM CLR 29/15 A2998 4660 42 7300 VRB/04 RMK AO2 T02890150                                                               
24015KAKO AKO20190816120010908/16/19 12:00:31  5-MIN KAKO 161900Z AUTO 00000KT 10SM CLR 29/15 A2997 4670 42 7300 000/00 RMK AO2 T02890150                                                               
24015KAKO AKO20190816120510908/16/19 12:05:31  5-MIN KAKO 161905Z AUTO VRB03KT 10SM CLR 29/16 A2997 4670 44 7300 VRB/03 RMK AO2 T02890156                                                               
24015KAKO AKO20190816122510908/16/19 12:25:31  5-MIN KAKO 161925Z AUTO VRB03KT 10SM CLR 29/14 A2997 4680 39 7400 VRB/03 RMK AO2 T02940144                                                               
24015KAKO AKO20190816130511508/16/19 13:05:31  5-MIN KAKO 162005Z AUTO VRB05G15KT 10SM CLR 29/15 A2995 4690 41 7400 VRB/05G15 RMK AO2 T02940150                                                         
24015KAKO AKO20190816131010908/16/19 13:10:31  5-MIN KAKO 162010Z AUTO VRB06KT 10SM CLR 29/15 A2995 4690 41 7400 VRB/06 RMK AO2 T02940150                                                               
24015KAKO AKO20190816132010908/16/19 13:20:31  5-MIN KAKO 162020Z AUTO VRB04KT 10SM CLR 30/14 A2995 4690 38 7500 VRB/04 RMK AO2 T03000144                                                               
24015KAKO AKO20190816140010908/16/19 14:00:31  5-MIN KAKO 162100Z AUTO VRB04KT 10SM CLR 30/16 A2993 4710 41 7500 VRB/04 RMK AO2 T03000156                                                               
24015KAKO AKO20190816141010908/16/19 14:10:31  5-MIN KAKO 162110Z AUTO VRB04KT 10SM CLR 31/16 A2992 4720 39 7600 VRB/04 RMK AO2 T03060156                                                               
24015KAKO AKO20190816141510908/16/19 14:15:31  5-MIN KAKO 162115Z AUTO 00000KT 10SM CLR 30/15 A2991 4730 39 7500 000/00 RMK AO2 T03000150                                                               
24015KAKO AKO20190816144010908/16/19 14:40:31  5-MIN KAKO 162140Z AUTO VRB04KT 10SM CLR 31/16 A2991 4730 40 7600 VRB/04 RMK AO2 T03110161                                                               
24015KAKO AKO20190816150012008/16/19 15:00:31  5-MIN KAKO 162200Z AUTO VRB03KT 10SM CLR 31/16 A2989 4740 38 7600 VRB/03 RMK AO2 LTG DSNT S T03110156                                                    
24015KAKO AKO20190816150512008/16/19 15:05:31  5-MIN KAKO 162205Z AUTO VRB03KT 10SM CLR 31/16 A2989 4740 38 7600 VRB/03 RMK AO2 LTG DSNT S T03110156                                                    
24015KAKO AKO20190816151012708/16/19 15:10:31  5-MIN KAKO 162210Z AUTO VRB03KT 10SM CLR 31/15 A2990 4740 38 7600 VRB/03 RMK AO2 LTG DSNT SE AND S T03060150                                             
24015KAKO AKO20190816151512108/16/19 15:15:31  5-MIN KAKO 162215Z AUTO VRB06KT 10SM CLR 31/16 A2990 4740 38 7600 VRB/06 RMK AO2 LTG DSNT SE T03110156                                                   
24015KAKO AKO20190816161014808/16/19 16:10:31  5-MIN KAKO 162310Z AUTO VRB04G15KT 10SM VCTS OVC070 28/15 A2991 4730 45 7300 VRB/04G15 RMK AO2 LTG DSNT NE AND E AND SW T02780150                        
24015KAKO AKO20190817092010908/17/19 09:20:31  5-MIN KAKO 171620Z AUTO VRB05KT 10SM CLR 27/10 A2992 4720 33 7200 VRB/05 RMK AO2 T02720100                                                               
24015KAKO AKO20190817093010908/17/19 09:30:31  5-MIN KAKO 171630Z AUTO VRB04KT 10SM CLR 28/08 A2992 4720 29 7300 VRB/04 RMK AO2 T02780083                                                               
24015KAKO AKO20190817100010908/17/19 10:00:31  5-MIN KAKO 171700Z AUTO 00000KT 10SM CLR 28/07 A2991 4730 27 7300 000/00 RMK AO2 T02780072                                                               
24015KAKO AKO20190817100510908/17/19 10:05:31  5-MIN KAKO 171705Z AUTO 00000KT 10SM CLR 28/08 A2992 4720 28 7300 000/00 RMK AO2 T02780078                                                               
24015KAKO AKO20190817101510908/17/19 10:15:31  5-MIN KAKO 171715Z AUTO 00000KT 10SM CLR 28/06 A2992 4720 24 7300 000/00 RMK AO2 T02780056                                                               
24015KAKO AKO20190817102010908/17/19 10:20:31  5-MIN KAKO 171720Z AUTO 00000KT 10SM CLR 29/07 A2992 4720 24 7400 000/00 RMK AO2 T02890067                                                               
24015KAKO AKO20190817102510908/17/19 10:25:31  5-MIN KAKO 171725Z AUTO VRB03KT 10SM CLR 29/07 A2991 4730 23 7400 VRB/03 RMK AO2 T02940067                                                               
24015KAKO AKO20190817103010908/17/19 10:30:31  5-MIN KAKO 171730Z AUTO 00000KT 10SM CLR 28/06 A2991 4730 24 7300 000/00 RMK AO2 T02830061                                                               
24015KAKO AKO20190817103510908/17/19 10:35:31  5-MIN KAKO 171735Z AUTO VRB03KT 10SM CLR 29/07 A2991 4730 23 7400 VRB/03 RMK AO2 T02940067                                                               
24015KAKO AKO20190817104510908/17/19 10:45:31  5-MIN KAKO 171745Z AUTO 00000KT 10SM CLR 29/05 A2991 4730 21 7400 000/00 RMK AO2 T02890050                                                               
24015KAKO AKO20190817105013408/17/19 10:50:31  5-MIN KAKO 171750Z AUTO VRB04KT 10SM CLR 30/07 A2991 4730 22 7500 VRB/04 RMK AO2 SLP064 T03000067 10300 20161 50002                                      
24015KAKO AKO20190817105510908/17/19 10:55:31  5-MIN KAKO 171755Z AUTO 00000KT 10SM CLR 29/06 A2991 4730 23 7400 000/00 RMK AO2 T02890061                                                               
24015KAKO AKO20190817110010908/17/19 11:00:31  5-MIN KAKO 171800Z AUTO 00000KT 10SM CLR 29/06 A2991 4730 22 7400 000/00 RMK AO2 T02890056                                                               
24015KAKO AKO20190817111510908/17/19 11:15:31  5-MIN KAKO 171815Z AUTO 00000KT 10SM CLR 29/06 A2991 4730 22 7400 000/00 RMK AO2 T02890056                                                               
24015KAKO AKO20190817112510908/17/19 11:25:31  5-MIN KAKO 171825Z AUTO 00000KT 10SM CLR 28/05 A2990 4740 22 7300 000/00 RMK AO2 T02830050                                                               
24015KAKO AKO20190817113010908/17/19 11:30:31  5-MIN KAKO 171830Z AUTO 00000KT 10SM CLR 29/06 A2990 4740 22 7400 000/00 RMK AO2 T02890056                                                               
24015KAKO AKO20190817113510908/17/19 11:35:31  5-MIN KAKO 171835Z AUTO 00000KT 10SM CLR 29/05 A2990 4740 21 7400 000/00 RMK AO2 T02890050                                                               
24015KAKO AKO20190817114010908/17/19 11:40:31  5-MIN KAKO 171840Z AUTO 00000KT 10SM CLR 29/07 A2990 4740 23 7500 000/00 RMK AO2 T02940067                                                               
24015KAKO AKO20190817114510908/17/19 11:45:31  5-MIN KAKO 171845Z AUTO 00000KT 10SM CLR 29/05 A2990 4740 21 7400 000/00 RMK AO2 T02890050                                                               
24015KAKO AKO20190817115011608/17/19 11:50:31  5-MIN KAKO 171850Z AUTO 00000KT 10SM CLR 30/06 A2989 4750 22 7500 000/00 RMK AO2 SLP054 T03000061                                                        
24015KAKO AKO20190817115510908/17/19 11:55:31  5-MIN KAKO 171855Z AUTO 00000KT 10SM CLR 29/06 A2989 4750 21 7500 000/00 RMK AO2 T02940056                                                               
24015KAKO AKO20190817120010908/17/19 12:00:31  5-MIN KAKO 171900Z AUTO 00000KT 10SM CLR 30/06 A2989 4750 21 7500 000/00 RMK AO2 T03000056                                                               
24015KAKO AKO20190817120510908/17/19 12:05:31  5-MIN KAKO 171905Z AUTO 00000KT 10SM CLR 30/06 A2989 4750 22 7500 000/00 RMK AO2 T03000061                                                               
24015KAKO AKO20190817122010908/17/19 12:20:31  5-MIN KAKO 171920Z AUTO VRB04KT 10SM CLR 31/06 A2988 4760 19 7700 VRB/04 RMK AO2 T03110056                                                               
24015KAKO AKO20190817164017508/17/19 16:40:31  5-MIN KAKO 172340Z AUTO VRB06KT 10SM FEW100 BKN120 26/07 A2988 4750 29 7100 VRB/06 RMK AO2 PK WND 30048/2254 LTG DSNT SW AND W RAE2259B21E35 P0000 T02560
24015KAKO AKO20190818081513108/18/19 08:15:31  5-MIN KAKO 181515Z AUTO 00000KT 10SM BKN005 OVC013 14/13 A3008 4580 90 5600 000/00 RMK AO2 CIG 005V008 T01440128                                         
24015KAKO AKO20190818082013108/18/19 08:20:31  5-MIN KAKO 181520Z AUTO 00000KT 10SM BKN007 OVC013 14/13 A3007 4580 90 5600 000/00 RMK AO2 CIG 005V010 T01440128                                         
24015KAKO AKO20190818082513108/18/19 08:25:31  5-MIN KAKO 181525Z AUTO 00000KT 10SM BKN007 OVC013 14/13 A3008 4570 90 5600 000/00 RMK AO2 CIG 005V010 T01440128                                         
24015KAKO AKO20190818084011208/18/19 08:40:31  5-MIN KAKO 181540Z AUTO 00000KT 10SM OVC011 15/13 A3008 4570 86 5700 000/00 RMK AO2 T01500128                                                            
24015KAKO AKO20190818084511208/18/19 08:45:31  5-MIN KAKO 181545Z AUTO 00000KT 10SM OVC011 16/13 A3008 4570 83 5700 000/00 RMK AO2 T01560128                                                            
24015KAKO AKO20190818085511208/18/19 08:55:31  5-MIN KAKO 181555Z AUTO 00000KT 10SM OVC011 16/13 A3009 4570 83 5700 000/00 RMK AO2 T01560128                                                            
24015KAKO AKO20190818090011208/18/19 09:00:31  5-MIN KAKO 181600Z AUTO 00000KT 10SM OVC011 16/13 A3009 4560 83 5700 000/00 RMK AO2 T01560128                                                            
24015KAKO AKO20190818090511208/18/19 09:05:31  5-MIN KAKO 181605Z AUTO 00000KT 10SM OVC012 16/13 A3009 4560 83 5700 000/00 RMK AO2 T01560128                                                            
24015KAKO AKO20190818091011208/18/19 09:10:31  5-MIN KAKO 181610Z AUTO 00000KT 10SM OVC012 16/13 A3009 4570 83 5700 000/00 RMK AO2 T01560128                                                            
24015KAKO AKO20190818092511208/18/19 09:25:31  5-MIN KAKO 181625Z AUTO 00000KT 10SM OVC013 16/13 A3008 4570 80 5800 000/00 RMK AO2 T01610128                                                            
24015KAKO AKO20190818093011208/18/19 09:30:31  5-MIN KAKO 181630Z AUTO 00000KT 10SM OVC013 16/13 A3008 4570 80 5800 000/00 RMK AO2 T01610128                                                            
24015KAKO AKO20190818094011208/18/19 09:40:31  5-MIN KAKO 181640Z AUTO VRB03KT 10SM OVC014 17/13 A3008 4570 77 5800 VRB/03 RMK AO2 T01670128                                                            
24015KAKO AKO20190818095010208/18/19 09:50:31  5-MIN KAKO 181650Z AUTO 00000KT 10SM OVC015 17/13 A3009 4570 77 5800 000/00 RMK AO2                                                                      
24015KAKO AKO20190818100011208/18/19 10:00:31  5-MIN KAKO 181700Z AUTO VRB03KT 10SM OVC015 18/13 A3008 4570 72 6000 VRB/03 RMK AO2 T01830133                                                            
24015KAKO AKO20190818101011208/18/19 10:10:31  5-MIN KAKO 181710Z AUTO 00000KT 10SM BKN016 18/14 A3008 4580 75 6000 000/00 RMK AO2 T01830139                                                            
24015KAKO AKO20190818101511208/18/19 10:15:31  5-MIN KAKO 181715Z AUTO 00000KT 10SM BKN016 19/13 A3007 4580 70 6100 000/00 RMK AO2 T01890133                                                            
24015KAKO AKO20190818102011208/18/19 10:20:31  5-MIN KAKO 181720Z AUTO VRB03KT 10SM BKN016 19/13 A3007 4580 70 6100 VRB/03 RMK AO2 T01890133                                                            
24015KAKO AKO20190818102511208/18/19 10:25:31  5-MIN KAKO 181725Z AUTO VRB05KT 10SM SCT017 19/13 A3007 4580 70 6100 VRB/05 RMK AO2 T01890133                                                            
24015KAKO AKO20190818104011208/18/19 10:40:31  5-MIN KAKO 181740Z AUTO VRB05KT 10SM FEW017 19/13 A3007 4590 67 6200 VRB/05 RMK AO2 T01940133                                                            
24015KAKO AKO20190818105510908/18/19 10:55:31  5-MIN KAKO 181755Z AUTO VRB03KT 10SM CLR 20/13 A3007 4580 65 6200 VRB/03 RMK AO2 T02000133                                                               
24015KAKO AKO20190818110010908/18/19 11:00:31  5-MIN KAKO 181800Z AUTO 00000KT 10SM CLR 21/14 A3006 4590 65 6300 000/00 RMK AO2 T02060139                                                               
24015KAKO AKO20190818110510908/18/19 11:05:31  5-MIN KAKO 181805Z AUTO 00000KT 10SM CLR 21/13 A3006 4590 63 6300 000/00 RMK AO2 T02060133                                                               
24015KAKO AKO20190818112510908/18/19 11:25:31  5-MIN KAKO 181825Z AUTO VRB03KT 10SM CLR 22/14 A3006 4590 61 6400 VRB/03 RMK AO2 T02170139                                                               
24015KAKO AKO20190818114510908/18/19 11:45:31  5-MIN KAKO 181845Z AUTO VRB04KT 10SM CLR 23/14 A3005 4600 57 6600 VRB/04 RMK AO2 T02280139                                                               
24015KAKO AKO20190818121510908/18/19 12:15:31  5-MIN KAKO 181915Z AUTO VRB05KT 10SM CLR 24/14 A3004 4610 51 6800 VRB/05 RMK AO2 T02440139                                                               
24015KAKO AKO20190818122010908/18/19 12:20:31  5-MIN KAKO 181920Z AUTO VRB05KT 10SM CLR 25/14 A3004 4610 49 6800 VRB/05 RMK AO2 T02500139                                                               
24015KAKO AKO20190818122510908/18/19 12:25:31  5-MIN KAKO 181925Z AUTO VRB05KT 10SM CLR 25/14 A3003 4620 49 6800 VRB/05 RMK AO2 T02500139                                                               
24015KAKO AKO20190818124010908/18/19 12:40:31  5-MIN KAKO 181940Z AUTO VRB06KT 10SM CLR 26/14 A3003 4620 46 7000 VRB/06 RMK AO2 T02610139                                                               
24015KAKO AKO20190818130510908/18/19 13:05:31  5-MIN KAKO 182005Z AUTO VRB04KT 10SM CLR 27/14 A3002 4630 43 7100 VRB/04 RMK AO2 T02720139                                                               
24015KAKO AKO20190818134010908/18/19 13:40:31  5-MIN KAKO 182040Z AUTO VRB05KT 10SM CLR 28/13 A3001 4640 39 7200 VRB/05 RMK AO2 T02830133                                                               
24015KAKO AKO20190818135511508/18/19 13:55:31  5-MIN KAKO 182055Z AUTO VRB06G16KT 10SM CLR 29/13 A3000 4640 36 7300 VRB/06G16 RMK AO2 T02940133                                                         
24015KAKO AKO20190818143010908/18/19 14:30:31  5-MIN KAKO 182130Z AUTO VRB06KT 10SM CLR 31/13 A2998 4660 34 7500 VRB/06 RMK AO2 T03060133                                                               
24015KAKO AKO20190819062010908/19/19 06:20:31  5-MIN KAKO 191320Z AUTO 00000KT 10SM CLR 19/16 A3005 4600 81 6200 000/00 RMK AO2 T01940161                                                               
24015KAKO AKO20190819104010908/19/19 10:40:31  5-MIN KAKO 191740Z AUTO VRB04KT 10SM CLR 30/14 A3007 4580 36 7300 VRB/04 RMK AO2 T03000139                                                               
24015KAKO AKO20190819104510908/19/19 10:45:31  5-MIN KAKO 191745Z AUTO VRB04KT 10SM CLR 30/13 A3007 4580 35 7300 VRB/04 RMK AO2 T03000133                                                               
24015KAKO AKO20190819105510908/19/19 10:55:31  5-MIN KAKO 191755Z AUTO 00000KT 10SM CLR 30/14 A3007 4580 36 7300 000/00 RMK AO2 T03000139                                                               
24015KAKO AKO20190819110510908/19/19 11:05:31  5-MIN KAKO 191805Z AUTO 00000KT 10SM CLR 31/13 A3007 4590 33 7400 000/00 RMK AO2 T03110133                                                               
24015KAKO AKO20190819111010908/19/19 11:10:31  5-MIN KAKO 191810Z AUTO 00000KT 10SM CLR 31/13 A3006 4590 33 7500 000/00 RMK AO2 T03110133                                                               
24015KAKO AKO20190819112510908/19/19 11:25:31  5-MIN KAKO 191825Z AUTO 00000KT 10SM CLR 32/12 A3006 4590 30 7500 000/00 RMK AO2 T03170122                                                               
24015KAKO AKO20190819114010908/19/19 11:40:31  5-MIN KAKO 191840Z AUTO VRB03KT 10SM CLR 32/14 A3006 4590 32 7600 VRB/03 RMK AO2 T03220139                                                               
24015KAKO AKO20190819115011608/19/19 11:50:31  5-MIN KAKO 191850Z AUTO VRB05KT 10SM CLR 32/13 A3006 4590 31 7600 VRB/05 RMK AO2 SLP103 T03220133                                                        
24015KAKO AKO20190819121510908/19/19 12:15:31  5-MIN KAKO 191915Z AUTO VRB05KT 10SM CLR 33/13 A3005 4600 30 7600 VRB/05 RMK AO2 T03280133                                                               
24015KAKO AKO20190819131010908/19/19 13:10:31  5-MIN KAKO 192010Z AUTO VRB06KT 10SM CLR 34/08 A3005 4600 19 7800 VRB/06 RMK AO2 T03440078                                                               
24015KAKO AKO20190819131510908/19/19 13:15:31  5-MIN KAKO 192015Z AUTO VRB04KT 10SM CLR 35/09 A3005 4600 20 7900 VRB/04 RMK AO2 T03500094                                                               
24015KAKO AKO20190819134010908/19/19 13:40:31  5-MIN KAKO 192040Z AUTO VRB06KT 10SM CLR 36/06 A3004 4610 15 7900 VRB/06 RMK AO2 T03560056                                                               
24015KAKO AKO20190819140510908/19/19 14:05:31  5-MIN KAKO 192105Z AUTO VRB06KT 10SM CLR 36/05 A3003 4620 14 8000 VRB/06 RMK AO2 T03560050                                                               
24015KAKO AKO20190819141510908/19/19 14:15:31  5-MIN KAKO 192115Z AUTO VRB04KT 10SM CLR 36/05 A3003 4620 14 8000 VRB/04 RMK AO2 T03560050                                                               
24015KAKO AKO20190819142510908/19/19 14:25:31  5-MIN KAKO 192125Z AUTO VRB03KT 10SM CLR 36/04 A3003 4620 13 8000 VRB/03 RMK AO2 T03560039                                                               
24015KAKO AKO20190819143010908/19/19 14:30:31  5-MIN KAKO 192130Z AUTO 00000KT 10SM CLR 35/03 A3003 4620 13 7900 000/00 RMK AO2 T03500028                                                               
24015KAKO AKO20190819143510908/19/19 14:35:31  5-MIN KAKO 192135Z AUTO 00000KT 10SM CLR 34/02 A3003 4620 13 7800 000/00 RMK AO2 T03440022                                                               
24015KAKO AKO20190819144010908/19/19 14:40:31  5-MIN KAKO 192140Z AUTO 00000KT 10SM CLR 35/03 A3003 4620 13 7900 000/00 RMK AO2 T03500028                                                               
24015KAKO AKO20190819145510908/19/19 14:55:31  5-MIN KAKO 192155Z AUTO 00000KT 10SM CLR 35/03 A3003 4620 13 7900 000/00 RMK AO2 T03500028                                                               
24015KAKO AKO20190819150010908/19/19 15:00:31  5-MIN KAKO 192200Z AUTO VRB03KT 10SM CLR 36/03 A3003 4620 13 8000 VRB/03 RMK AO2 T03560033                                                               
24015KAKO AKO20190819151010908/19/19 15:10:31  5-MIN KAKO 192210Z AUTO 00000KT 10SM CLR 36/03 A3003 4620 12 8000 000/00 RMK AO2 T03560028                                                               
24015KAKO AKO20190819153510908/19/19 15:35:31  5-MIN KAKO 192235Z AUTO VRB04KT 10SM CLR 36/03 A3002 4630 12 8000 VRB/04 RMK AO2 T03610033                                                               
24015KAKO AKO20190820031511108/20/19 03:15:31  5-MIN KAKO 201015Z AUTO 00000KT 10SM CLR 19/13 A3005 4600 67 6100 000/00 RMK AO2 T01890128 $                                                             
24015KAKO AKO20190820032011108/20/19 03:20:31  5-MIN KAKO 201020Z AUTO 00000KT 10SM CLR 19/13 A3005 4600 65 6200 000/00 RMK AO2 T01940128 $                                                             
24015KAKO AKO20190820032511108/20/19 03:25:31  5-MIN KAKO 201025Z AUTO VRB04KT 10SM CLR 20/12 A3005 4600 60 6300 VRB/04 RMK AO2 T02000122 $                                                             
24015KAKO AKO20190820034511108/20/19 03:45:31  5-MIN KAKO 201045Z AUTO 00000KT 10SM CLR 19/13 A3005 4600 65 6200 000/00 RMK AO2 T01940128 $                                                             
24015KAKO AKO20190820035011808/20/19 03:50:31  5-MIN KAKO 201050Z AUTO 00000KT 10SM CLR 19/13 A3005 4600 67 6100 000/00 RMK AO2 SLP104 T01890128 $                                                      
24015KAKO AKO20190820035511108/20/19 03:55:31  5-MIN KAKO 201055Z AUTO 00000KT 10SM CLR 19/13 A3005 4600 67 6100 000/00 RMK AO2 T01890128 $                                                             
24015KAKO AKO20190820053510908/20/19 05:35:31  5-MIN KAKO 201235Z AUTO VRB05KT 10SM CLR 19/13 A3007 4580 67 6100 VRB/05 RMK AO2 T01890128                                                               
24015KAKO AKO20190820054510908/20/19 05:45:31  5-MIN KAKO 201245Z AUTO 00000KT 10SM CLR 19/13 A3008 4580 65 6200 000/00 RMK AO2 T01940128                                                               
24015KAKO AKO20190820060511108/20/19 06:05:31  5-MIN KAKO 201305Z AUTO 00000KT 10SM CLR 18/13 A3009 4560 72 6000 000/00 RMK AO2 T01830133 $                                                             
24015KAKO AKO20190820061011108/20/19 06:10:31  5-MIN KAKO 201310Z AUTO 00000KT 10SM CLR 18/13 A3008 4570 72 6000 000/00 RMK AO2 T01830133 $                                                             
24015KAKO AKO20190820092510708/20/19 09:25:31  5-MIN KAKO 201625Z AUTO 00000KT 10SM 27/15 A3012 4540 46 7000 000/00 RMK AO2 T02720150 $                                                                 
24015KAKO AKO20190820093510708/20/19 09:35:31  5-MIN KAKO 201635Z AUTO VRB03KT 10SM 28/15 A3012 4540 45 7000 VRB/03 RMK AO2 T02780150 $                                                                 
24015KAKO AKO20190820095511108/20/19 09:55:31  5-MIN KAKO 201655Z AUTO 00000KT 10SM CLR 28/15 A3011 4540 43 7100 000/00 RMK AO2 T02830150 $                                                             
24015KAKO AKO20190820100011108/20/19 10:00:31  5-MIN KAKO 201700Z AUTO VRB05KT 10SM CLR 29/14 A3011 4540 40 7200 VRB/05 RMK AO2 T02890144 $                                                             
24015KAKO AKO20190820100511108/20/19 10:05:31  5-MIN KAKO 201705Z AUTO VRB04KT 10SM CLR 29/14 A3011 4540 39 7200 VRB/04 RMK AO2 T02940144 $                                                             
24015KAKO AKO20190820101011108/20/19 10:10:31  5-MIN KAKO 201710Z AUTO VRB05KT 10SM CLR 29/14 A3011 4540 40 7200 VRB/05 RMK AO2 T02890144 $                                                             
24015KAKO AKO20190820101511108/20/19 10:15:31  5-MIN KAKO 201715Z AUTO 00000KT 10SM CLR 29/14 A3011 4540 39 7200 000/00 RMK AO2 T02940144 $                                                             
24015KAKO AKO20190820104011108/20/19 10:40:31  5-MIN KAKO 201740Z AUTO 00000KT 10SM CLR 29/14 A3011 4540 38 7200 000/00 RMK AO2 T02940139 $                                                             
24015KAKO AKO20190820110511108/20/19 11:05:31  5-MIN KAKO 201805Z AUTO VRB04KT 10SM CLR 32/14 A3010 4550 33 7500 VRB/04 RMK AO2 T03170139 $                                                             
24015KAKO AKO20190820111011108/20/19 11:10:31  5-MIN KAKO 201810Z AUTO VRB04KT 10SM CLR 32/14 A3010 4550 33 7500 VRB/04 RMK AO2 T03170139 $                                                             
24015KAKO AKO20190820113511708/20/19 11:35:31  5-MIN KAKO 201835Z AUTO VRB06G14KT 10SM CLR 33/15 A3010 4550 33 7600 VRB/06G14 RMK AO2 T03280150 $                                                       
24015KAKO AKO20190821094011108/21/19 09:40:31  5-MIN KAKO 211640Z AUTO VRB05KT 10SM CLR 23/13 A3021 4450 51 6400 VRB/05 RMK AO2 T02330128 $                                                             
24015KAKO AKO20190821100010708/21/19 10:00:31  5-MIN KAKO 211700Z AUTO 00000KT 10SM 24/12 A3021 4450 47 6500 000/00 RMK AO2 T02390122 $                                                                 
24015KAKO AKO20190821100510708/21/19 10:05:31  5-MIN KAKO 211705Z AUTO VRB06KT 10SM 25/13 A3021 4450 48 6600 VRB/06 RMK AO2 T02500133 $                                                                 
24015KAKO AKO20190821101010708/21/19 10:10:31  5-MIN KAKO 211710Z AUTO VRB04KT 10SM 24/13 A3021 4450 47 6600 VRB/04 RMK AO2 T02440128 $                                                                 
24015KAKO AKO20190821103010208/21/19 10:30:31  5-MIN KAKO 211730Z AUTO VRB04KT 25/13 A3020 4460 48 6600 VRB/04 RMK AO2 T02500133 $                                                                      
24015KAKO AKO20190821103510708/21/19 10:35:31  5-MIN KAKO 211735Z AUTO 00000KT 10SM 24/13 A3020 4460 49 6600 000/00 RMK AO2 T02440133 $                                                                 
24015KAKO AKO20190821104510708/21/19 10:45:31  5-MIN KAKO 211745Z AUTO VRB05KT 10SM 25/13 A3020 4460 48 6600 VRB/05 RMK AO2 T02500133 $                                                                 
24015KAKO AKO20190821105013208/21/19 10:50:31  5-MIN KAKO 211750Z AUTO 00000KT 10SM 25/13 A3020 4460 48 6600 000/00 RMK AO2 SLP167 T02500133 10256 20144 50014 $                                        
24015KAKO AKO20190821105510708/21/19 10:55:31  5-MIN KAKO 211755Z AUTO 00000KT 10SM 26/14 A3020 4460 48 6700 000/00 RMK AO2 T02560139 $                                                                 
24015KAKO AKO20190821110010708/21/19 11:00:31  5-MIN KAKO 211800Z AUTO VRB03KT 10SM 26/13 A3020 4460 44 6800 VRB/03 RMK AO2 T02610133 $                                                                 
24015KAKO AKO20190821111010708/21/19 11:10:31  5-MIN KAKO 211810Z AUTO VRB05KT 10SM 26/13 A3019 4470 44 6800 VRB/05 RMK AO2 T02610133 $                                                                 
24015KAKO AKO20190821111510708/21/19 11:15:31  5-MIN KAKO 211815Z AUTO 00000KT 10SM 26/13 A3019 4470 44 6800 000/00 RMK AO2 T02610133 $                                                                 
24015KAKO AKO20190821115510608/21/19 11:55:31  5-MIN KAKO 211855Z AUTO VRB04KT 8SM 27/13 A3017 4490 42 6900 VRB/04 RMK AO2 T02720133 $                                                                  
24015KAKO AKO20190821121510708/21/19 12:15:31  5-MIN KAKO 211915Z AUTO VRB03KT 10SM 27/13 A3016 4500 42 6900 VRB/03 RMK AO2 T02720133 $                                                                 
24015KAKO AKO20190822183520208/22/19 18:35:31  5-MIN KAKO 230135Z AUTO VRB06KT 10SM FEW040 19/11 A3001 4640 56 6200 VRB/06 RMK AO2 PK WND 31027/0053 WSHFT 0104 LTG DSNT E RAB0011E0021B0029B0055E25 TSE
24015KAKO AKO20190824113511508/24/19 11:35:31  5-MIN KAKO 241835Z AUTO VRB05G15KT 10SM CLR 24/12 A3001 4630 44 6800 VRB/05G15 RMK AO2 T02440117                                                         
24015KAKO AKO20190824114010908/24/19 11:40:31  5-MIN KAKO 241840Z AUTO VRB04KT 10SM CLR 25/12 A3001 4630 44 6800 VRB/04 RMK AO2 T02500122                                                               
24015KAKO AKO20190824115510908/24/19 11:55:31  5-MIN KAKO 241855Z AUTO VRB04KT 10SM CLR 25/12 A3001 4640 43 6900 VRB/04 RMK AO2 T02500117                                                               
24015KAKO AKO20190824120510908/24/19 12:05:31  5-MIN KAKO 241905Z AUTO 00000KT 10SM CLR 25/12 A3001 4640 43 6900 000/00 RMK AO2 T02500117                                                               
24015KAKO AKO20190824121510908/24/19 12:15:31  5-MIN KAKO 241915Z AUTO 00000KT 10SM CLR 26/12 A3001 4640 40 7000 000/00 RMK AO2 T02610117                                                               
24015KAKO AKO20190824123010908/24/19 12:30:31  5-MIN KAKO 241930Z AUTO VRB03KT 10SM CLR 26/12 A3001 4640 40 7000 VRB/03 RMK AO2 T02610117                                                               
24015KAKO AKO20190824124010908/24/19 12:40:31  5-MIN KAKO 241940Z AUTO VRB06KT 10SM CLR 27/11 A3000 4640 36 7100 VRB/06 RMK AO2 T02720111                                                               
24015KAKO AKO20190824125011608/24/19 12:50:31  5-MIN KAKO 241950Z AUTO VRB05KT 10SM CLR 27/11 A3000 4640 36 7100 VRB/05 RMK AO2 SLP104 T02720111                                                        
24015KAKO AKO20190825121011208/25/19 12:10:31  5-MIN KAKO 251910Z AUTO VRB03KT 10SM FEW110 33/07 A2990 4740 19 7800 VRB/03 RMK AO2 T03280067                                                            
24015KAKO AKO20190825133511208/25/19 13:35:31  5-MIN KAKO 252035Z AUTO VRB06KT 10SM FEW120 33/06 A2988 4760 18 7800 VRB/06 RMK AO2 T03280056                                                            
24015KAKO AKO20190825135510908/25/19 13:55:31  5-MIN KAKO 252055Z AUTO 00000KT 10SM CLR 33/05 A2987 4770 17 7800 000/00 RMK AO2 T03280050                                                               
24015KAKO AKO20190825140010908/25/19 14:00:31  5-MIN KAKO 252100Z AUTO VRB03KT 10SM CLR 33/05 A2987 4770 17 7900 VRB/03 RMK AO2 T03280050                                                               
24015KAKO AKO20190825142510908/25/19 14:25:31  5-MIN KAKO 252125Z AUTO VRB05KT 10SM CLR 34/06 A2986 4780 17 8000 VRB/05 RMK AO2 T03440061                                                               
24015KAKO AKO20190825145012208/25/19 14:50:31  5-MIN KAKO 252150Z AUTO VRB04G15KT 10SM CLR 34/06 A2985 4780 16 8000 VRB/04G15 RMK AO2 SLP040 T03390056                                                  
24015KAKO AKO20190825145510908/25/19 14:55:31  5-MIN KAKO 252155Z AUTO VRB04KT 10SM CLR 34/05 A2985 4790 16 8000 VRB/04 RMK AO2 T03390050                                                               
24015KAKO AKO20190825150510908/25/19 15:05:31  5-MIN KAKO 252205Z AUTO VRB03KT 10SM CLR 33/04 A2985 4790 16 7900 VRB/03 RMK AO2 T03280044                                                               
24015KAKO AKO20190825151010908/25/19 15:10:31  5-MIN KAKO 252210Z AUTO VRB03KT 10SM CLR 34/05 A2984 4790 16 8000 VRB/03 RMK AO2 T03390050                                                               
24015KAKO AKO20190825151510908/25/19 15:15:31  5-MIN KAKO 252215Z AUTO VRB06KT 10SM CLR 34/05 A2984 4790 15 8000 VRB/06 RMK AO2 T03440050                                                               
24015KAKO AKO20190825152010908/25/19 15:20:31  5-MIN KAKO 252220Z AUTO VRB06KT 10SM CLR 34/05 A2984 4790 15 8000 VRB/06 RMK AO2 T03440050                                                               
24015KAKO AKO20190825152510908/25/19 15:25:31  5-MIN KAKO 252225Z AUTO VRB03KT 10SM CLR 34/03 A2984 4790 14 8000 VRB/03 RMK AO2 T03390033                                                               
24015KAKO AKO20190825154510908/25/19 15:45:31  5-MIN KAKO 252245Z AUTO VRB04KT 10SM CLR 34/04 A2983 4800 15 8000 VRB/04 RMK AO2 T03390039                                                               
24015KAKO AKO20190825163011508/25/19 16:30:31  5-MIN KAKO 252330Z AUTO VRB03G16KT 10SM CLR 34/04 A2984 4800 15 8000 VRB/03G16 RMK AO2 T03390044                                                         
24015KAKO AKO20190825221510908/25/19 22:15:31  5-MIN KAKO 260515Z AUTO 00000KT 10SM CLR 20/14 A2983 4810 67 6500 000/00 RMK AO2 T02000139                                                               
24015KAKO AKO20190825222510908/25/19 22:25:31  5-MIN KAKO 260525Z AUTO 00000KT 10SM CLR 19/14 A2982 4810 70 6500 000/00 RMK AO2 T01940139                                                               
24015KAKO AKO20190825223010908/25/19 22:30:31  5-MIN KAKO 260530Z AUTO 00000KT 10SM CLR 18/14 A2982 4810 75 6300 000/00 RMK AO2 T01830139                                                               
24015KAKO AKO20190826002510908/26/19 00:25:31  5-MIN KAKO 260725Z AUTO VRB05KT 10SM CLR 18/10 A2987 4760 60 6200 VRB/05 RMK AO2 T01780100                                                               
24015KAKO AKO20190826003010908/26/19 00:30:31  5-MIN KAKO 260730Z AUTO VRB04KT 10SM CLR 19/09 A2987 4760 52 6300 VRB/04 RMK AO2 T01890089                                                               
24015KAKO AKO20190827034511208/27/19 03:45:31  5-MIN KAKO 271045Z AUTO 00000KT 10SM OVC060 14/10 A3017 4490 74 5500 000/00 RMK AO2 T01440100                                                            
24015KAKO AKO20190827035011908/27/19 03:50:31  5-MIN KAKO 271050Z AUTO 00000KT 10SM OVC060 14/10 A3017 4490 74 5500 000/00 RMK AO2 SLP168 T01440100                                                     
24015KAKO AKO20190827035511208/27/19 03:55:31  5-MIN KAKO 271055Z AUTO 00000KT 10SM OVC060 14/11 A3017 4490 77 5500 000/00 RMK AO2 T01440106                                                            
24015KAKO AKO20190827040011208/27/19 04:00:31  5-MIN KAKO 271100Z AUTO 00000KT 10SM OVC060 14/10 A3017 4490 74 5500 000/00 RMK AO2 T01440100                                                            
24015KAKO AKO20190827040511208/27/19 04:05:31  5-MIN KAKO 271105Z AUTO 00000KT 10SM OVC060 15/11 A3017 4490 74 5600 000/00 RMK AO2 T01500106                                                            
24015KAKO AKO20190827041011208/27/19 04:10:31  5-MIN KAKO 271110Z AUTO 00000KT 10SM OVC060 14/11 A3018 4480 77 5500 000/00 RMK AO2 T01440106                                                            
24015KAKO AKO20190827041511208/27/19 04:15:31  5-MIN KAKO 271115Z AUTO 00000KT 10SM OVC060 14/11 A3018 4480 77 5500 000/00 RMK AO2 T01440106                                                            
24015KAKO AKO20190827042011208/27/19 04:20:31  5-MIN KAKO 271120Z AUTO 00000KT 10SM OVC060 15/10 A3018 4480 72 5600 000/00 RMK AO2 T01500100                                                            
24015KAKO AKO20190827042511908/27/19 04:25:31  5-MIN KAKO 271125Z AUTO 00000KT 10SM FEW043 OVC060 15/10 A3018 4480 72 5600 000/00 RMK AO2 T01500100                                                     
24015KAKO AKO20190827043011908/27/19 04:30:31  5-MIN KAKO 271130Z AUTO 00000KT 10SM FEW043 OVC055 15/10 A3018 4480 72 5600 000/00 RMK AO2 T01500100                                                     
24015KAKO AKO20190827043511908/27/19 04:35:31  5-MIN KAKO 271135Z AUTO 00000KT 10SM SCT043 OVC055 16/10 A3018 4480 69 5600 000/00 RMK AO2 T01560100                                                     
24015KAKO AKO20190827044011908/27/19 04:40:31  5-MIN KAKO 271140Z AUTO 00000KT 10SM BKN043 OVC060 15/10 A3018 4480 72 5500 000/00 RMK AO2 T01500100                                                     
24015KAKO AKO20190827044511908/27/19 04:45:31  5-MIN KAKO 271145Z AUTO 00000KT 10SM BKN042 OVC060 16/10 A3018 4480 69 5600 000/00 RMK AO2 T01560100                                                     
24015KAKO AKO20190827050011208/27/19 05:00:31  5-MIN KAKO 271200Z AUTO 00000KT 10SM OVC042 16/09 A3018 4480 67 5600 000/00 RMK AO2 T01560094                                                            
24015KAKO AKO20190827053011208/27/19 05:30:31  5-MIN KAKO 271230Z AUTO 00000KT 10SM OVC044 15/10 A3019 4470 72 5500 000/00 RMK AO2 T01500100                                                            
24015KAKO AKO20190827053511208/27/19 05:35:31  5-MIN KAKO 271235Z AUTO 00000KT 10SM OVC044 15/10 A3019 4470 72 5500 000/00 RMK AO2 T01500100                                                            
24015KAKO AKO20190827060511208/27/19 06:05:31  5-MIN KAKO 271305Z AUTO 00000KT 10SM OVC040 15/11 A3020 4460 74 5500 000/00 RMK AO2 T01500106                                                            
24015KAKO AKO20190827061011208/27/19 06:10:31  5-MIN KAKO 271310Z AUTO 00000KT 10SM OVC040 15/11 A3021 4460 74 5500 000/00 RMK AO2 T01500106                                                            
24015KAKO AKO20190827062011208/27/19 06:20:31  5-MIN KAKO 271320Z AUTO 00000KT 10SM OVC041 16/11 A3021 4450 72 5600 000/00 RMK AO2 T01560106                                                            
24015KAKO AKO20190827062511208/27/19 06:25:31  5-MIN KAKO 271325Z AUTO 00000KT 10SM OVC041 16/11 A3021 4450 72 5600 000/00 RMK AO2 T01560106                                                            
24015KAKO AKO20190827063011208/27/19 06:30:31  5-MIN KAKO 271330Z AUTO 00000KT 10SM OVC043 16/11 A3021 4450 72 5600 000/00 RMK AO2 T01560106                                                            
24015KAKO AKO20190827063511208/27/19 06:35:31  5-MIN KAKO 271335Z AUTO 00000KT 10SM OVC043 16/11 A3021 4460 72 5600 000/00 RMK AO2 T01560106                                                            
24015KAKO AKO20190827081011908/27/19 08:10:31  5-MIN KAKO 271510Z AUTO 00000KT 10SM BKN036 OVC047 17/12 A3023 4430 69 5700 000/00 RMK AO2 T01720117                                                     
24015KAKO AKO20190828095510908/28/19 09:55:31  5-MIN KAKO 281655Z AUTO VRB04KT 10SM CLR 26/15 A3015 4510 51 6800 VRB/04 RMK AO2 T02560150                                                               
24015KAKO AKO20190828101010908/28/19 10:10:31  5-MIN KAKO 281710Z AUTO VRB06KT 10SM CLR 27/15 A3015 4510 46 6900 VRB/06 RMK AO2 T02720150                                                               
24015KAKO AKO20190828102010908/28/19 10:20:31  5-MIN KAKO 281720Z AUTO VRB05KT 10SM CLR 28/14 A3014 4510 43 7000 VRB/05 RMK AO2 T02780144                                                               
24015KAKO AKO20190828111010908/28/19 11:10:31  5-MIN KAKO 281810Z AUTO VRB05KT 10SM CLR 29/12 A3012 4530 34 7100 VRB/05 RMK AO2 T02890117                                                               
24015KAKO AKO20190828113510908/28/19 11:35:31  5-MIN KAKO 281835Z AUTO VRB06KT 10SM CLR 30/08 A3012 4540 24 7300 VRB/06 RMK AO2 T03000078                                                               
24015KAKO AKO20190828114010908/28/19 11:40:31  5-MIN KAKO 281840Z AUTO VRB05KT 10SM CLR 31/07 A3011 4540 21 7400 VRB/05 RMK AO2 T03110067                                                               
24015KAKO AKO20190828114510908/28/19 11:45:31  5-MIN KAKO 281845Z AUTO 00000KT 10SM CLR 31/08 A3011 4540 24 7300 000/00 RMK AO2 T03060083                                                               
24015KAKO AKO20190828115510908/28/19 11:55:31  5-MIN KAKO 281855Z AUTO VRB04KT 10SM CLR 31/07 A3011 4540 22 7400 VRB/04 RMK AO2 T03110072                                                               
24015KAKO AKO20190828121510908/28/19 12:15:31  5-MIN KAKO 281915Z AUTO VRB03KT 10SM CLR 30/06 A3011 4550 21 7300 VRB/03 RMK AO2 T03000056                                                               
24015KAKO AKO20190828122010908/28/19 12:20:31  5-MIN KAKO 281920Z AUTO 00000KT 10SM CLR 31/05 A3010 4550 19 7300 000/00 RMK AO2 T03060050                                                               
24015KAKO AKO20190828122510908/28/19 12:25:31  5-MIN KAKO 281925Z AUTO VRB03KT 10SM CLR 32/04 A3010 4550 17 7500 VRB/03 RMK AO2 T03170044                                                               
24015KAKO AKO20190828123510908/28/19 12:35:31  5-MIN KAKO 281935Z AUTO VRB04KT 10SM CLR 31/06 A3010 4550 20 7400 VRB/04 RMK AO2 T03110061                                                               
24015KAKO AKO20190828125510908/28/19 12:55:31  5-MIN KAKO 281955Z AUTO VRB04KT 10SM CLR 32/04 A3009 4560 17 7500 VRB/04 RMK AO2 T03170039                                                               
24015KAKO AKO20190828130010908/28/19 13:00:31  5-MIN KAKO 282000Z AUTO VRB05KT 10SM CLR 32/04 A3009 4560 17 7500 VRB/05 RMK AO2 T03170039                                                               
24015KAKO AKO20190828131010908/28/19 13:10:31  5-MIN KAKO 282010Z AUTO VRB04KT 10SM CLR 32/04 A3009 4560 17 7500 VRB/04 RMK AO2 T03170044                                                               
24015KAKO AKO20190828131510908/28/19 13:15:31  5-MIN KAKO 282015Z AUTO VRB03KT 10SM CLR 32/05 A3009 4560 18 7500 VRB/03 RMK AO2 T03170050                                                               
24015KAKO AKO20190828132010908/28/19 13:20:31  5-MIN KAKO 282020Z AUTO 00000KT 10SM CLR 32/04 A3009 4560 17 7500 000/00 RMK AO2 T03170044                                                               
24015KAKO AKO20190828134010908/28/19 13:40:31  5-MIN KAKO 282040Z AUTO VRB04KT 10SM CLR 32/04 A3008 4570 17 7500 VRB/04 RMK AO2 T03220044                                                               
24015KAKO AKO20190828135012208/28/19 13:50:31  5-MIN KAKO 282050Z AUTO VRB03KT 10SM CLR 32/04 A3008 4570 17 7500 VRB/03 RMK AO2 SLP129 T03170044 58007                                                  
24015KAKO AKO20190828135510908/28/19 13:55:31  5-MIN KAKO 282055Z AUTO VRB04KT 10SM CLR 32/04 A3008 4570 17 7600 VRB/04 RMK AO2 T03220044                                                               
24015KAKO AKO20190828140010908/28/19 14:00:31  5-MIN KAKO 282100Z AUTO 00000KT 10SM CLR 32/05 A3008 4570 17 7600 000/00 RMK AO2 T03220050                                                               
24015KAKO AKO20190828141510908/28/19 14:15:31  5-MIN KAKO 282115Z AUTO 00000KT 10SM CLR 31/04 A3007 4580 17 7400 000/00 RMK AO2 T03110039                                                               
24015KAKO AKO20190828142510908/28/19 14:25:31  5-MIN KAKO 282125Z AUTO VRB03KT 10SM CLR 32/04 A3007 4580 17 7500 VRB/03 RMK AO2 T03170044                                                               
24015KAKO AKO20190828144010908/28/19 14:40:31  5-MIN KAKO 282140Z AUTO VRB03KT 10SM CLR 32/04 A3006 4590 17 7500 VRB/03 RMK AO2 T03170044                                                               
24015KAKO AKO20190828150510908/28/19 15:05:31  5-MIN KAKO 282205Z AUTO 00000KT 10SM CLR 32/01 A3006 4590 13 7500 000/00 RMK AO2 T03170006                                                               
24015KAKO AKO20190828155511008/28/19 15:55:31  5-MIN KAKO 282255Z AUTO VRB06KT 10SM CLR 32/M02 A3005 4600 10 7600 VRB/06 RMK AO2 T03221022                                                              
24015KAKO AKO20190828160511008/28/19 16:05:31  5-MIN KAKO 282305Z AUTO 00000KT 10SM CLR 32/M03 A3005 4600 10 7500 000/00 RMK AO2 T03171028                                                              
24015KAKO AKO20190828161511008/28/19 16:15:31  5-MIN KAKO 282315Z AUTO VRB03KT 10SM CLR 32/M02 A3005 4600 10 7600 VRB/03 RMK AO2 T03221022                                                              
24015KAKO AKO20190828164511008/28/19 16:45:31  5-MIN KAKO 282345Z AUTO VRB03KT 10SM CLR 32/M02 A3004 4610 11 7500 VRB/03 RMK AO2 T03171022                                                              
24015KAKO AKO20190830083010908/30/19 08:30:31  5-MIN KAKO 301530Z AUTO VRB04KT 10SM CLR 16/11 A3022 4450 69 5600 VRB/04 RMK AO2 T01610106                                                               
24015KAKO AKO20190830110011508/30/19 11:00:31  5-MIN KAKO 301800Z AUTO VRB06G17KT 10SM CLR 24/13 A3019 4470 47 6600 VRB/06G17 RMK AO2 T02440128                                                         
24015KAKO AKO20190830120510908/30/19 12:05:31  5-MIN KAKO 301905Z AUTO VRB04KT 10SM CLR 26/13 A3016 4500 44 6700 VRB/04 RMK AO2 T02560128                                                               
24015KAKO AKO20190831094510908/31/19 09:45:31  5-MIN KAKO 311645Z AUTO VRB04KT 10SM CLR 22/17 A3020 4460 73 6300 VRB/04 RMK AO2 T02220172                                                               
24015KAKO AKO20190831095510908/31/19 09:55:31  5-MIN KAKO 311655Z AUTO VRB06KT 10SM CLR 23/17 A3020 4460 70 6400 VRB/06 RMK AO2 T02280172                                                               
24015KAKO AKO20190831101010908/31/19 10:10:31  5-MIN KAKO 311710Z AUTO VRB05KT 10SM CLR 24/17 A3020 4460 66 6500 VRB/05 RMK AO2 T02390172                                                               
24015KAKO AKO20190831103510908/31/19 10:35:31  5-MIN KAKO 311735Z AUTO 00000KT 10SM CLR 24/17 A3020 4460 66 6500 000/00 RMK AO2 T02390172                                                               
24015KAKO AKO20190831110010908/31/19 11:00:31  5-MIN KAKO 311800Z AUTO 00000KT 10SM CLR 25/18 A3020 4470 64 6600 000/00 RMK AO2 T02500178                                                               
24015KAKO AKO20190831110510908/31/19 11:05:31  5-MIN KAKO 311805Z AUTO VRB03KT 10SM CLR 25/18 A3019 4470 64 6600 VRB/03 RMK AO2 T02500178                                                               
24015KAKO AKO20190831112010908/31/19 11:20:31  5-MIN KAKO 311820Z AUTO VRB05KT 10SM CLR 25/17 A3019 4470 61 6700 VRB/05 RMK AO2 T02500172                                                               
24015KAKO AKO20190831113010908/31/19 11:30:31  5-MIN KAKO 311830Z AUTO 00000KT 10SM CLR 26/17 A3018 4480 59 6700 000/00 RMK AO2 T02560172                                                               
24015KAKO AKO20190831114010908/31/19 11:40:31  5-MIN KAKO 311840Z AUTO VRB03KT 10SM CLR 27/18 A3018 4480 57 6800 VRB/03 RMK AO2 T02670178                                                               
24015KAKO AKO20190831115011608/31/19 11:50:31  5-MIN KAKO 311850Z AUTO 00000KT 10SM CLR 27/17 A3018 4480 54 6900 000/00 RMK AO2 SLP162 T02720172                                                        
24015KAKO AKO20190831121010908/31/19 12:10:31  5-MIN KAKO 311910Z AUTO VRB05KT 10SM CLR 27/16 A3017 4480 50 6900 VRB/05 RMK AO2 T02720161                                                               
24015KAKO AKO20190831121510908/31/19 12:15:31  5-MIN KAKO 311915Z AUTO VRB03KT 10SM CLR 28/17 A3017 4490 48 7000 VRB/03 RMK AO2 T02830167                                                               
24015KAKO AKO20190831123010908/31/19 12:30:31  5-MIN KAKO 311930Z AUTO 00000KT 10SM CLR 28/16 A3017 4490 46 7000 000/00 RMK AO2 T02780156                                                               
24015KAKO AKO20190831125510908/31/19 12:55:31  5-MIN KAKO 311955Z AUTO VRB04KT 10SM CLR 29/16 A3016 4500 45 7100 VRB/04 RMK AO2 T02890161                                                               
24015KAKO AKO20190831131010908/31/19 13:10:31  5-MIN KAKO 312010Z AUTO VRB04KT 10SM CLR 29/16 A3015 4500 45 7100 VRB/04 RMK AO2 T02890161                                                               
24015KAKO AKO20190831133511208/31/19 13:35:31  5-MIN KAKO 312035Z AUTO 00000KT 10SM FEW050 29/16 A3015 4510 45 7100 000/00 RMK AO2 T02890161                                                            
24015KAKO AKO20190831134011208/31/19 13:40:31  5-MIN KAKO 312040Z AUTO VRB03KT 10SM FEW050 29/16 A3015 4510 44 7100 VRB/03 RMK AO2 T02890156                                                            
24015KAKO AKO20190831141511908/31/19 14:15:31  5-MIN KAKO 312115Z AUTO 00000KT 10SM FEW060 SCT080 29/16 A3014 4510 44 7100 000/00 RMK AO2 T02890156                                                     
24015KAKO AKO20190831142511208/31/19 14:25:31  5-MIN KAKO 312125Z AUTO VRB03KT 10SM FEW080 29/16 A3014 4520 42 7200 VRB/03 RMK AO2 T02940156                                                            
24015KAKO AKO20190831143511908/31/19 14:35:31  5-MIN KAKO 312135Z AUTO VRB03KT 10SM SCT060 BKN080 29/16 A3014 4520 42 7200 VRB/03 RMK AO2 T02940156                                                     
24015KAKO AKO20190903140011709/03/19 14:00:31  5-MIN KAKO 032100Z AUTO VRB06G21KT 10SM CLR 28/11 A3022 4450 33 7000 VRB/06G21 RMK AO2 T02830111 $                                                       
24015KAKO AKO20190905030510909/05/19 03:05:31  5-MIN KAKO 051005Z AUTO 00000KT 10SM CLR 17/09 A3012 4530 60 5900 000/00 RMK AO2 T01720094                                                               
24015KAKO AKO20190905122511509/05/19 12:25:31  5-MIN KAKO 051925Z AUTO VRB04G14KT 10SM CLR 36/05 A3017 4490 14 7800 VRB/04G14 RMK AO2 T03560050                                                         
24015KAKO AKO20190905132010909/05/19 13:20:31  5-MIN KAKO 052020Z AUTO VRB04KT 10SM CLR 36/04 A3016 4500 13 7900 VRB/04 RMK AO2 T03610044                                                               
24015KAKO AKO20190905133510909/05/19 13:35:31  5-MIN KAKO 052035Z AUTO VRB06KT 10SM CLR 37/04 A3016 4500 13 7900 VRB/06 RMK AO2 T03670044                                                               
24015KAKO AKO20190905135012809/05/19 13:50:31  5-MIN KAKO 052050Z AUTO VRB03G17KT 10SM CLR 36/04 A3016 4500 13 7900 VRB/03G17 RMK AO2 SLP136 T03610044 50002                                            
24015KAKO AKO20190905140010909/05/19 14:00:31  5-MIN KAKO 052100Z AUTO VRB06KT 10SM CLR 36/04 A3015 4510 13 7900 VRB/06 RMK AO2 T03610039                                                               
24015KAKO AKO20190905143511509/05/19 14:35:31  5-MIN KAKO 052135Z AUTO VRB05G17KT 10SM CLR 36/04 A3015 4510 13 7900 VRB/05G17 RMK AO2 T03610039                                                         
24015KAKO AKO20190905144010909/05/19 14:40:31  5-MIN KAKO 052140Z AUTO 00000KT 10SM CLR 36/03 A3014 4510 13 7800 000/00 RMK AO2 T03560033                                                               
24015KAKO AKO20190905152510909/05/19 15:25:31  5-MIN KAKO 052225Z AUTO VRB06KT 10SM CLR 36/04 A3014 4510 13 7900 VRB/06 RMK AO2 T03610039                                                               
24015KAKO AKO20190905153510909/05/19 15:35:31  5-MIN KAKO 052235Z AUTO VRB04KT 10SM CLR 36/03 A3014 4510 12 7900 VRB/04 RMK AO2 T03610033                                                               
24015KAKO AKO20190905222513409/05/19 22:25:31  5-MIN KAKO 060525Z AUTO VRB03KT 10SM CLR 22/17 A3027 4400 75 6200 VRB/03 RMK AO2 LTG DSNT SW AND W PRESRR T02170172                                      
24015KAKO AKO20190906081014209/06/19 08:10:31  5-MIN KAKO 061510Z AUTO VRB06G17KT 10SM -RA BKN019 BKN095 OVC120 18/14 A3035 4330 78 5700 VRB/06G17 RMK AO2 P0000 T01780139                              
24015KAKO AKO20190906084012409/06/19 08:40:31  5-MIN KAKO 061540Z AUTO VRB04KT 10SM OVC021 19/14 A3035 4330 72 5800 VRB/04 RMK AO2 RAE11 P0000 T01890139                                                
24015KAKO AKO20190906085511209/06/19 08:55:31  5-MIN KAKO 061555Z AUTO VRB03KT 10SM OVC023 19/14 A3034 4330 70 5900 VRB/03 RMK AO2 T01940139                                                            
24015KAKO AKO20190906090511209/06/19 09:05:31  5-MIN KAKO 061605Z AUTO VRB04KT 10SM OVC025 19/14 A3034 4330 70 5900 VRB/04 RMK AO2 T01940139                                                            
24015KAKO AKO20190907012014709/07/19 01:20:31  5-MIN KAKO 070820Z AUTO VRB05KT 6SM RA FEW060 FEW080 BKN110 18/16 A3017 4490 84 5900 VRB/05 RMK AO2 RAB11 PRESFR P0001 T01830156                         
24015KAKO AKO20190907030013609/07/19 03:00:31  5-MIN KAKO 071000Z AUTO VRB05KT 10SM -RA FEW070 BKN100 OVC110 20/14 A3012 4530 67 6200 VRB/05 RMK AO2 P0001 T02000139                                    
24015KAKO AKO20190907103010909/07/19 10:30:31  5-MIN KAKO 071730Z AUTO VRB06KT 10SM CLR 27/12 A3009 4560 40 6900 VRB/06 RMK AO2 T02670122                                                               
24015KAKO AKO20190907104510909/07/19 10:45:31  5-MIN KAKO 071745Z AUTO VRB04KT 10SM CLR 27/12 A3009 4560 37 7000 VRB/04 RMK AO2 T02720117                                                               
24015KAKO AKO20190907113010909/07/19 11:30:31  5-MIN KAKO 071830Z AUTO VRB03KT 10SM CLR 28/11 A3007 4580 33 7100 VRB/03 RMK AO2 T02830111                                                               
24015KAKO AKO20190907114010909/07/19 11:40:31  5-MIN KAKO 071840Z AUTO VRB06KT 10SM CLR 29/10 A3006 4590 30 7200 VRB/06 RMK AO2 T02890100                                                               
24015KAKO AKO20190907234011209/07/19 23:40:31  5-MIN KAKO 080640Z AUTO VRB03KT 10SM SCT120 18/11 A3006 4590 62 6100 VRB/03 RMK AO2 T01830111                                                            
24015KAKO AKO20190908201516109/08/19 20:15:31  5-MIN KAKO 090315Z AUTO VRB03KT 10SM VCTS -RA FEW048 BKN090 OVC110 15/14 A2996 4690 93 5800 VRB/03 RMK AO2 LTG DSNT NE-S TSE04 P0003 T01500139           
24015KAKO AKO20190908202016309/08/19 20:20:31  5-MIN KAKO 090320Z AUTO 00000KT 10SM -RA FEW065 BKN080 OVC110 15/14 A2995 4690 93 5800 000/00 RMK AO2 LTG DSNT NE-S TSE04 PRESFR P0003 T01500139         
24015KAKO AKO20190908203015709/08/19 20:30:31  5-MIN KAKO 090330Z AUTO 00000KT 10SM -RA SCT041 BKN075 OVC090 15/14 A2996 4680 93 5800 000/00 RMK AO2 LTG DSNT ALQDS TSE04 P0004 T01500139               
24015KAKO AKO20190908204516409/08/19 20:45:31  5-MIN KAKO 090345Z AUTO VRB03KT 10SM VCTS BKN030 BKN041 OVC075 15/14 A2997 4670 96 5800 VRB/03 RMK AO2 LTG DSNT ALQDS RAE44 TSE04 P0004 T01500144        
24015KAKO AKO20190908213013909/08/19 21:30:31  5-MIN KAKO 090430Z AUTO 00000KT 10SM SCT016 BKN023 BKN110 16/14 A2995 4690 90 5900 000/00 RMK AO2 LTG DSNT N-E T01560139                                 
24015KAKO AKO20190908232012609/08/19 23:20:31  5-MIN KAKO 090620Z AUTO 00000KT 10SM FEW014 SCT075 BKN095 14/14 A2995 4690 96 5700 000/00 RMK AO2 T01440139                                              
24015KAKO AKO20190908232512609/08/19 23:25:31  5-MIN KAKO 090625Z AUTO 00000KT 10SM FEW017 BKN075 BKN095 15/14 A2995 4690 93 5800 000/00 RMK AO2 T01500139                                              
24015KAKO AKO20190908233012609/08/19 23:30:31  5-MIN KAKO 090630Z AUTO 00000KT 10SM FEW020 BKN070 BKN095 15/14 A2996 4690 93 5800 000/00 RMK AO2 T01500139                                              
24015KAKO AKO20190908233512609/08/19 23:35:31  5-MIN KAKO 090635Z AUTO 00000KT 10SM SCT060 BKN070 BKN095 15/14 A2995 4690 93 5800 000/00 RMK AO2 T01500139                                              
24015KAKO AKO20190908234013709/08/19 23:40:31  5-MIN KAKO 090640Z AUTO 00000KT 10SM BKN060 BKN070 OVC095 15/14 A2995 4690 93 5800 000/00 RMK AO2 LTG DSNT S T01500139                                   
24015KAKO AKO20190908234513709/08/19 23:45:31  5-MIN KAKO 090645Z AUTO 00000KT 10SM FEW019 BKN060 OVC070 15/14 A2995 4690 93 5800 000/00 RMK AO2 LTG DSNT S T01500139                                   
24015KAKO AKO20190908235016109/08/19 23:50:31  5-MIN KAKO 090650Z AUTO 00000KT 10SM SCT019 BKN060 OVC070 15/14 A2995 4690 93 5800 000/00 RMK AO2 LTG DSNT SE AND S SLP101 T01500139 402280100           
24015KAKO AKO20190909001015109/09/19 00:10:31  5-MIN KAKO 090710Z AUTO 00000KT 10SM BKN019 OVC028 16/14 A2995 4690 93 5900 000/00 RMK AO2 LTG DSNT ALQDS RAB0657E06 P0000 T01560144                     
24015KAKO AKO20190909002015809/09/19 00:20:31  5-MIN KAKO 090720Z AUTO 00000KT 10SM BKN019 BKN025 OVC050 16/14 A2995 4690 93 5900 000/00 RMK AO2 LTG DSNT ALQDS RAB0657E06 P0000 T01560144              
24015KAKO AKO20190909002516709/09/19 00:25:31  5-MIN KAKO 090725Z AUTO 00000KT 10SM SCT019 BKN029 OVC050 16/15 A2995 4690 96 5900 000/00 RMK AO2 LTG DSNT N AND SE AND S RAB0657E06 P0000 T01560150     
24015KAKO AKO20190909003516109/09/19 00:35:31  5-MIN KAKO 090735Z AUTO 00000KT 10SM FEW019 BKN027 OVC055 16/15 A2995 4690 93 5900 000/00 RMK AO2 LTG DSNT SE AND S RAB0657E06 P0000 T01610150           
24015KAKO AKO20190909004516209/09/19 00:45:31  5-MIN KAKO 090745Z AUTO 00000KT 10SM -RA BKN024 BKN029 OVC034 16/15 A2995 4690 93 5900 000/00 RMK AO2 LTG DSNT SE RAB0657E06B42 P0000 T01610150          
24015KAKO AKO20190909090511209/09/19 09:05:31  5-MIN KAKO 091605Z AUTO VRB05KT 10SM OVC011 17/15 A2996 4680 87 6000 VRB/05 RMK AO2 T01720150                                                            
24015KAKO AKO20190909091011209/09/19 09:10:31  5-MIN KAKO 091610Z AUTO VRB05KT 10SM OVC011 18/15 A2996 4680 83 6100 VRB/05 RMK AO2 T01780150                                                            
24015KAKO AKO20190909092011209/09/19 09:20:31  5-MIN KAKO 091620Z AUTO VRB05KT 10SM OVC011 18/15 A2997 4680 83 6100 VRB/05 RMK AO2 T01780150                                                            
24015KAKO AKO20190909093011209/09/19 09:30:31  5-MIN KAKO 091630Z AUTO 00000KT 10SM OVC011 18/15 A2997 4670 83 6100 000/00 RMK AO2 T01780150                                                            
24015KAKO AKO20190909094511209/09/19 09:45:31  5-MIN KAKO 091645Z AUTO VRB03KT 10SM BKN012 18/15 A2997 4680 81 6200 VRB/03 RMK AO2 T01830150                                                            
24015KAKO AKO20190909095011909/09/19 09:50:31  5-MIN KAKO 091650Z AUTO 00000KT 10SM BKN012 18/15 A2997 4680 81 6200 000/00 RMK AO2 SLP105 T01830150                                                     
24015KAKO AKO20190909095511209/09/19 09:55:31  5-MIN KAKO 091655Z AUTO VRB03KT 10SM SCT012 19/16 A2997 4680 81 6200 VRB/03 RMK AO2 T01890156                                                            
24015KAKO AKO20190909100511209/09/19 10:05:31  5-MIN KAKO 091705Z AUTO VRB04KT 10SM FEW012 19/15 A2996 4680 75 6300 VRB/04 RMK AO2 T01940150                                                            
24015KAKO AKO20190909101011209/09/19 10:10:31  5-MIN KAKO 091710Z AUTO VRB03KT 10SM FEW012 19/15 A2996 4680 75 6300 VRB/03 RMK AO2 T01940150                                                            
24015KAKO AKO20190909101510909/09/19 10:15:31  5-MIN KAKO 091715Z AUTO 00000KT 10SM CLR 20/16 A2996 4680 75 6400 000/00 RMK AO2 T02000156                                                               
24015KAKO AKO20190909102510909/09/19 10:25:31  5-MIN KAKO 091725Z AUTO VRB03KT 10SM CLR 21/16 A2996 4680 73 6400 VRB/03 RMK AO2 T02060156                                                               
24015KAKO AKO20190909103510909/09/19 10:35:31  5-MIN KAKO 091735Z AUTO VRB03KT 10SM CLR 21/16 A2996 4680 70 6500 VRB/03 RMK AO2 T02110156                                                               
24015KAKO AKO20190909104010909/09/19 10:40:31  5-MIN KAKO 091740Z AUTO 00000KT 10SM CLR 21/16 A2996 4680 70 6500 000/00 RMK AO2 T02110156                                                               
24015KAKO AKO20190909104510909/09/19 10:45:31  5-MIN KAKO 091745Z AUTO 00000KT 10SM CLR 22/16 A2996 4680 68 6500 000/00 RMK AO2 T02170156                                                               
24015KAKO AKO20190909110010909/09/19 11:00:31  5-MIN KAKO 091800Z AUTO 00000KT 10SM CLR 22/14 A2996 4680 61 6600 000/00 RMK AO2 T02220144                                                               
24015KAKO AKO20190909111510909/09/19 11:15:31  5-MIN KAKO 091815Z AUTO 00000KT 10SM CLR 22/14 A2996 4680 59 6600 000/00 RMK AO2 T02220139                                                               
24015KAKO AKO20190909112010909/09/19 11:20:31  5-MIN KAKO 091820Z AUTO VRB04KT 10SM CLR 22/14 A2996 4680 61 6600 VRB/04 RMK AO2 T02220144                                                               
24015KAKO AKO20190909112510909/09/19 11:25:31  5-MIN KAKO 091825Z AUTO 00000KT 10SM CLR 23/14 A2996 4680 59 6700 000/00 RMK AO2 T02280144                                                               
24015KAKO AKO20190909113010909/09/19 11:30:31  5-MIN KAKO 091830Z AUTO VRB03KT 10SM CLR 23/15 A2996 4690 59 6700 VRB/03 RMK AO2 T02330150                                                               
24015KAKO AKO20190909114510909/09/19 11:45:31  5-MIN KAKO 091845Z AUTO VRB03KT 10SM CLR 23/13 A2995 4690 55 6700 VRB/03 RMK AO2 T02280133                                                               
24015KAKO AKO20190909115510909/09/19 11:55:31  5-MIN KAKO 091855Z AUTO 00000KT 10SM CLR 23/13 A2995 4690 55 6700 000/00 RMK AO2 T02280133                                                               
24015KAKO AKO20190909120510909/09/19 12:05:31  5-MIN KAKO 091905Z AUTO VRB04KT 10SM CLR 24/12 A2995 4690 44 6900 VRB/04 RMK AO2 T02440117                                                               
24015KAKO AKO20190909121510909/09/19 12:15:31  5-MIN KAKO 091915Z AUTO VRB03KT 10SM CLR 24/12 A2995 4690 44 6900 VRB/03 RMK AO2 T02440117                                                               
24015KAKO AKO20190909122510909/09/19 12:25:31  5-MIN KAKO 091925Z AUTO 00000KT 10SM CLR 24/12 A2994 4700 44 6900 000/00 RMK AO2 T02440117                                                               
24015KAKO AKO20190909123010909/09/19 12:30:31  5-MIN KAKO 091930Z AUTO 00000KT 10SM CLR 25/12 A2994 4700 43 6900 000/00 RMK AO2 T02500117                                                               
24015KAKO AKO20190909124010909/09/19 12:40:31  5-MIN KAKO 091940Z AUTO VRB05KT 10SM CLR 26/11 A2994 4700 38 7000 VRB/05 RMK AO2 T02560106                                                               
24015KAKO AKO20190909130010909/09/19 13:00:31  5-MIN KAKO 092000Z AUTO VRB03KT 10SM CLR 25/12 A2994 4700 43 6900 VRB/03 RMK AO2 T02500117                                                               
24015KAKO AKO20190909130510909/09/19 13:05:31  5-MIN KAKO 092005Z AUTO VRB03KT 10SM CLR 26/12 A2994 4700 43 7000 VRB/03 RMK AO2 T02560122                                                               
24015KAKO AKO20190909131010909/09/19 13:10:31  5-MIN KAKO 092010Z AUTO VRB04KT 10SM CLR 26/12 A2994 4700 41 7000 VRB/04 RMK AO2 T02560117                                                               
24015KAKO AKO20190909131510909/09/19 13:15:31  5-MIN KAKO 092015Z AUTO VRB05KT 10SM CLR 26/12 A2993 4710 40 7100 VRB/05 RMK AO2 T02610117                                                               
24015KAKO AKO20190909132010909/09/19 13:20:31  5-MIN KAKO 092020Z AUTO VRB04KT 10SM CLR 26/12 A2993 4710 41 7000 VRB/04 RMK AO2 T02560117                                                               
24015KAKO AKO20190909133510909/09/19 13:35:31  5-MIN KAKO 092035Z AUTO 00000KT 10SM CLR 26/11 A2993 4710 38 7100 000/00 RMK AO2 T02610111                                                               
24015KAKO AKO20190909135012209/09/19 13:50:31  5-MIN KAKO 092050Z AUTO VRB04KT 10SM CLR 26/12 A2993 4710 40 7100 VRB/04 RMK AO2 SLP080 T02610117 58003                                                  
24015KAKO AKO20190909140510909/09/19 14:05:31  5-MIN KAKO 092105Z AUTO VRB06KT 10SM CLR 27/11 A2993 4710 36 7100 VRB/06 RMK AO2 T02670106                                                               
24015KAKO AKO20190909142010909/09/19 14:20:31  5-MIN KAKO 092120Z AUTO VRB03KT 10SM CLR 27/11 A2993 4710 37 7100 VRB/03 RMK AO2 T02670111                                                               
24015KAKO AKO20190909142510909/09/19 14:25:31  5-MIN KAKO 092125Z AUTO VRB03KT 10SM CLR 27/11 A2993 4710 37 7100 VRB/03 RMK AO2 T02670111                                                               
24015KAKO AKO20190909144010909/09/19 14:40:31  5-MIN KAKO 092140Z AUTO VRB04KT 10SM CLR 28/09 A2992 4720 30 7300 VRB/04 RMK AO2 T02780089                                                               
24015KAKO AKO20190909145510909/09/19 14:55:31  5-MIN KAKO 092155Z AUTO VRB05KT 10SM CLR 28/09 A2992 4720 30 7300 VRB/05 RMK AO2 T02780089                                                               
24015KAKO AKO20190909151010909/09/19 15:10:31  5-MIN KAKO 092210Z AUTO VRB04KT 10SM CLR 28/09 A2992 4720 30 7300 VRB/04 RMK AO2 T02780089                                                               
24015KAKO AKO20190909151510909/09/19 15:15:31  5-MIN KAKO 092215Z AUTO 00000KT 10SM CLR 27/08 A2992 4720 30 7200 000/00 RMK AO2 T02720083                                                               
24015KAKO AKO20190909152010909/09/19 15:20:31  5-MIN KAKO 092220Z AUTO VRB03KT 10SM CLR 28/08 A2992 4720 28 7300 VRB/03 RMK AO2 T02780078                                                               
24015KAKO AKO20190909153510909/09/19 15:35:31  5-MIN KAKO 092235Z AUTO VRB03KT 10SM CLR 28/06 A2992 4720 25 7300 VRB/03 RMK AO2 T02780061                                                               
24015KAKO AKO20190909154010909/09/19 15:40:31  5-MIN KAKO 092240Z AUTO 00000KT 10SM CLR 27/06 A2992 4720 25 7200 000/00 RMK AO2 T02720061                                                               
24015KAKO AKO20190909155510909/09/19 15:55:31  5-MIN KAKO 092255Z AUTO 00000KT 10SM CLR 28/07 A2992 4720 26 7300 000/00 RMK AO2 T02780067                                                               
24015KAKO AKO20190909160010909/09/19 16:00:31  5-MIN KAKO 092300Z AUTO VRB03KT 10SM CLR 28/07 A2992 4720 27 7300 VRB/03 RMK AO2 T02780072                                                               
24015KAKO AKO20190909161510909/09/19 16:15:31  5-MIN KAKO 092315Z AUTO 00000KT 10SM CLR 27/07 A2992 4720 27 7200 000/00 RMK AO2 T02720072                                                               
24015KAKO AKO20190909162010909/09/19 16:20:31  5-MIN KAKO 092320Z AUTO 00000KT 10SM CLR 27/07 A2992 4720 27 7200 000/00 RMK AO2 T02720072                                                               
24015KAKO AKO20190909162510909/09/19 16:25:31  5-MIN KAKO 092325Z AUTO 00000KT 10SM CLR 28/08 A2992 4720 28 7300 000/00 RMK AO2 T02780078                                                               
24015KAKO AKO20190909163010909/09/19 16:30:31  5-MIN KAKO 092330Z AUTO 00000KT 10SM CLR 28/07 A2992 4720 26 7300 000/00 RMK AO2 T02780067                                                               
24015KAKO AKO20190909164010909/09/19 16:40:31  5-MIN KAKO 092340Z AUTO 00000KT 10SM CLR 27/09 A2992 4720 31 7200 000/00 RMK AO2 T02720089                                                               
24015KAKO AKO20190909164510909/09/19 16:45:31  5-MIN KAKO 092345Z AUTO 00000KT 10SM CLR 28/07 A2992 4720 27 7300 000/00 RMK AO2 T02780072                                                               
24015KAKO AKO20190910020512609/10/19 02:05:31  5-MIN KAKO 100905Z AUTO 00000KT 8SM CLR 16/14 A2996 4680 93 5900 000/00 RMK AO2 LTG DSNT N AND NW T01560144                                              
24015KAKO AKO20190911121010909/11/19 12:10:31  5-MIN KAKO 111910Z AUTO 00000KT 10SM CLR 24/16 A2996 4690 59 6800 000/00 RMK AO2 T02390156                                                               
24015KAKO AKO20190911121510909/11/19 12:15:31  5-MIN KAKO 111915Z AUTO VRB05KT 10SM CLR 25/16 A2996 4680 55 6900 VRB/05 RMK AO2 T02500156                                                               
24015KAKO AKO20190911123010909/11/19 12:30:31  5-MIN KAKO 111930Z AUTO VRB06KT 10SM CLR 24/16 A2995 4690 57 6900 VRB/06 RMK AO2 T02440156                                                               
24015KAKO AKO20190911123510909/11/19 12:35:31  5-MIN KAKO 111935Z AUTO VRB05KT 10SM CLR 24/16 A2995 4690 57 6900 VRB/05 RMK AO2 T02440156                                                               
24015KAKO AKO20190911125011709/11/19 12:50:31  5-MIN KAKO 111950Z AUTO 00000KT 10SM CLR 25/16 A2994 4700 55 6900 000/00 RMK AO2 SLPNO T02500156 $                                                       
24015KAKO AKO20190911125511109/11/19 12:55:31  5-MIN KAKO 111955Z AUTO 00000KT 10SM CLR 25/15 A2994 4700 53 6900 000/00 RMK AO2 T02500150 $                                                             
24015KAKO AKO20190911130011109/11/19 13:00:31  5-MIN KAKO 112000Z AUTO VRB04KT 10SM CLR 26/15 A2994 4700 50 7100 VRB/04 RMK AO2 T02610150 $                                                             
24015KAKO AKO20190911131511109/11/19 13:15:31  5-MIN KAKO 112015Z AUTO VRB03KT 10SM CLR 26/14 A2993 4710 48 7100 VRB/03 RMK AO2 T02610144 $                                                             
24015KAKO AKO20190911132011109/11/19 13:20:31  5-MIN KAKO 112020Z AUTO VRB05KT 10SM CLR 27/15 A2993 4710 48 7100 VRB/05 RMK AO2 T02670150 $                                                             
24015KAKO AKO20190911132511109/11/19 13:25:31  5-MIN KAKO 112025Z AUTO 00000KT 10SM CLR 27/14 A2993 4710 46 7100 000/00 RMK AO2 T02670144 $                                                             
24015KAKO AKO20190911133511109/11/19 13:35:31  5-MIN KAKO 112035Z AUTO 00000KT 10SM CLR 27/14 A2992 4720 45 7200 000/00 RMK AO2 T02720144 $                                                             
24015KAKO AKO20190911140011109/11/19 14:00:31  5-MIN KAKO 112100Z AUTO VRB06KT 10SM CLR 28/13 A2990 4740 39 7300 VRB/06 RMK AO2 T02830133 $                                                             
24015KAKO AKO20190912210011109/12/19 21:00:31  5-MIN KAKO 130400Z AUTO 00000KT 10SM CLR 14/04 A3029 4370 50 5300 000/00 RMK AO2 T01390039 $                                                             
24015KAKO AKO20190912210511109/12/19 21:05:31  5-MIN KAKO 130405Z AUTO 00000KT 10SM CLR 14/04 A3030 4370 49 5400 000/00 RMK AO2 T01440039 $                                                             
24015KAKO AKO20190912211011109/12/19 21:10:31  5-MIN KAKO 130410Z AUTO 00000KT 10SM CLR 14/04 A3030 4370 49 5300 000/00 RMK AO2 T01440039 $                                                             
24015KAKO AKO20190912211511109/12/19 21:15:31  5-MIN KAKO 130415Z AUTO 00000KT 10SM CLR 13/04 A3030 4370 54 5200 000/00 RMK AO2 T01330044 $                                                             
24015KAKO AKO20190912213011109/12/19 21:30:31  5-MIN KAKO 130430Z AUTO 00000KT 10SM CLR 12/04 A3031 4370 61 5000 000/00 RMK AO2 T01170044 $                                                             
24015KAKO AKO20190912213511109/12/19 21:35:31  5-MIN KAKO 130435Z AUTO 00000KT 10SM CLR 13/04 A3030 4370 56 5200 000/00 RMK AO2 T01280044 $                                                             
24015KAKO AKO20190912214011109/12/19 21:40:31  5-MIN KAKO 130440Z AUTO 00000KT 10SM CLR 13/04 A3030 4370 56 5200 000/00 RMK AO2 T01280044 $                                                             
24015KAKO AKO20190912221511109/12/19 22:15:31  5-MIN KAKO 130515Z AUTO 00000KT 10SM CLR 11/04 A3031 4360 63 5000 000/00 RMK AO2 T01110044 $                                                             
24015KAKO AKO20190912222011109/12/19 22:20:31  5-MIN KAKO 130520Z AUTO 00000KT 10SM CLR 10/04 A3031 4370 68 4800 000/00 RMK AO2 T01000044 $                                                             
24015KAKO AKO20190912222511109/12/19 22:25:31  5-MIN KAKO 130525Z AUTO 00000KT 10SM CLR 11/04 A3030 4370 66 4900 000/00 RMK AO2 T01060044 $                                                             
24015KAKO AKO20190912223011109/12/19 22:30:31  5-MIN KAKO 130530Z AUTO 00000KT 10SM CLR 11/04 A3030 4370 66 4900 000/00 RMK AO2 T01060044 $                                                             
24015KAKO AKO20190912223511109/12/19 22:35:31  5-MIN KAKO 130535Z AUTO 00000KT 10SM CLR 10/04 A3030 4370 65 4800 000/00 RMK AO2 T01000039 $                                                             
24015KAKO AKO20190912232511109/12/19 23:25:31  5-MIN KAKO 130625Z AUTO 00000KT 10SM CLR 13/03 A3031 4360 50 5200 000/00 RMK AO2 T01330033 $                                                             
24015KAKO AKO20190914104011109/14/19 10:40:31  5-MIN KAKO 141740Z AUTO VRB04KT 10SM CLR 27/03 A3019 4470 22 6800 VRB/04 RMK AO2 T02670033 $                                                             
24015KAKO AKO20190914105013609/14/19 10:50:31  5-MIN KAKO 141750Z AUTO VRB05KT 10SM CLR 27/03 A3019 4470 22 6800 VRB/05 RMK AO2 SLP166 T02670033 10272 20111 53012 $                                    
24015KAKO AKO20190914111011109/14/19 11:10:31  5-MIN KAKO 141810Z AUTO VRB04KT 10SM CLR 28/03 A3018 4480 19 7000 VRB/04 RMK AO2 T02780028 $                                                             
24015KAKO AKO20190914111511109/14/19 11:15:31  5-MIN KAKO 141815Z AUTO VRB04KT 10SM CLR 28/03 A3018 4480 20 7000 VRB/04 RMK AO2 T02780033 $                                                             
24015KAKO AKO20190914134011209/14/19 13:40:31  5-MIN KAKO 142040Z AUTO VRB06KT 10SM CLR 29/M02 A3015 4510 13 7200 VRB/06 RMK AO2 T02941017 $                                                            
24015KAKO AKO20190914143511209/14/19 14:35:31  5-MIN KAKO 142135Z AUTO VRB03KT 10SM CLR 29/M02 A3014 4520 13 7200 VRB/03 RMK AO2 T02941017 $                                                            
24015KAKO AKO20190914145511209/14/19 14:55:31  5-MIN KAKO 142155Z AUTO VRB05KT 10SM CLR 29/M02 A3013 4520 13 7200 VRB/05 RMK AO2 T02941017 $                                                            
24015KAKO AKO20190914150011209/14/19 15:00:31  5-MIN KAKO 142200Z AUTO VRB05KT 10SM CLR 30/M02 A3013 4530 12 7300 VRB/05 RMK AO2 T03001017 $                                                            
24015KAKO AKO20190914151511209/14/19 15:15:31  5-MIN KAKO 142215Z AUTO 00000KT 10SM CLR 30/M02 A3013 4520 12 7300 000/00 RMK AO2 T03001017 $                                                            
24015KAKO AKO20190914152511209/14/19 15:25:31  5-MIN KAKO 142225Z AUTO 00000KT 10SM CLR 30/M01 A3013 4530 13 7300 000/00 RMK AO2 T03001011 $                                                            
24015KAKO AKO20190914162011209/14/19 16:20:31  5-MIN KAKO 142320Z AUTO VRB03KT 10SM CLR 29/M01 A3013 4530 13 7200 VRB/03 RMK AO2 T02941011 $                                                            
24015KAKO AKO20190914181011209/14/19 18:10:31  5-MIN KAKO 150110Z AUTO 00000KT 10SM CLR 23/M01 A3014 4520 20 6500 000/00 RMK AO2 T02331006 $                                                            
24015KAKO AKO20190914181511209/14/19 18:15:31  5-MIN KAKO 150115Z AUTO 00000KT 10SM CLR 24/M01 A3014 4520 19 6600 000/00 RMK AO2 T02391006 $                                                            
24015KAKO AKO20190914182011209/14/19 18:20:31  5-MIN KAKO 150120Z AUTO 00000KT 10SM CLR 24/M01 A3014 4520 19 6600 000/00 RMK AO2 T02391006 $                                                            
24015KAKO AKO20190918085011709/18/19 08:50:31  5-MIN KAKO 181550Z AUTO VRB06KT 10SM CLR 18/M01 A3013 4530 26 6000 VRB/06 RMK AO2 SLP151 T01831011                                                       
24015KAKO AKO20190918120011609/18/19 12:00:31  5-MIN KAKO 181900Z AUTO VRB06G16KT 10SM CLR 24/M01 A3010 4550 19 6600 VRB/06G16 RMK AO2 T02391011                                                        
24015KAKO AKO20190919034511109/19/19 03:45:31  5-MIN KAKO 191045Z AUTO 00000KT 10SM CLR 13/11 A3001 4640 83 5500 000/00 RMK AO2 T01330106 $                                                             
24015KAKO AKO20190919035011809/19/19 03:50:31  5-MIN KAKO 191050Z AUTO 00000KT 10SM CLR 12/10 A3001 4630 86 5400 000/00 RMK AO2 SLP114 T01220100 $                                                      
24015KAKO AKO20190919035511109/19/19 03:55:31  5-MIN KAKO 191055Z AUTO 00000KT 10SM CLR 12/10 A3001 4640 86 5400 000/00 RMK AO2 T01220100 $                                                             
24015KAKO AKO20190919083010209/19/19 08:30:31  5-MIN KAKO 191530Z AUTO 00000KT 19/14 A3003 4620 70 6200 000/00 RMK AO2 T01940139 $                                                                      
24015KAKO AKO20190919083510509/19/19 08:35:31  5-MIN KAKO 191535Z AUTO 00000KT 10SM 19/14 A3002 4630 70 6200 000/00 RMK AO2 T01940139                                                                   
24015KAKO AKO20190919084010509/19/19 08:40:31  5-MIN KAKO 191540Z AUTO 00000KT 10SM 20/14 A3002 4630 67 6300 000/00 RMK AO2 T02000139                                                                   
24015KAKO AKO20190919085510909/19/19 08:55:31  5-MIN KAKO 191555Z AUTO VRB03KT 10SM CLR 21/14 A3002 4630 67 6400 VRB/03 RMK AO2 T02060144                                                               
24015KAKO AKO20190919090010909/19/19 09:00:31  5-MIN KAKO 191600Z AUTO 00000KT 10SM CLR 21/14 A3002 4630 67 6400 000/00 RMK AO2 T02060144                                                               
24015KAKO AKO20190919090510909/19/19 09:05:31  5-MIN KAKO 191605Z AUTO VRB03KT 10SM CLR 21/14 A3002 4630 63 6400 VRB/03 RMK AO2 T02110139                                                               
24015KAKO AKO20190919091010909/19/19 09:10:31  5-MIN KAKO 191610Z AUTO VRB05KT 10SM CLR 22/13 A3002 4630 58 6500 VRB/05 RMK AO2 T02170133                                                               
24015KAKO AKO20190919092510909/19/19 09:25:31  5-MIN KAKO 191625Z AUTO 00000KT 10SM CLR 22/13 A3002 4630 58 6500 000/00 RMK AO2 T02170133                                                               
24015KAKO AKO20190919093010909/19/19 09:30:31  5-MIN KAKO 191630Z AUTO VRB04KT 10SM CLR 22/13 A3002 4630 56 6500 VRB/04 RMK AO2 T02220133                                                               
24015KAKO AKO20190919094010909/19/19 09:40:31  5-MIN KAKO 191640Z AUTO 00000KT 10SM CLR 22/13 A3001 4640 56 6500 000/00 RMK AO2 T02220133                                                               
24015KAKO AKO20190919100010909/19/19 10:00:31  5-MIN KAKO 191700Z AUTO VRB04KT 10SM CLR 23/13 A3001 4640 51 6700 VRB/04 RMK AO2 T02330128                                                               
24015KAKO AKO20190919101010909/19/19 10:10:31  5-MIN KAKO 191710Z AUTO VRB05KT 10SM CLR 24/12 A3000 4640 46 6700 VRB/05 RMK AO2 T02390117                                                               
24015KAKO AKO20190919101510909/19/19 10:15:31  5-MIN KAKO 191715Z AUTO VRB05KT 10SM CLR 24/11 A3000 4640 44 6700 VRB/05 RMK AO2 T02390111                                                               
24015KAKO AKO20190919102011109/19/19 10:20:31  5-MIN KAKO 191720Z AUTO VRB03KT 10SM CLR 24/11 A3000 4640 42 6800 VRB/03 RMK AO2 T02440111 $                                                             
24015KAKO AKO20190919103511109/19/19 10:35:31  5-MIN KAKO 191735Z AUTO 00000KT 10SM CLR 24/11 A3000 4650 41 6800 000/00 RMK AO2 T02440106 $                                                             
24015KAKO AKO20190919105511109/19/19 10:55:31  5-MIN KAKO 191755Z AUTO 00000KT 10SM CLR 26/10 A2999 4650 36 7000 000/00 RMK AO2 T02610100 $                                                             
24015KAKO AKO20190919110011109/19/19 11:00:31  5-MIN KAKO 191800Z AUTO VRB04KT 10SM CLR 26/09 A2999 4660 34 7000 VRB/04 RMK AO2 T02610094 $                                                             
24015KAKO AKO20190919110511109/19/19 11:05:31  5-MIN KAKO 191805Z AUTO VRB04KT 10SM CLR 27/09 A2999 4660 33 7100 VRB/04 RMK AO2 T02670094 $                                                             
24015KAKO AKO20190919111011109/19/19 11:10:31  5-MIN KAKO 191810Z AUTO VRB03KT 10SM CLR 26/09 A2999 4660 33 7000 VRB/03 RMK AO2 T02610089 $                                                             
24015KAKO AKO20190919111511109/19/19 11:15:31  5-MIN KAKO 191815Z AUTO VRB04KT 10SM CLR 26/09 A2998 4660 33 7000 VRB/04 RMK AO2 T02610089 $                                                             
24015KAKO AKO20190919112011109/19/19 11:20:31  5-MIN KAKO 191820Z AUTO VRB03KT 10SM CLR 27/08 A2998 4660 31 7100 VRB/03 RMK AO2 T02670083 $                                                             
24015KAKO AKO20190919112511109/19/19 11:25:31  5-MIN KAKO 191825Z AUTO VRB03KT 10SM CLR 27/08 A2998 4660 31 7100 VRB/03 RMK AO2 T02670083 $                                                             
24015KAKO AKO20190919114011109/19/19 11:40:31  5-MIN KAKO 191840Z AUTO 00000KT 10SM CLR 28/07 A2997 4670 27 7200 000/00 RMK AO2 T02780072 $                                                             
24015KAKO AKO20190919114511109/19/19 11:45:31  5-MIN KAKO 191845Z AUTO 00000KT 10SM CLR 28/07 A2997 4670 27 7200 000/00 RMK AO2 T02780072 $                                                             
24015KAKO AKO20190919115511109/19/19 11:55:31  5-MIN KAKO 191855Z AUTO VRB03KT 10SM CLR 28/07 A2996 4680 25 7300 VRB/03 RMK AO2 T02830067 $                                                             
24015KAKO AKO20190919120011109/19/19 12:00:31  5-MIN KAKO 191900Z AUTO VRB06KT 10SM CLR 28/06 A2996 4680 24 7300 VRB/06 RMK AO2 T02830061 $                                                             
24015KAKO AKO20190919120511709/19/19 12:05:31  5-MIN KAKO 191905Z AUTO VRB05G15KT 10SM CLR 29/07 A2996 4680 23 7400 VRB/05G15 RMK AO2 T02940067 $                                                       
24015KAKO AKO20190919124511109/19/19 12:45:31  5-MIN KAKO 191945Z AUTO VRB03KT 10SM CLR 29/04 A2995 4700 20 7300 VRB/03 RMK AO2 T02890044 $                                                             
24015KAKO AKO20190919131011109/19/19 13:10:31  5-MIN KAKO 192010Z AUTO VRB03KT 10SM CLR 30/04 A2994 4700 19 7500 VRB/03 RMK AO2 T03000044 $                                                             
24015KAKO AKO20190919131511109/19/19 13:15:31  5-MIN KAKO 192015Z AUTO VRB05KT 10SM CLR 30/04 A2994 4700 19 7500 VRB/05 RMK AO2 T03000044 $                                                             
24015KAKO AKO20190919132011109/19/19 13:20:31  5-MIN KAKO 192020Z AUTO 00000KT 10SM CLR 30/04 A2993 4710 18 7500 000/00 RMK AO2 T03000039 $                                                             
24015KAKO AKO20190919133011109/19/19 13:30:31  5-MIN KAKO 192030Z AUTO 00000KT 10SM CLR 31/03 A2993 4710 17 7600 000/00 RMK AO2 T03110033 $                                                             
24015KAKO AKO20190919134010909/19/19 13:40:31  5-MIN KAKO 192040Z AUTO VRB05KT 10SM CLR 31/03 A2993 4710 16 7500 VRB/05 RMK AO2 T03060028                                                               
24015KAKO AKO20190919135011609/19/19 13:50:31  5-MIN KAKO 192050Z AUTO VRB04KT 10SM CLR 30/02 A2992 4720 16 7500 VRB/04 RMK AO2 SLP069 T03000022                                                        
24015KAKO AKO20190919140010909/19/19 14:00:31  5-MIN KAKO 192100Z AUTO VRB05KT 10SM CLR 31/03 A2991 4730 16 7600 VRB/05 RMK AO2 T03060028                                                               
24015KAKO AKO20190919141010909/19/19 14:10:31  5-MIN KAKO 192110Z AUTO VRB05KT 10SM CLR 31/03 A2991 4730 16 7600 VRB/05 RMK AO2 T03110028                                                               
24015KAKO AKO20190921091511009/21/19 09:15:31  5-MIN KAKO 211615Z AUTO VRB06KT 10SM CLR 19/M02 A3003 4610 24 6200 VRB/06 RMK AO2 T01891017                                                              
24015KAKO AKO20190921092511009/21/19 09:25:31  5-MIN KAKO 211625Z AUTO VRB04KT 10SM CLR 19/M02 A3003 4620 24 6200 VRB/04 RMK AO2 T01891017                                                              
24015KAKO AKO20190921093511009/21/19 09:35:31  5-MIN KAKO 211635Z AUTO 00000KT 10SM CLR 18/M02 A3003 4610 24 6100 000/00 RMK AO2 T01831022                                                              
24015KAKO AKO20190921101011009/21/19 10:10:31  5-MIN KAKO 211710Z AUTO VRB04KT 10SM CLR 20/M02 A3003 4620 23 6300 VRB/04 RMK AO2 T02001017                                                              
24015KAKO AKO20190921101511009/21/19 10:15:31  5-MIN KAKO 211715Z AUTO VRB04KT 10SM CLR 20/M02 A3003 4620 22 6300 VRB/04 RMK AO2 T02001022                                                              
24015KAKO AKO20190921102011009/21/19 10:20:31  5-MIN KAKO 211720Z AUTO VRB04KT 10SM CLR 20/M02 A3003 4620 22 6300 VRB/04 RMK AO2 T02001022                                                              
24015KAKO AKO20190921103011009/21/19 10:30:31  5-MIN KAKO 211730Z AUTO 00000KT 10SM CLR 20/M02 A3003 4620 22 6300 000/00 RMK AO2 T02001022                                                              
24015KAKO AKO20190921104011009/21/19 10:40:31  5-MIN KAKO 211740Z AUTO VRB04KT 10SM CLR 21/M02 A3003 4620 21 6300 VRB/04 RMK AO2 T02061022                                                              
24015KAKO AKO20190921105511009/21/19 10:55:31  5-MIN KAKO 211755Z AUTO VRB06KT 10SM CLR 21/M02 A3003 4620 20 6400 VRB/06 RMK AO2 T02111022                                                              
24015KAKO AKO20190921111011009/21/19 11:10:31  5-MIN KAKO 211810Z AUTO VRB04KT 10SM CLR 21/M02 A3002 4620 20 6400 VRB/04 RMK AO2 T02111022                                                              
24015KAKO AKO20190921113011009/21/19 11:30:31  5-MIN KAKO 211830Z AUTO VRB06KT 10SM CLR 22/M02 A3002 4630 19 6500 VRB/06 RMK AO2 T02221022                                                              
24015KAKO AKO20190921113511009/21/19 11:35:31  5-MIN KAKO 211835Z AUTO 00000KT 10SM CLR 22/M03 A3001 4630 19 6500 000/00 RMK AO2 T02171028                                                              
24015KAKO AKO20190921120011609/21/19 12:00:31  5-MIN KAKO 211900Z AUTO VRB05G15KT 10SM CLR 23/M03 A3000 4640 18 6600 VRB/05G15 RMK AO2 T02281028                                                        
24015KAKO AKO20190921123511009/21/19 12:35:31  5-MIN KAKO 211935Z AUTO 00000KT 10SM CLR 23/M03 A3000 4650 18 6600 000/00 RMK AO2 T02281028                                                              
24015KAKO AKO20190921140511609/21/19 14:05:31  5-MIN KAKO 212105Z AUTO VRB05G15KT 10SM CLR 24/M02 A2997 4670 17 6800 VRB/05G15 RMK AO2 T02391022                                                        
24015KAKO AKO20190922030011209/22/19 03:00:31  5-MIN KAKO 221000Z AUTO 00000KT 10SM FEW110 09/08 A3007 4580 93 5000 000/00 RMK AO2 T00890078                                                            
24015KAKO AKO20190922030511209/22/19 03:05:31  5-MIN KAKO 221005Z AUTO 00000KT 10SM FEW120 09/08 A3008 4580 93 5000 000/00 RMK AO2 T00890078                                                            
24015KAKO AKO20190922031510909/22/19 03:15:31  5-MIN KAKO 221015Z AUTO 00000KT 10SM CLR 09/07 A3008 4570 89 5000 000/00 RMK AO2 T00890072                                                               
24015KAKO AKO20190922032010909/22/19 03:20:31  5-MIN KAKO 221020Z AUTO 00000KT 10SM CLR 09/07 A3008 4570 89 5000 000/00 RMK AO2 T00890072                                                               
24015KAKO AKO20190922032510909/22/19 03:25:31  5-MIN KAKO 221025Z AUTO 00000KT 10SM CLR 09/07 A3008 4570 86 5000 000/00 RMK AO2 T00940072                                                               
24015KAKO AKO20190922033010909/22/19 03:30:31  5-MIN KAKO 221030Z AUTO 00000KT 10SM CLR 09/07 A3008 4570 89 5000 000/00 RMK AO2 T00890072                                                               
24015KAKO AKO20190922033510909/22/19 03:35:31  5-MIN KAKO 221035Z AUTO 00000KT 10SM CLR 09/07 A3008 4570 86 5000 000/00 RMK AO2 T00940072                                                               
24015KAKO AKO20190922034010909/22/19 03:40:31  5-MIN KAKO 221040Z AUTO 00000KT 10SM CLR 09/07 A3008 4570 89 4900 000/00 RMK AO2 T00890072                                                               
24015KAKO AKO20190922034510909/22/19 03:45:31  5-MIN KAKO 221045Z AUTO 00000KT 10SM CLR 09/07 A3009 4570 89 4900 000/00 RMK AO2 T00890072                                                               
24015KAKO AKO20190922035011609/22/19 03:50:31  5-MIN KAKO 221050Z AUTO 00000KT 10SM CLR 09/07 A3009 4570 86 4900 000/00 RMK AO2 SLP148 T00890067                                                        
24015KAKO AKO20190922114011709/22/19 11:40:31  5-MIN KAKO 221840Z AUTO VRB05G16KT 10SM CLR 19/05 A3010 4560 39 6100 VRB/05G16 RMK AO2 T01890050 $                                                       
24015KAKO AKO20190922120011109/22/19 12:00:31  5-MIN KAKO 221900Z AUTO 00000KT 10SM CLR 19/04 A3009 4560 38 6100 000/00 RMK AO2 T01890044 $                                                             
24015KAKO AKO20190922121511109/22/19 12:15:31  5-MIN KAKO 221915Z AUTO VRB03KT 10SM CLR 19/02 A3009 4570 31 6200 VRB/03 RMK AO2 T01940022 $                                                             
24015KAKO AKO20190922122511109/22/19 12:25:31  5-MIN KAKO 221925Z AUTO VRB05KT 10SM CLR 20/03 A3009 4560 33 6200 VRB/05 RMK AO2 T02000033 $                                                             
24015KAKO AKO20190922124511109/22/19 12:45:31  5-MIN KAKO 221945Z AUTO VRB05KT 10SM CLR 20/01 A3008 4570 28 6200 VRB/05 RMK AO2 T02000011 $                                                             
24015KAKO AKO20190922133511109/22/19 13:35:31  5-MIN KAKO 222035Z AUTO VRB03KT 10SM CLR 21/01 A3007 4580 26 6400 VRB/03 RMK AO2 T02110011 $                                                             
24015KAKO AKO20190922135012409/22/19 13:50:31  5-MIN KAKO 222050Z AUTO VRB05KT 10SM CLR 22/01 A3007 4580 25 6400 VRB/05 RMK AO2 SLP144 T02170011 58004 $                                                
24015KAKO AKO20190922140511109/22/19 14:05:31  5-MIN KAKO 222105Z AUTO VRB06KT 10SM CLR 22/01 A3007 4580 25 6400 VRB/06 RMK AO2 T02170011 $                                                             
24015KAKO AKO20190922145511809/22/19 14:55:31  5-MIN KAKO 222155Z AUTO VRB05G16KT 10SM CLR 22/M01 A3006 4590 21 6400 VRB/05G16 RMK AO2 T02171011 $                                                      
24015KAKO AKO20190922151511209/22/19 15:15:31  5-MIN KAKO 222215Z AUTO VRB04KT 10SM CLR 22/M01 A3007 4590 22 6400 VRB/04 RMK AO2 T02171006 $                                                            
24015KAKO AKO20190922152011209/22/19 15:20:31  5-MIN KAKO 222220Z AUTO VRB03KT 10SM CLR 22/M01 A3006 4590 21 6400 VRB/03 RMK AO2 T02171011 $                                                            
24015KAKO AKO20190922153511209/22/19 15:35:31  5-MIN KAKO 222235Z AUTO VRB03KT 10SM CLR 22/M01 A3007 4580 22 6400 VRB/03 RMK AO2 T02171006 $                                                            
24015KAKO AKO20190922155511209/22/19 15:55:31  5-MIN KAKO 222255Z AUTO VRB05KT 10SM CLR 22/M01 A3007 4580 22 6400 VRB/05 RMK AO2 T02171006 $                                                            
24015KAKO AKO20190922161011209/22/19 16:10:31  5-MIN KAKO 222310Z AUTO VRB03KT 10SM CLR 22/M01 A3007 4580 21 6400 VRB/03 RMK AO2 T02171011 $                                                            
24015KAKO AKO20190922161511209/22/19 16:15:31  5-MIN KAKO 222315Z AUTO 00000KT 10SM CLR 21/M01 A3007 4580 22 6400 000/00 RMK AO2 T02111011 $                                                            
24015KAKO AKO20190922162011209/22/19 16:20:31  5-MIN KAKO 222320Z AUTO VRB03KT 10SM CLR 22/M01 A3007 4580 21 6400 VRB/03 RMK AO2 T02171011 $                                                            
24015KAKO AKO20190922165013709/22/19 16:50:31  5-MIN KAKO 222350Z AUTO 00000KT 10SM CLR 21/M02 A3007 4580 21 6400 000/00 RMK AO2 SLP150 T02111017 10222 20183 56012 $                                   
24015KAKO AKO20190922165511209/22/19 16:55:31  5-MIN KAKO 222355Z AUTO 00000KT 10SM CLR 21/M02 A3007 4580 21 6400 000/00 RMK AO2 T02111017 $                                                            
24015KAKO AKO20190922170011209/22/19 17:00:31  5-MIN KAKO 230000Z AUTO 00000KT 10SM CLR 21/M02 A3007 4580 21 6400 000/00 RMK AO2 T02111017 $                                                            
24015KAKO AKO20190922170511209/22/19 17:05:31  5-MIN KAKO 230005Z AUTO 00000KT 10SM CLR 21/M01 A3007 4580 22 6400 000/00 RMK AO2 T02111011 $                                                            
24015KAKO AKO20190922171011209/22/19 17:10:31  5-MIN KAKO 230010Z AUTO 00000KT 10SM CLR 21/M01 A3007 4580 22 6400 000/00 RMK AO2 T02111011 $                                                            
24015KAKO AKO20190922171511209/22/19 17:15:31  5-MIN KAKO 230015Z AUTO 00000KT 10SM CLR 21/M02 A3008 4580 22 6300 000/00 RMK AO2 T02061017 $                                                            
24015KAKO AKO20190922172011209/22/19 17:20:31  5-MIN KAKO 230020Z AUTO 00000KT 10SM CLR 21/M01 A3008 4580 23 6300 000/00 RMK AO2 T02061011 $                                                            
24015KAKO AKO20190922172511209/22/19 17:25:31  5-MIN KAKO 230025Z AUTO 00000KT 10SM CLR 21/M02 A3008 4580 22 6300 000/00 RMK AO2 T02061017 $                                                            
24015KAKO AKO20190922173011209/22/19 17:30:31  5-MIN KAKO 230030Z AUTO 00000KT 10SM CLR 21/M02 A3008 4570 22 6300 000/00 RMK AO2 T02061017 $                                                            
24015KAKO AKO20190922173511209/22/19 17:35:31  5-MIN KAKO 230035Z AUTO 00000KT 10SM CLR 20/M01 A3008 4570 24 6200 000/00 RMK AO2 T02001011 $                                                            
24015KAKO AKO20190922174011209/22/19 17:40:31  5-MIN KAKO 230040Z AUTO 00000KT 10SM CLR 20/M01 A3008 4580 24 6200 000/00 RMK AO2 T02001011 $                                                            
24015KAKO AKO20190922174511209/22/19 17:45:31  5-MIN KAKO 230045Z AUTO 00000KT 10SM CLR 20/M01 A3008 4580 24 6200 000/00 RMK AO2 T02001011 $                                                            
24015KAKO AKO20190922175011909/22/19 17:50:31  5-MIN KAKO 230050Z AUTO 00000KT 10SM CLR 19/M01 A3008 4580 26 6200 000/00 RMK AO2 SLP154 T01941006 $                                                     
24015KAKO AKO20190922180511109/22/19 18:05:31  5-MIN KAKO 230105Z AUTO 00000KT 10SM CLR 17/01 A3008 4570 33 5900 000/00 RMK AO2 T01670006 $                                                             
24015KAKO AKO20190922181011109/22/19 18:10:31  5-MIN KAKO 230110Z AUTO 00000KT 10SM CLR 17/00 A3008 4570 32 5900 000/00 RMK AO2 T01670000 $                                                             
24015KAKO AKO20190922182511109/22/19 18:25:31  5-MIN KAKO 230125Z AUTO 00000KT 10SM CLR 16/01 A3008 4570 34 5800 000/00 RMK AO2 T01610006 $                                                             
24015KAKO AKO20190922183011109/22/19 18:30:31  5-MIN KAKO 230130Z AUTO 00000KT 10SM CLR 16/01 A3008 4570 34 5800 000/00 RMK AO2 T01610006 $                                                             
24015KAKO AKO20190922183511109/22/19 18:35:31  5-MIN KAKO 230135Z AUTO 00000KT 10SM CLR 16/01 A3009 4560 34 5800 000/00 RMK AO2 T01610006 $                                                             
24015KAKO AKO20190922194511109/22/19 19:45:31  5-MIN KAKO 230245Z AUTO 00000KT 10SM CLR 16/00 A3011 4550 33 5800 000/00 RMK AO2 T01610000 $                                                             
24015KAKO AKO20190922195012409/22/19 19:50:31  5-MIN KAKO 230250Z AUTO 00000KT 10SM CLR 15/01 A3011 4540 37 5600 000/00 RMK AO2 SLP167 T01500006 53001 $                                                
24015KAKO AKO20190922195511109/22/19 19:55:31  5-MIN KAKO 230255Z AUTO 00000KT 10SM CLR 13/02 A3011 4540 46 5400 000/00 RMK AO2 T01280017 $                                                             
24015KAKO AKO20190922200011109/22/19 20:00:31  5-MIN KAKO 230300Z AUTO 00000KT 10SM CLR 14/01 A3011 4540 41 5500 000/00 RMK AO2 T01390011 $                                                             
24015KAKO AKO20190923111010909/23/19 11:10:31  5-MIN KAKO 231810Z AUTO VRB04KT 10SM CLR 24/03 A3011 4540 25 6700 VRB/04 RMK AO2 T02440033                                                               
24015KAKO AKO20190923112510909/23/19 11:25:31  5-MIN KAKO 231825Z AUTO VRB03KT 10SM CLR 24/02 A3011 4540 23 6700 VRB/03 RMK AO2 T02440022                                                               
24015KAKO AKO20190923113510909/23/19 11:35:31  5-MIN KAKO 231835Z AUTO 00000KT 10SM CLR 24/02 A3011 4550 23 6700 000/00 RMK AO2 T02440022                                                               
24015KAKO AKO20190923114010909/23/19 11:40:31  5-MIN KAKO 231840Z AUTO VRB03KT 10SM CLR 24/02 A3011 4550 22 6700 VRB/03 RMK AO2 T02440017                                                               
24015KAKO AKO20190923114510909/23/19 11:45:31  5-MIN KAKO 231845Z AUTO 00000KT 10SM CLR 25/02 A3010 4550 21 6700 000/00 RMK AO2 T02500017                                                               
24015KAKO AKO20190923120510909/23/19 12:05:31  5-MIN KAKO 231905Z AUTO 00000KT 10SM CLR 26/01 A3009 4560 19 6800 000/00 RMK AO2 T02560006                                                               
24015KAKO AKO20190923121010909/23/19 12:10:31  5-MIN KAKO 231910Z AUTO VRB03KT 10SM CLR 26/01 A3009 4560 19 6900 VRB/03 RMK AO2 T02610011                                                               
24015KAKO AKO20190923121510909/23/19 12:15:31  5-MIN KAKO 231915Z AUTO VRB06KT 10SM CLR 27/01 A3008 4570 18 7000 VRB/06 RMK AO2 T02670011                                                               
24015KAKO AKO20190923122010909/23/19 12:20:31  5-MIN KAKO 231920Z AUTO VRB04KT 10SM CLR 26/01 A3008 4570 19 6900 VRB/04 RMK AO2 T02610011                                                               
24015KAKO AKO20190923123010909/23/19 12:30:31  5-MIN KAKO 231930Z AUTO VRB04KT 10SM CLR 27/00 A3008 4570 17 7000 VRB/04 RMK AO2 T02670000                                                               
24015KAKO AKO20190923123510909/23/19 12:35:31  5-MIN KAKO 231935Z AUTO VRB04KT 10SM CLR 27/01 A3007 4580 18 7000 VRB/04 RMK AO2 T02670006                                                               
24015KAKO AKO20190923124511009/23/19 12:45:31  5-MIN KAKO 231945Z AUTO VRB04KT 10SM CLR 27/M01 A3007 4580 16 7000 VRB/04 RMK AO2 T02671011                                                              
24015KAKO AKO20190923125011709/23/19 12:50:31  5-MIN KAKO 231950Z AUTO 00000KT 10SM CLR 27/M01 A3007 4580 16 7000 000/00 RMK AO2 SLP131 T02671011                                                       
24015KAKO AKO20190923130511009/23/19 13:05:31  5-MIN KAKO 232005Z AUTO 00000KT 10SM CLR 27/M01 A3006 4590 16 7000 000/00 RMK AO2 T02671011                                                              
24015KAKO AKO20190923131511009/23/19 13:15:31  5-MIN KAKO 232015Z AUTO 00000KT 10SM CLR 27/M01 A3006 4590 16 7000 000/00 RMK AO2 T02671011                                                              
24015KAKO AKO20190923132511009/23/19 13:25:31  5-MIN KAKO 232025Z AUTO VRB03KT 10SM CLR 28/M01 A3006 4590 15 7100 VRB/03 RMK AO2 T02781011                                                              
24015KAKO AKO20190923134010909/23/19 13:40:31  5-MIN KAKO 232040Z AUTO VRB03KT 10SM CLR 27/00 A3006 4590 16 7000 VRB/03 RMK AO2 T02720000                                                               
24015KAKO AKO20190923134510909/23/19 13:45:31  5-MIN KAKO 232045Z AUTO 00000KT 10SM CLR 27/00 A3005 4600 16 7000 000/00 RMK AO2 T02720000                                                               
24015KAKO AKO20190923140010909/23/19 14:00:31  5-MIN KAKO 232100Z AUTO VRB06KT 10SM CLR 28/00 A3005 4600 16 7100 VRB/06 RMK AO2 T02780000                                                               
24015KAKO AKO20190924144511809/24/19 14:45:31  5-MIN KAKO 242145Z AUTO VRB04G16KT 10SM CLR 29/M03 A2993 4710 12 7400 VRB/04G16 RMK AO2 T02941028 $                                                      
24015KAKO AKO20190925022511109/25/19 02:25:31  5-MIN KAKO 250925Z AUTO VRB04KT 10SM CLR 16/03 A2998 4670 40 5900 VRB/04 RMK AO2 T01610028 $                                                             
24015KAKO AKO20190925031011109/25/19 03:10:31  5-MIN KAKO 251010Z AUTO VRB04KT 10SM CLR 12/02 A2998 4660 50 5400 VRB/04 RMK AO2 T01170017 $                                                             
24015KAKO AKO20190925083510909/25/19 08:35:31  5-MIN KAKO 251535Z AUTO VRB04KT 10SM CLR 16/06 A3007 4590 51 5800 VRB/04 RMK AO2 T01610061                                                               
24015KAKO AKO20190925092510909/25/19 09:25:31  5-MIN KAKO 251625Z AUTO VRB06KT 10SM CLR 18/05 A3007 4580 42 6000 VRB/06 RMK AO2 T01780050                                                               
24015KAKO AKO20190925093010909/25/19 09:30:31  5-MIN KAKO 251630Z AUTO VRB06KT 10SM CLR 18/05 A3007 4580 42 6000 VRB/06 RMK AO2 T01780050                                                               
24015KAKO AKO20190925093510909/25/19 09:35:31  5-MIN KAKO 251635Z AUTO VRB05KT 10SM CLR 18/05 A3007 4580 41 6000 VRB/05 RMK AO2 T01830050                                                               
24015KAKO AKO20190925095510909/25/19 09:55:31  5-MIN KAKO 251655Z AUTO VRB04KT 10SM CLR 19/05 A3007 4580 39 6100 VRB/04 RMK AO2 T01890050                                                               
24015KAKO AKO20190925102510909/25/19 10:25:31  5-MIN KAKO 251725Z AUTO VRB06KT 10SM CLR 20/06 A3005 4600 40 6300 VRB/06 RMK AO2 T02000061                                                               
24015KAKO AKO20190925111010909/25/19 11:10:31  5-MIN KAKO 251810Z AUTO VRB04KT 10SM CLR 22/06 A3003 4620 36 6500 VRB/04 RMK AO2 T02170061                                                               
24015KAKO AKO20190925115012209/25/19 11:50:31  5-MIN KAKO 251850Z AUTO VRB06G15KT 10SM CLR 22/07 A3002 4630 37 6500 VRB/06G15 RMK AO2 SLP115 T02220072                                                  
24015KAKO AKO20190925121510909/25/19 12:15:31  5-MIN KAKO 251915Z AUTO VRB06KT 10SM CLR 23/07 A3001 4640 35 6600 VRB/06 RMK AO2 T02280067                                                               
24015KAKO AKO20190927073510909/27/19 07:35:31  5-MIN KAKO 271435Z AUTO VRB03KT 10SM CLR 12/05 A2989 4740 63 5500 VRB/03 RMK AO2 T01170050                                                               
24015KAKO AKO20190927074010909/27/19 07:40:31  5-MIN KAKO 271440Z AUTO VRB03KT 10SM CLR 12/05 A2990 4740 63 5500 VRB/03 RMK AO2 T01170050                                                               
24015KAKO AKO20190927074510909/27/19 07:45:31  5-MIN KAKO 271445Z AUTO VRB03KT 10SM CLR 12/05 A2990 4740 61 5500 VRB/03 RMK AO2 T01220050                                                               
24015KAKO AKO20190927080010909/27/19 08:00:31  5-MIN KAKO 271500Z AUTO VRB03KT 10SM CLR 13/04 A2990 4730 54 5700 VRB/03 RMK AO2 T01330044                                                               
24015KAKO AKO20190927080510909/27/19 08:05:31  5-MIN KAKO 271505Z AUTO 00000KT 10SM CLR 13/04 A2990 4730 56 5600 000/00 RMK AO2 T01280044                                                               
24015KAKO AKO20190927082010909/27/19 08:20:31  5-MIN KAKO 271520Z AUTO 00000KT 10SM CLR 13/04 A2990 4740 56 5600 000/00 RMK AO2 T01280044                                                               
24015KAKO AKO20190927082510909/27/19 08:25:31  5-MIN KAKO 271525Z AUTO 00000KT 10SM CLR 13/04 A2990 4740 54 5700 000/00 RMK AO2 T01330044                                                               
24015KAKO AKO20190927083010909/27/19 08:30:31  5-MIN KAKO 271530Z AUTO VRB03KT 10SM CLR 14/04 A2990 4730 51 5800 VRB/03 RMK AO2 T01440044                                                               
24015KAKO AKO20190927083510909/27/19 08:35:31  5-MIN KAKO 271535Z AUTO VRB03KT 10SM CLR 14/04 A2990 4730 51 5800 VRB/03 RMK AO2 T01440044                                                               
24015KAKO AKO20190927084010909/27/19 08:40:31  5-MIN KAKO 271540Z AUTO VRB04KT 10SM CLR 15/04 A2991 4730 49 5900 VRB/04 RMK AO2 T01500044                                                               
24015KAKO AKO20190927085011609/27/19 08:50:31  5-MIN KAKO 271550Z AUTO VRB03KT 10SM CLR 14/04 A2991 4730 51 5800 VRB/03 RMK AO2 SLP082 T01440044                                                        
24015KAKO AKO20190927090010909/27/19 09:00:31  5-MIN KAKO 271600Z AUTO VRB03KT 10SM CLR 15/04 A2991 4730 47 5900 VRB/03 RMK AO2 T01500039                                                               
24015KAKO AKO20190927090510909/27/19 09:05:31  5-MIN KAKO 271605Z AUTO VRB05KT 10SM CLR 16/04 A2991 4730 45 5900 VRB/05 RMK AO2 T01560039                                                               
24015KAKO AKO20190927092010909/27/19 09:20:31  5-MIN KAKO 271620Z AUTO VRB06KT 10SM CLR 16/03 A2991 4730 43 5900 VRB/06 RMK AO2 T01560033                                                               
24015KAKO AKO20190927093510909/27/19 09:35:31  5-MIN KAKO 271635Z AUTO VRB05KT 10SM CLR 16/03 A2990 4740 40 6000 VRB/05 RMK AO2 T01610028                                                               
24015KAKO AKO20190927095011609/27/19 09:50:31  5-MIN KAKO 271650Z AUTO VRB04KT 10SM CLR 16/03 A2990 4740 42 6000 VRB/04 RMK AO2 SLP075 T01610033                                                        
24015KAKO AKO20190930061010909/30/19 06:10:31  5-MIN KAKO 301310Z AUTO VRB03KT 10SM CLR 11/06 A2983 4810 74 5400 VRB/03 RMK AO2 T01060061                                                               
24015KAKO AKO20190930095510909/30/19 09:55:31  5-MIN KAKO 301655Z AUTO VRB05KT 10SM CLR 20/09 A2987 4770 48 6500 VRB/05 RMK AO2 T02000089                                                               
24015KAKO AKO20190930101010909/30/19 10:10:31  5-MIN KAKO 301710Z AUTO 00000KT 10SM CLR 21/08 A2987 4760 45 6500 000/00 RMK AO2 T02060083                                                               
24015KAKO AKO20190930101510909/30/19 10:15:31  5-MIN KAKO 301715Z AUTO VRB05KT 10SM CLR 21/08 A2987 4760 43 6500 VRB/05 RMK AO2 T02060078                                                               
24015KAKO AKO20190930102510909/30/19 10:25:31  5-MIN KAKO 301725Z AUTO VRB03KT 10SM CLR 21/08 A2987 4760 43 6500 VRB/03 RMK AO2 T02060078                                                               
24015KAKO AKO20190930105013409/30/19 10:50:31  5-MIN KAKO 301750Z AUTO VRB06KT 10SM CLR 22/08 A2987 4760 40 6600 VRB/06 RMK AO2 SLP061 T02170078 10217 20100 51018                                      
24015KAKO AKO20190930112510909/30/19 11:25:31  5-MIN KAKO 301825Z AUTO VRB06KT 10SM CLR 24/08 A2986 4780 36 6900 VRB/06 RMK AO2 T02390083                                                               
24015KAKO AKO20190930120010909/30/19 12:00:31  5-MIN KAKO 301900Z AUTO VRB04KT 10SM CLR 23/07 A2985 4780 35 6900 VRB/04 RMK AO2 T02330072                                                               
24015KAKO AKO20190930120510909/30/19 12:05:31  5-MIN KAKO 301905Z AUTO VRB05KT 10SM CLR 24/07 A2985 4790 32 6900 VRB/05 RMK AO2 T02390067                                                               
24015KAKO AKO20191002083513110/02/19 08:35:31  5-MIN KAKO 021535Z AUTO 00000KT 10SM BKN007 OVC038 05/04 A3007 4580 92 4500 000/00 RMK AO2 CIG 003V011 T00500039                                         
24015KAKO AKO20191002084013110/02/19 08:40:31  5-MIN KAKO 021540Z AUTO 00000KT 10SM BKN007 OVC038 06/04 A3007 4580 89 4600 000/00 RMK AO2 CIG 003V011 T00560039                                         
24015KAKO AKO20191002085013810/02/19 08:50:31  5-MIN KAKO 021550Z AUTO 00000KT 10SM BKN007 OVC013 06/04 A3007 4580 89 4600 000/00 RMK AO2 CIG 006V010 SLP183 T00560039                                  
24015KAKO AKO20191002085512410/02/19 08:55:31  5-MIN KAKO 021555Z AUTO 00000KT 10SM OVC008 06/04 A3007 4580 89 4600 000/00 RMK AO2 CIG 006V012 T00610044                                                
24015KAKO AKO20191002090012410/02/19 09:00:31  5-MIN KAKO 021600Z AUTO VRB03KT 10SM OVC008 06/04 A3007 4580 89 4600 VRB/03 RMK AO2 CIG 007V011 T00610044                                                
24015KAKO AKO20191002090511210/02/19 09:05:31  5-MIN KAKO 021605Z AUTO 00000KT 10SM OVC008 06/04 A3007 4580 89 4600 000/00 RMK AO2 T00610044                                                            
24015KAKO AKO20191002091012410/02/19 09:10:31  5-MIN KAKO 021610Z AUTO 00000KT 10SM OVC009 06/04 A3007 4580 89 4600 000/00 RMK AO2 CIG 007V013 T00610044                                                
24015KAKO AKO20191002091512410/02/19 09:15:31  5-MIN KAKO 021615Z AUTO 00000KT 10SM OVC009 06/04 A3007 4580 89 4600 000/00 RMK AO2 CIG 007V012 T00610044                                                
24015KAKO AKO20191002092512410/02/19 09:25:31  5-MIN KAKO 021625Z AUTO VRB03KT 10SM OVC010 07/05 A3008 4570 89 4700 VRB/03 RMK AO2 CIG 008V013 T00670050                                                
24015KAKO AKO20191002094511210/02/19 09:45:31  5-MIN KAKO 021645Z AUTO 00000KT 10SM OVC010 07/04 A3008 4580 86 4700 000/00 RMK AO2 T00670044                                                            
24015KAKO AKO20191002095011910/02/19 09:50:31  5-MIN KAKO 021650Z AUTO VRB03KT 10SM OVC010 07/04 A3008 4570 86 4700 VRB/03 RMK AO2 SLP183 T00670044                                                     
24015KAKO AKO20191002102011210/02/19 10:20:31  5-MIN KAKO 021720Z AUTO 00000KT 10SM OVC010 07/04 A3007 4580 86 4700 000/00 RMK AO2 T00670044                                                            
24015KAKO AKO20191002103011210/02/19 10:30:31  5-MIN KAKO 021730Z AUTO VRB03KT 10SM OVC010 07/05 A3007 4580 86 4800 VRB/03 RMK AO2 T00720050                                                            
24015KAKO AKO20191002103511210/02/19 10:35:31  5-MIN KAKO 021735Z AUTO VRB04KT 10SM OVC011 08/05 A3007 4580 82 4800 VRB/04 RMK AO2 T00780050                                                            
24015KAKO AKO20191002104511210/02/19 10:45:31  5-MIN KAKO 021745Z AUTO VRB03KT 10SM OVC011 08/05 A3007 4580 82 4800 VRB/03 RMK AO2 T00780050                                                            
24015KAKO AKO20191002105013710/02/19 10:50:31  5-MIN KAKO 021750Z AUTO VRB03KT 10SM OVC011 08/05 A3007 4580 82 4800 VRB/03 RMK AO2 SLP178 T00780050 10078 20039 53012                                   
24015KAKO AKO20191002105511210/02/19 10:55:31  5-MIN KAKO 021755Z AUTO VRB03KT 10SM OVC012 08/05 A3007 4580 79 4900 VRB/03 RMK AO2 T00830050                                                            
24015KAKO AKO20191002110011210/02/19 11:00:31  5-MIN KAKO 021800Z AUTO VRB03KT 10SM OVC012 08/06 A3007 4590 86 4800 VRB/03 RMK AO2 T00780056                                                            
24015KAKO AKO20191002110511210/02/19 11:05:31  5-MIN KAKO 021805Z AUTO 00000KT 10SM OVC012 08/06 A3006 4590 86 4800 000/00 RMK AO2 T00780056                                                            
24015KAKO AKO20191002111011210/02/19 11:10:31  5-MIN KAKO 021810Z AUTO 00000KT 10SM OVC012 08/06 A3006 4590 82 4900 000/00 RMK AO2 T00830056                                                            
24015KAKO AKO20191002111511210/02/19 11:15:31  5-MIN KAKO 021815Z AUTO 00000KT 10SM OVC012 08/06 A3007 4580 82 4900 000/00 RMK AO2 T00830056                                                            
24015KAKO AKO20191002112011210/02/19 11:20:31  5-MIN KAKO 021820Z AUTO 00000KT 10SM OVC013 08/06 A3006 4590 86 4800 000/00 RMK AO2 T00780056                                                            
24015KAKO AKO20191002112511210/02/19 11:25:31  5-MIN KAKO 021825Z AUTO VRB03KT 10SM OVC013 08/06 A3006 4590 82 4900 VRB/03 RMK AO2 T00830056                                                            
24015KAKO AKO20191002113011210/02/19 11:30:31  5-MIN KAKO 021830Z AUTO VRB03KT 10SM OVC013 09/06 A3006 4590 79 5000 VRB/03 RMK AO2 T00890056                                                            
24015KAKO AKO20191002114011210/02/19 11:40:31  5-MIN KAKO 021840Z AUTO 00000KT 10SM OVC014 10/06 A3005 4600 77 5100 000/00 RMK AO2 T01000061                                                            
24015KAKO AKO20191002114511210/02/19 11:45:31  5-MIN KAKO 021845Z AUTO VRB03KT 10SM OVC014 09/06 A3005 4600 79 5100 VRB/03 RMK AO2 T00940061                                                            
24015KAKO AKO20191002115011910/02/19 11:50:31  5-MIN KAKO 021850Z AUTO VRB03KT 10SM OVC014 09/06 A3005 4600 79 5100 VRB/03 RMK AO2 SLP167 T00940061                                                     
24015KAKO AKO20191002115511210/02/19 11:55:31  5-MIN KAKO 021855Z AUTO VRB03KT 10SM OVC015 09/06 A3004 4610 83 5000 VRB/03 RMK AO2 T00890061                                                            
24015KAKO AKO20191002120011210/02/19 12:00:31  5-MIN KAKO 021900Z AUTO 00000KT 10SM OVC015 09/06 A3004 4610 79 5100 000/00 RMK AO2 T00940061                                                            
24015KAKO AKO20191002123511210/02/19 12:35:31  5-MIN KAKO 021935Z AUTO 00000KT 10SM BKN017 11/06 A3003 4620 71 5300 000/00 RMK AO2 T01110061                                                            
24015KAKO AKO20191002124011210/02/19 12:40:31  5-MIN KAKO 021940Z AUTO 00000KT 10SM BKN017 11/07 A3003 4620 74 5300 000/00 RMK AO2 T01110067                                                            
24015KAKO AKO20191002124511210/02/19 12:45:31  5-MIN KAKO 021945Z AUTO VRB04KT 10SM SCT017 11/07 A3003 4620 74 5300 VRB/04 RMK AO2 T01110067                                                            
24015KAKO AKO20191002125511210/02/19 12:55:31  5-MIN KAKO 021955Z AUTO VRB03KT 10SM FEW018 11/06 A3002 4620 71 5300 VRB/03 RMK AO2 T01110061                                                            
24015KAKO AKO20191002130511210/02/19 13:05:31  5-MIN KAKO 022005Z AUTO VRB03KT 10SM FEW022 13/07 A3002 4620 66 5500 VRB/03 RMK AO2 T01280067                                                            
24015KAKO AKO20191002131011210/02/19 13:10:31  5-MIN KAKO 022010Z AUTO 00000KT 10SM FEW022 12/07 A3002 4630 68 5400 000/00 RMK AO2 T01220067                                                            
24015KAKO AKO20191002131511210/02/19 13:15:31  5-MIN KAKO 022015Z AUTO 00000KT 10SM FEW022 13/07 A3002 4630 66 5500 000/00 RMK AO2 T01280067                                                            
24015KAKO AKO20191002132011210/02/19 13:20:31  5-MIN KAKO 022020Z AUTO VRB03KT 10SM FEW022 13/07 A3002 4620 64 5500 VRB/03 RMK AO2 T01330067                                                            
24015KAKO AKO20191002132511210/02/19 13:25:31  5-MIN KAKO 022025Z AUTO VRB04KT 10SM FEW022 13/07 A3002 4620 66 5500 VRB/04 RMK AO2 T01280067                                                            
24015KAKO AKO20191002133510910/02/19 13:35:31  5-MIN KAKO 022035Z AUTO VRB03KT 10SM CLR 13/07 A3002 4620 66 5500 VRB/03 RMK AO2 T01280067                                                               
24015KAKO AKO20191002134010910/02/19 13:40:31  5-MIN KAKO 022040Z AUTO 00000KT 10SM CLR 13/07 A3002 4620 66 5500 000/00 RMK AO2 T01280067                                                               
24015KAKO AKO20191002134510910/02/19 13:45:31  5-MIN KAKO 022045Z AUTO VRB03KT 10SM CLR 13/07 A3002 4620 66 5500 VRB/03 RMK AO2 T01280067                                                               
24015KAKO AKO20191002135012210/02/19 13:50:31  5-MIN KAKO 022050Z AUTO 00000KT 10SM CLR 13/07 A3002 4620 66 5500 000/00 RMK AO2 SLP154 T01280067 50000                                                  
24015KAKO AKO20191002140510910/02/19 14:05:31  5-MIN KAKO 022105Z AUTO 00000KT 10SM CLR 13/07 A3002 4630 64 5500 000/00 RMK AO2 T01330067                                                               
24015KAKO AKO20191002141510910/02/19 14:15:31  5-MIN KAKO 022115Z AUTO VRB05KT 10SM CLR 14/07 A3002 4620 61 5600 VRB/05 RMK AO2 T01390067                                                               
24015KAKO AKO20191002142010910/02/19 14:20:31  5-MIN KAKO 022120Z AUTO VRB03KT 10SM CLR 13/06 A3002 4620 61 5500 VRB/03 RMK AO2 T01330061                                                               
24015KAKO AKO20191002143010910/02/19 14:30:31  5-MIN KAKO 022130Z AUTO VRB03KT 10SM CLR 14/06 A3003 4620 59 5600 VRB/03 RMK AO2 T01390061                                                               
24015KAKO AKO20191002145510910/02/19 14:55:31  5-MIN KAKO 022155Z AUTO 00000KT 10SM CLR 14/06 A3003 4620 57 5700 000/00 RMK AO2 T01440061                                                               
24015KAKO AKO20191002152010910/02/19 15:20:31  5-MIN KAKO 022220Z AUTO 00000KT 10SM CLR 14/06 A3003 4620 57 5700 000/00 RMK AO2 T01440061                                                               
24015KAKO AKO20191002152510910/02/19 15:25:31  5-MIN KAKO 022225Z AUTO VRB04KT 10SM CLR 15/06 A3003 4620 55 5700 VRB/04 RMK AO2 T01500061                                                               
24015KAKO AKO20191002153010910/02/19 15:30:31  5-MIN KAKO 022230Z AUTO VRB04KT 10SM CLR 16/06 A3003 4620 53 5800 VRB/04 RMK AO2 T01560061                                                               
24015KAKO AKO20191002153510910/02/19 15:35:31  5-MIN KAKO 022235Z AUTO VRB04KT 10SM CLR 16/06 A3003 4610 53 5800 VRB/04 RMK AO2 T01560061                                                               
24015KAKO AKO20191003000011610/03/19 00:00:31  5-MIN KAKO 030700Z AUTO 00000KT 5SM BR FEW049 03/02 A3025 4410 92 4000 000/00 RMK AO2 T00280017 $                                                        
24015KAKO AKO20191003000511610/03/19 00:05:31  5-MIN KAKO 030705Z AUTO 00000KT 4SM BR FEW049 02/01 A3025 4420 92 4000 000/00 RMK AO2 T00220011 $                                                        
24015KAKO AKO20191003001011610/03/19 00:10:31  5-MIN KAKO 030710Z AUTO VRB03KT 6SM BR FEW049 02/02 A3025 4420 96 4000 VRB/03 RMK AO2 T00220017 $                                                        
24015KAKO AKO20191003023011310/03/19 02:30:31  5-MIN KAKO 030930Z AUTO 00000KT 9SM OVC045 03/02 A3027 4400 92 4000 000/00 RMK AO2 T00280017 $                                                           
24015KAKO AKO20191003030011410/03/19 03:00:31  5-MIN KAKO 031000Z AUTO 00000KT 10SM FEW044 03/01 A3026 4410 85 4100 000/00 RMK AO2 T00330011 $                                                          
24015KAKO AKO20191003032011110/03/19 03:20:31  5-MIN KAKO 031020Z AUTO 00000KT 10SM CLR 03/01 A3027 4400 85 4100 000/00 RMK AO2 T00330011 $                                                             
24015KAKO AKO20191003032511410/03/19 03:25:31  5-MIN KAKO 031025Z AUTO 00000KT 10SM FEW046 03/01 A3027 4400 85 4100 000/00 RMK AO2 T00330011 $                                                          
24015KAKO AKO20191003033011410/03/19 03:30:31  5-MIN KAKO 031030Z AUTO 00000KT 10SM FEW046 03/01 A3027 4400 85 4100 000/00 RMK AO2 T00330011 $                                                          
24015KAKO AKO20191003033511410/03/19 03:35:31  5-MIN KAKO 031035Z AUTO 00000KT 10SM FEW046 04/01 A3027 4400 82 4100 000/00 RMK AO2 T00390011 $                                                          
24015KAKO AKO20191003034011410/03/19 03:40:31  5-MIN KAKO 031040Z AUTO 00000KT 10SM FEW046 04/01 A3027 4390 82 4100 000/00 RMK AO2 T00390011 $                                                          
24015KAKO AKO20191003034511410/03/19 03:45:31  5-MIN KAKO 031045Z AUTO 00000KT 10SM FEW046 02/00 A3028 4390 89 3900 000/00 RMK AO2 T00170000 $                                                          
24015KAKO AKO20191003035012110/03/19 03:50:31  5-MIN KAKO 031050Z AUTO 00000KT 10SM SCT046 03/01 A3028 4390 85 4000 000/00 RMK AO2 SLP242 T00280006 $                                                   
24015KAKO AKO20191003035511410/03/19 03:55:31  5-MIN KAKO 031055Z AUTO 00000KT 10SM FEW045 03/01 A3028 4390 85 4000 000/00 RMK AO2 T00280006 $                                                          
24015KAKO AKO20191003040011410/03/19 04:00:31  5-MIN KAKO 031100Z AUTO 00000KT 10SM FEW045 03/01 A3028 4390 82 4100 000/00 RMK AO2 T00330006 $                                                          
24015KAKO AKO20191003040511410/03/19 04:05:31  5-MIN KAKO 031105Z AUTO 00000KT 10SM FEW045 03/01 A3028 4390 82 4100 000/00 RMK AO2 T00330006 $                                                          
24015KAKO AKO20191003041011410/03/19 04:10:31  5-MIN KAKO 031110Z AUTO 00000KT 10SM BKN045 03/01 A3029 4380 85 4100 000/00 RMK AO2 T00330011 $                                                          
24015KAKO AKO20191003041511410/03/19 04:15:31  5-MIN KAKO 031115Z AUTO 00000KT 10SM BKN045 03/01 A3029 4380 85 4100 000/00 RMK AO2 T00330011 $                                                          
24015KAKO AKO20191003043011410/03/19 04:30:31  5-MIN KAKO 031130Z AUTO 00000KT 10SM OVC045 01/00 A3029 4380 92 3800 000/00 RMK AO2 T00110000 $                                                          
24015KAKO AKO20191003043511510/03/19 04:35:31  5-MIN KAKO 031135Z AUTO 00000KT 10SM OVC045 01/M01 A3029 4380 92 3700 000/00 RMK AO2 T00061006 $                                                         
24015KAKO AKO20191003044011510/03/19 04:40:31  5-MIN KAKO 031140Z AUTO 00000KT 10SM OVC045 01/M01 A3029 4380 89 3800 000/00 RMK AO2 T00111006 $                                                         
24015KAKO AKO20191003044511410/03/19 04:45:31  5-MIN KAKO 031145Z AUTO 00000KT 10SM OVC045 02/00 A3029 4380 89 3900 000/00 RMK AO2 T00170000 $                                                          
24015KAKO AKO20191003045013910/03/19 04:50:31  5-MIN KAKO 031150Z AUTO 00000KT 10SM OVC045 03/01 A3029 4370 85 4000 000/00 RMK AO2 SLP251 T00280006 10056 20006 51004 $                                 
24015KAKO AKO20191003045511410/03/19 04:55:31  5-MIN KAKO 031155Z AUTO 00000KT 10SM OVC045 02/00 A3030 4370 89 3900 000/00 RMK AO2 T00170000 $                                                          
24015KAKO AKO20191003050011410/03/19 05:00:31  5-MIN KAKO 031200Z AUTO 00000KT 10SM OVC045 02/00 A3030 4370 89 3800 000/00 RMK AO2 T00170000 $                                                          
24015KAKO AKO20191003050511410/03/19 05:05:31  5-MIN KAKO 031205Z AUTO 00000KT 10SM OVC044 04/01 A3030 4370 79 4100 000/00 RMK AO2 T00390006 $                                                          
24015KAKO AKO20191003054511210/03/19 05:45:31  5-MIN KAKO 031245Z AUTO 00000KT 10SM OVC043 05/01 A3032 4360 76 4200 000/00 RMK AO2 T00500011                                                            
24015KAKO AKO20191005141511210/05/19 14:15:31  5-MIN KAKO 052115Z AUTO VRB06KT 10SM CLR 17/M07 A3009 4570 18 5900 VRB/06 RMK AO2 T01721072 $                                                            
24015KAKO AKO20191005151511210/05/19 15:15:31  5-MIN KAKO 052215Z AUTO VRB04KT 10SM CLR 17/M08 A3008 4580 17 5900 VRB/04 RMK AO2 T01721078 $                                                            
24015KAKO AKO20191005153011210/05/19 15:30:31  5-MIN KAKO 052230Z AUTO 00000KT 10SM CLR 17/M08 A3007 4580 16 5900 000/00 RMK AO2 T01721083 $                                                            
24015KAKO AKO20191005153511210/05/19 15:35:31  5-MIN KAKO 052235Z AUTO 00000KT 10SM CLR 17/M08 A3007 4580 16 5900 000/00 RMK AO2 T01721083 $                                                            
24015KAKO AKO20191005154511210/05/19 15:45:31  5-MIN KAKO 052245Z AUTO VRB04KT 10SM CLR 17/M08 A3007 4580 16 5900 VRB/04 RMK AO2 T01721083 $                                                            
24015KAKO AKO20191005160011210/05/19 16:00:31  5-MIN KAKO 052300Z AUTO VRB05KT 10SM CLR 17/M08 A3007 4580 17 5900 VRB/05 RMK AO2 T01671083 $                                                            
24015KAKO AKO20191005161011210/05/19 16:10:31  5-MIN KAKO 052310Z AUTO VRB03KT 10SM CLR 17/M08 A3007 4580 17 5900 VRB/03 RMK AO2 T01671083 $                                                            
24015KAKO AKO20191005162011210/05/19 16:20:31  5-MIN KAKO 052320Z AUTO VRB04KT 10SM CLR 17/M08 A3007 4580 17 5900 VRB/04 RMK AO2 T01671083 $                                                            
24015KAKO AKO20191006033011510/06/19 03:30:31  5-MIN KAKO 061030Z AUTO 00000KT 10SM BKN120 07/M02 A3019 4470 53 4600 000/00 RMK AO2 T00721017 $                                                         
24015KAKO AKO20191006033511510/06/19 03:35:31  5-MIN KAKO 061035Z AUTO 00000KT 10SM BKN120 07/M02 A3020 4470 53 4600 000/00 RMK AO2 T00721017 $                                                         
24015KAKO AKO20191006110011810/06/19 11:00:31  5-MIN KAKO 061800Z AUTO VRB05G19KT 10SM CLR 14/M03 A3037 4300 30 5200 VRB/05G19 RMK AO2 T01391033 $                                                      
24015KAKO AKO20191006160011210/06/19 16:00:31  5-MIN KAKO 062300Z AUTO VRB06KT 10SM CLR 15/M09 A3030 4370 17 5400 VRB/06 RMK AO2 T01501094 $                                                            
24015KAKO AKO20191006162011210/06/19 16:20:31  5-MIN KAKO 062320Z AUTO VRB03KT 10SM CLR 15/M09 A3030 4370 18 5400 VRB/03 RMK AO2 T01501089 $                                                            
24015KAKO AKO20191006162511210/06/19 16:25:31  5-MIN KAKO 062325Z AUTO 00000KT 10SM CLR 15/M09 A3030 4370 17 5400 000/00 RMK AO2 T01501094 $                                                            
24015KAKO AKO20191006163011210/06/19 16:30:31  5-MIN KAKO 062330Z AUTO 00000KT 10SM CLR 14/M09 A3030 4370 18 5400 000/00 RMK AO2 T01441094 $                                                            
24015KAKO AKO20191006163511210/06/19 16:35:31  5-MIN KAKO 062335Z AUTO 00000KT 10SM CLR 15/M09 A3030 4370 18 5400 000/00 RMK AO2 T01501089 $                                                            
24015KAKO AKO20191006164011210/06/19 16:40:31  5-MIN KAKO 062340Z AUTO 00000KT 10SM CLR 15/M09 A3030 4370 18 5400 000/00 RMK AO2 T01501089 $                                                            
24015KAKO AKO20191006164511210/06/19 16:45:31  5-MIN KAKO 062345Z AUTO 00000KT 10SM CLR 15/M09 A3030 4370 17 5400 000/00 RMK AO2 T01501094 $                                                            
24015KAKO AKO20191006165013110/06/19 16:50:31  5-MIN KAKO 062350Z AUTO 00000KT 10SM CLR 14/M09 A3030 4370 18 5400 000/00 RMK AO2 SLP240 T01441094 10161 20133 $                                         
24015KAKO AKO20191006165511210/06/19 16:55:31  5-MIN KAKO 062355Z AUTO 00000KT 10SM CLR 14/M09 A3030 4370 18 5400 000/00 RMK AO2 T01441094 $                                                            
24015KAKO AKO20191006170011210/06/19 17:00:31  5-MIN KAKO 070000Z AUTO 00000KT 10SM CLR 14/M09 A3030 4370 18 5400 000/00 RMK AO2 T01441094 $                                                            
24015KAKO AKO20191006170511210/06/19 17:05:31  5-MIN KAKO 070005Z AUTO 00000KT 10SM CLR 14/M09 A3030 4370 19 5300 000/00 RMK AO2 T01391094 $                                                            
24015KAKO AKO20191006173011210/06/19 17:30:31  5-MIN KAKO 070030Z AUTO 00000KT 10SM CLR 13/M09 A3030 4370 21 5200 000/00 RMK AO2 T01281089 $                                                            
24015KAKO AKO20191007094011010/07/19 09:40:31  5-MIN KAKO 071640Z AUTO VRB06KT 10SM CLR 16/M01 A3024 4420 30 5600 VRB/06 RMK AO2 T01611011                                                              
24015KAKO AKO20191007095511010/07/19 09:55:31  5-MIN KAKO 071655Z AUTO VRB04KT 10SM CLR 16/M02 A3024 4430 29 5600 VRB/04 RMK AO2 T01611017                                                              
24015KAKO AKO20191007100511010/07/19 10:05:31  5-MIN KAKO 071705Z AUTO VRB03KT 10SM CLR 17/M02 A3023 4430 27 5700 VRB/03 RMK AO2 T01671022                                                              
24015KAKO AKO20191007101011010/07/19 10:10:31  5-MIN KAKO 071710Z AUTO VRB03KT 10SM CLR 17/M02 A3023 4430 26 5700 VRB/03 RMK AO2 T01721022                                                              
24015KAKO AKO20191007101511010/07/19 10:15:31  5-MIN KAKO 071715Z AUTO VRB03KT 10SM CLR 17/M03 A3023 4430 25 5700 VRB/03 RMK AO2 T01721028                                                              
24015KAKO AKO20191007102011010/07/19 10:20:31  5-MIN KAKO 071720Z AUTO 00000KT 10SM CLR 18/M03 A3023 4440 24 5800 000/00 RMK AO2 T01781028                                                              
24015KAKO AKO20191007102511010/07/19 10:25:31  5-MIN KAKO 071725Z AUTO 00000KT 10SM CLR 18/M03 A3023 4440 23 5800 000/00 RMK AO2 T01781033                                                              
24015KAKO AKO20191007103511010/07/19 10:35:31  5-MIN KAKO 071735Z AUTO VRB04KT 10SM CLR 18/M03 A3022 4440 24 5800 VRB/04 RMK AO2 T01781028                                                              
24015KAKO AKO20191007104011010/07/19 10:40:31  5-MIN KAKO 071740Z AUTO VRB05KT 10SM CLR 18/M03 A3022 4440 23 5900 VRB/05 RMK AO2 T01831028                                                              
24015KAKO AKO20191007104511010/07/19 10:45:31  5-MIN KAKO 071745Z AUTO VRB05KT 10SM CLR 19/M03 A3022 4450 22 5900 VRB/05 RMK AO2 T01891028                                                              
24015KAKO AKO20191007110011010/07/19 11:00:31  5-MIN KAKO 071800Z AUTO VRB03KT 10SM CLR 19/M03 A3020 4460 22 6000 VRB/03 RMK AO2 T01891033                                                              
24015KAKO AKO20191007112511010/07/19 11:25:31  5-MIN KAKO 071825Z AUTO VRB05KT 10SM CLR 19/M04 A3019 4470 20 6000 VRB/05 RMK AO2 T01941039                                                              
24015KAKO AKO20191007115011710/07/19 11:50:31  5-MIN KAKO 071850Z AUTO VRB05KT 10SM CLR 21/M06 A3017 4490 16 6200 VRB/05 RMK AO2 SLP187 T02061056                                                       
24015KAKO AKO20191007121011010/07/19 12:10:31  5-MIN KAKO 071910Z AUTO VRB06KT 10SM CLR 22/M04 A3016 4500 17 6300 VRB/06 RMK AO2 T02171044                                                              
24015KAKO AKO20191007122011010/07/19 12:20:31  5-MIN KAKO 071920Z AUTO VRB03KT 10SM CLR 22/M05 A3015 4510 16 6300 VRB/03 RMK AO2 T02171050                                                              
24015KAKO AKO20191007123511010/07/19 12:35:31  5-MIN KAKO 071935Z AUTO VRB05KT 10SM CLR 22/M05 A3014 4520 16 6300 VRB/05 RMK AO2 T02171050                                                              
24015KAKO AKO20191007125511010/07/19 12:55:31  5-MIN KAKO 071955Z AUTO VRB03KT 10SM CLR 22/M06 A3012 4530 15 6400 VRB/03 RMK AO2 T02171061                                                              
24015KAKO AKO20191007130011010/07/19 13:00:31  5-MIN KAKO 072000Z AUTO VRB05KT 10SM CLR 22/M06 A3012 4540 15 6400 VRB/05 RMK AO2 T02221056                                                              
24015KAKO AKO20191007133511010/07/19 13:35:31  5-MIN KAKO 072035Z AUTO VRB04KT 10SM CLR 22/M06 A3010 4550 14 6400 VRB/04 RMK AO2 T02221061                                                              
24015KAKO AKO20191007142011010/07/19 14:20:31  5-MIN KAKO 072120Z AUTO 00000KT 10SM CLR 23/M08 A3008 4570 11 6600 000/00 RMK AO2 T02331083                                                              
24015KAKO AKO20191007143511010/07/19 14:35:31  5-MIN KAKO 072135Z AUTO VRB05KT 10SM CLR 23/M08 A3008 4580 12 6600 VRB/05 RMK AO2 T02331078                                                              
24015KAKO AKO20191007144011010/07/19 14:40:31  5-MIN KAKO 072140Z AUTO VRB04KT 10SM CLR 23/M08 A3007 4580 11 6600 VRB/04 RMK AO2 T02331083                                                              
24015KAKO AKO20191007153511010/07/19 15:35:31  5-MIN KAKO 072235Z AUTO 00000KT 10SM CLR 23/M08 A3006 4590 11 6600 000/00 RMK AO2 T02331083                                                              
24015KAKO AKO20191007154011010/07/19 15:40:31  5-MIN KAKO 072240Z AUTO 00000KT 10SM CLR 24/M09 A3006 4590 10 6700 000/00 RMK AO2 T02391089                                                              
24015KAKO AKO20191008101011010/08/19 10:10:31  5-MIN KAKO 081710Z AUTO VRB04KT 10SM CLR 21/M09 A2990 4740 12 6600 VRB/04 RMK AO2 T02111094                                                              
24015KAKO AKO20191008102011010/08/19 10:20:31  5-MIN KAKO 081720Z AUTO VRB04KT 10SM CLR 22/M09 A2989 4750 11 6700 VRB/04 RMK AO2 T02221094                                                              
24015KAKO AKO20191008122511010/08/19 12:25:31  5-MIN KAKO 081925Z AUTO VRB05KT 10SM CLR 26/M12 A2984 4790 07 7100 VRB/05 RMK AO2 T02561117                                                              
24015KAKO AKO20191008125011710/08/19 12:50:31  5-MIN KAKO 081950Z AUTO VRB03KT 10SM CLR 26/M11 A2983 4810 08 7100 VRB/03 RMK AO2 SLP050 T02561111                                                       
24015KAKO AKO20191008125511010/08/19 12:55:31  5-MIN KAKO 081955Z AUTO VRB04KT 10SM CLR 26/M11 A2983 4810 08 7100 VRB/04 RMK AO2 T02561111                                                              
24015KAKO AKO20191008130011010/08/19 13:00:31  5-MIN KAKO 082000Z AUTO VRB03KT 10SM CLR 26/M12 A2983 4810 07 7100 VRB/03 RMK AO2 T02561117                                                              
24015KAKO AKO20191008130511010/08/19 13:05:31  5-MIN KAKO 082005Z AUTO VRB04KT 10SM CLR 25/M12 A2983 4810 08 7100 VRB/04 RMK AO2 T02501117                                                              
24015KAKO AKO20191008131011010/08/19 13:10:31  5-MIN KAKO 082010Z AUTO VRB04KT 10SM CLR 25/M12 A2982 4810 08 7100 VRB/04 RMK AO2 T02501117                                                              
24015KAKO AKO20191008131511010/08/19 13:15:31  5-MIN KAKO 082015Z AUTO VRB03KT 10SM CLR 26/M12 A2982 4810 07 7100 VRB/03 RMK AO2 T02561117                                                              
24015KAKO AKO20191008132511010/08/19 13:25:31  5-MIN KAKO 082025Z AUTO VRB03KT 10SM CLR 26/M12 A2982 4810 07 7100 VRB/03 RMK AO2 T02561122                                                              
24015KAKO AKO20191008133511010/08/19 13:35:31  5-MIN KAKO 082035Z AUTO 00000KT 10SM CLR 27/M12 A2982 4810 07 7200 000/00 RMK AO2 T02671122                                                              
24015KAKO AKO20191008135012310/08/19 13:50:31  5-MIN KAKO 082050Z AUTO VRB03KT 10SM CLR 26/M12 A2982 4810 07 7200 VRB/03 RMK AO2 SLP047 T02611122 58006                                                 
24015KAKO AKO20191008140011010/08/19 14:00:31  5-MIN KAKO 082100Z AUTO 00000KT 10SM CLR 26/M13 A2982 4820 07 7200 000/00 RMK AO2 T02611128                                                              
24015KAKO AKO20191008141011010/08/19 14:10:31  5-MIN KAKO 082110Z AUTO VRB04KT 10SM CLR 26/M13 A2981 4820 06 7200 VRB/04 RMK AO2 T02611133                                                              
24015KAKO AKO20191008141511010/08/19 14:15:31  5-MIN KAKO 082115Z AUTO VRB03KT 10SM CLR 26/M13 A2981 4820 07 7200 VRB/03 RMK AO2 T02611128                                                              
24015KAKO AKO20191008142011010/08/19 14:20:31  5-MIN KAKO 082120Z AUTO VRB03KT 10SM CLR 26/M13 A2981 4820 06 7200 VRB/03 RMK AO2 T02611133                                                              
24015KAKO AKO20191008143511010/08/19 14:35:31  5-MIN KAKO 082135Z AUTO VRB03KT 10SM CLR 26/M14 A2981 4820 06 7200 VRB/03 RMK AO2 T02611139                                                              
24015KAKO AKO20191008150011010/08/19 15:00:31  5-MIN KAKO 082200Z AUTO 00000KT 10SM CLR 26/M14 A2981 4820 06 7200 000/00 RMK AO2 T02611139                                                              
24015KAKO AKO20191008150511010/08/19 15:05:31  5-MIN KAKO 082205Z AUTO 00000KT 10SM CLR 26/M13 A2981 4820 06 7200 000/00 RMK AO2 T02611133                                                              
24015KAKO AKO20191008151011010/08/19 15:10:31  5-MIN KAKO 082210Z AUTO 00000KT 10SM CLR 26/M14 A2981 4820 06 7200 000/00 RMK AO2 T02611139                                                              
24015KAKO AKO20191008152011010/08/19 15:20:31  5-MIN KAKO 082220Z AUTO VRB03KT 10SM CLR 26/M13 A2981 4820 06 7200 VRB/03 RMK AO2 T02611133                                                              
24015KAKO AKO20191008153511010/08/19 15:35:31  5-MIN KAKO 082235Z AUTO 00000KT 10SM CLR 27/M13 A2981 4830 06 7300 000/00 RMK AO2 T02671133                                                              
24015KAKO AKO20191008154011010/08/19 15:40:31  5-MIN KAKO 082240Z AUTO 00000KT 10SM CLR 26/M13 A2981 4830 06 7200 000/00 RMK AO2 T02611133                                                              
24015KAKO AKO20191008154511010/08/19 15:45:31  5-MIN KAKO 082245Z AUTO VRB03KT 10SM CLR 26/M14 A2980 4830 06 7200 VRB/03 RMK AO2 T02611139                                                              
24015KAKO AKO20191008160011010/08/19 16:00:31  5-MIN KAKO 082300Z AUTO 00000KT 10SM CLR 26/M13 A2980 4830 06 7200 000/00 RMK AO2 T02611133                                                              
24015KAKO AKO20191008160511010/08/19 16:05:31  5-MIN KAKO 082305Z AUTO 00000KT 10SM CLR 26/M13 A2980 4830 06 7200 000/00 RMK AO2 T02611133                                                              
24015KAKO AKO20191008174511010/08/19 17:45:31  5-MIN KAKO 090045Z AUTO 00000KT 10SM CLR 19/M10 A2980 4830 12 6500 000/00 RMK AO2 T01941100                                                              
24015KAKO AKO20191009102511010/09/19 10:25:31  5-MIN KAKO 091725Z AUTO VRB04KT 10SM CLR 23/M08 A2971 4920 12 6900 VRB/04 RMK AO2 T02281078                                                              
24015KAKO AKO20191009104511010/09/19 10:45:31  5-MIN KAKO 091745Z AUTO VRB03KT 10SM CLR 23/M08 A2970 4920 11 7000 VRB/03 RMK AO2 T02331083                                                              
24015KAKO AKO20191009105013510/09/19 10:50:31  5-MIN KAKO 091750Z AUTO VRB03KT 10SM CLR 24/M08 A2970 4930 11 7100 VRB/03 RMK AO2 SLP008 T02391083 10239 20078 56003                                     
24015KAKO AKO20191009105511010/09/19 10:55:31  5-MIN KAKO 091755Z AUTO VRB04KT 10SM CLR 24/M08 A2969 4930 11 7100 VRB/04 RMK AO2 T02391083                                                              
24015KAKO AKO20191009110011010/09/19 11:00:31  5-MIN KAKO 091800Z AUTO 00000KT 10SM CLR 24/M08 A2969 4930 11 7100 000/00 RMK AO2 T02391083                                                              
24015KAKO AKO20191009111511010/09/19 11:15:31  5-MIN KAKO 091815Z AUTO 00000KT 10SM CLR 24/M09 A2968 4940 10 7200 000/00 RMK AO2 T02441094                                                              
24015KAKO AKO20191009130011610/09/19 13:00:31  5-MIN KAKO 092000Z AUTO VRB03G16KT 10SM CLR 26/M09 A2963 4990 09 7300 VRB/03G16 RMK AO2 T02561094                                                        
24015KAKO AKO20191011175511010/11/19 17:55:31  5-MIN KAKO 120055Z AUTO 00000KT 10SM CLR 04/M12 A3017 4490 30 4300 000/00 RMK AO2 T00441117                                                              
24015KAKO AKO20191011180011010/11/19 18:00:31  5-MIN KAKO 120100Z AUTO 00000KT 10SM CLR 04/M11 A3017 4490 32 4300 000/00 RMK AO2 T00391111                                                              
24015KAKO AKO20191011180511010/11/19 18:05:31  5-MIN KAKO 120105Z AUTO 00000KT 10SM CLR 04/M12 A3017 4490 31 4300 000/00 RMK AO2 T00391117                                                              
24015KAKO AKO20191011181011010/11/19 18:10:31  5-MIN KAKO 120110Z AUTO 00000KT 10SM CLR 03/M11 A3017 4490 34 4200 000/00 RMK AO2 T00331111                                                              
24015KAKO AKO20191011181511010/11/19 18:15:31  5-MIN KAKO 120115Z AUTO 00000KT 10SM CLR 03/M11 A3017 4490 37 4100 000/00 RMK AO2 T00281106                                                              
24015KAKO AKO20191011182011010/11/19 18:20:31  5-MIN KAKO 120120Z AUTO 00000KT 10SM CLR 03/M12 A3017 4490 32 4200 000/00 RMK AO2 T00331117                                                              
24015KAKO AKO20191011182511010/11/19 18:25:31  5-MIN KAKO 120125Z AUTO 00000KT 10SM CLR 02/M11 A3017 4490 37 4100 000/00 RMK AO2 T00221111                                                              
24015KAKO AKO20191011185511010/11/19 18:55:31  5-MIN KAKO 120155Z AUTO 00000KT 10SM CLR 04/M12 A3017 4490 31 4300 000/00 RMK AO2 T00391117                                                              
24015KAKO AKO20191011190011010/11/19 19:00:31  5-MIN KAKO 120200Z AUTO 00000KT 10SM CLR 04/M12 A3017 4490 30 4300 000/00 RMK AO2 T00391122                                                              
24015KAKO AKO20191011190511010/11/19 19:05:31  5-MIN KAKO 120205Z AUTO 00000KT 10SM CLR 03/M11 A3016 4490 37 4100 000/00 RMK AO2 T00281106                                                              
24015KAKO AKO20191011191011010/11/19 19:10:31  5-MIN KAKO 120210Z AUTO 00000KT 10SM CLR 03/M11 A3016 4500 35 4100 000/00 RMK AO2 T00281111                                                              
24015KAKO AKO20191011191511010/11/19 19:15:31  5-MIN KAKO 120215Z AUTO 00000KT 10SM CLR 04/M12 A3016 4500 31 4300 000/00 RMK AO2 T00391117                                                              
24015KAKO AKO20191011192011110/11/19 19:20:31  5-MIN KAKO 120220Z AUTO 00000KT 10SM CLR M01/M09 A3016 4500 53 3700 000/00 RMK AO2 T10111094                                                             
24015KAKO AKO20191011192511110/11/19 19:25:31  5-MIN KAKO 120225Z AUTO 00000KT 10SM CLR M01/M10 A3016 4500 49 3700 000/00 RMK AO2 T10061100                                                             
24015KAKO AKO20191011193011010/11/19 19:30:31  5-MIN KAKO 120230Z AUTO 00000KT 10SM CLR 01/M11 A3015 4500 43 3900 000/00 RMK AO2 T00061106                                                              
24015KAKO AKO20191011193511010/11/19 19:35:31  5-MIN KAKO 120235Z AUTO 00000KT 10SM CLR 03/M12 A3016 4500 32 4200 000/00 RMK AO2 T00331117                                                              
24015KAKO AKO20191012060511110/12/19 06:05:31  5-MIN KAKO 121305Z AUTO 00000KT 10SM CLR M04/M11 A3005 4600 62 3400 000/00 RMK AO2 T10441106                                                             
24015KAKO AKO20191012061011110/12/19 06:10:31  5-MIN KAKO 121310Z AUTO VRB03KT 10SM CLR M04/M11 A3005 4600 60 3500 VRB/03 RMK AO2 T10391106                                                             
24015KAKO AKO20191012092511010/12/19 09:25:31  5-MIN KAKO 121625Z AUTO VRB06KT 10SM CLR 10/M11 A3005 4600 22 5100 VRB/06 RMK AO2 T01001106                                                              
24015KAKO AKO20191012102511010/12/19 10:25:31  5-MIN KAKO 121725Z AUTO VRB05KT 10SM CLR 11/M11 A3003 4620 20 5200 VRB/05 RMK AO2 T01061111                                                              
24015KAKO AKO20191012103011010/12/19 10:30:31  5-MIN KAKO 121730Z AUTO VRB03KT 10SM CLR 11/M11 A3003 4620 21 5300 VRB/03 RMK AO2 T01111106                                                              
24015KAKO AKO20191012104511010/12/19 10:45:31  5-MIN KAKO 121745Z AUTO VRB03KT 10SM CLR 11/M11 A3002 4620 20 5300 VRB/03 RMK AO2 T01111111                                                              
24015KAKO AKO20191012111511010/12/19 11:15:31  5-MIN KAKO 121815Z AUTO VRB04KT 10SM CLR 12/M11 A3001 4630 18 5400 VRB/04 RMK AO2 T01221111                                                              
24015KAKO AKO20191012113511010/12/19 11:35:31  5-MIN KAKO 121835Z AUTO 00000KT 10SM CLR 12/M11 A3001 4640 18 5400 000/00 RMK AO2 T01221111                                                              
24015KAKO AKO20191012114011010/12/19 11:40:31  5-MIN KAKO 121840Z AUTO VRB03KT 10SM CLR 13/M11 A3001 4640 18 5500 VRB/03 RMK AO2 T01281106                                                              
24015KAKO AKO20191012115011710/12/19 11:50:31  5-MIN KAKO 121850Z AUTO 00000KT 10SM CLR 13/M12 A3000 4640 17 5500 000/00 RMK AO2 SLP152 T01281117                                                       
24015KAKO AKO20191012115511010/12/19 11:55:31  5-MIN KAKO 121855Z AUTO VRB03KT 10SM CLR 13/M11 A3000 4650 18 5600 VRB/03 RMK AO2 T01331106                                                              
24015KAKO AKO20191012120011010/12/19 12:00:31  5-MIN KAKO 121900Z AUTO VRB04KT 10SM CLR 13/M11 A3000 4650 18 5500 VRB/04 RMK AO2 T01281111                                                              
24015KAKO AKO20191012121011010/12/19 12:10:31  5-MIN KAKO 121910Z AUTO 00000KT 10SM CLR 13/M11 A2999 4650 17 5600 000/00 RMK AO2 T01331111                                                              
24015KAKO AKO20191012121511010/12/19 12:15:31  5-MIN KAKO 121915Z AUTO VRB03KT 10SM CLR 14/M11 A2999 4660 16 5600 VRB/03 RMK AO2 T01391111                                                              
24015KAKO AKO20191012122011010/12/19 12:20:31  5-MIN KAKO 121920Z AUTO VRB04KT 10SM CLR 14/M12 A2999 4660 16 5600 VRB/04 RMK AO2 T01391117                                                              
24015KAKO AKO20191012122511010/12/19 12:25:31  5-MIN KAKO 121925Z AUTO 00000KT 10SM CLR 13/M11 A2998 4660 17 5600 000/00 RMK AO2 T01331111                                                              
24015KAKO AKO20191012123011010/12/19 12:30:31  5-MIN KAKO 121930Z AUTO VRB03KT 10SM CLR 14/M12 A2998 4660 16 5600 VRB/03 RMK AO2 T01391117                                                              
24015KAKO AKO20191012123511010/12/19 12:35:31  5-MIN KAKO 121935Z AUTO VRB04KT 10SM CLR 14/M11 A2998 4670 16 5600 VRB/04 RMK AO2 T01391111                                                              
24015KAKO AKO20191012124011010/12/19 12:40:31  5-MIN KAKO 121940Z AUTO VRB03KT 10SM CLR 14/M12 A2997 4670 15 5700 VRB/03 RMK AO2 T01441117                                                              
24015KAKO AKO20191012124511010/12/19 12:45:31  5-MIN KAKO 121945Z AUTO VRB03KT 10SM CLR 15/M11 A2997 4670 15 5800 VRB/03 RMK AO2 T01501111                                                              
24015KAKO AKO20191012131011010/12/19 13:10:31  5-MIN KAKO 122010Z AUTO VRB05KT 10SM CLR 16/M12 A2996 4680 14 5900 VRB/05 RMK AO2 T01561117                                                              
24015KAKO AKO20191012132011010/12/19 13:20:31  5-MIN KAKO 122020Z AUTO VRB04KT 10SM CLR 15/M12 A2996 4690 15 5800 VRB/04 RMK AO2 T01501117                                                              
24015KAKO AKO20191012133511010/12/19 13:35:31  5-MIN KAKO 122035Z AUTO VRB06KT 10SM CLR 16/M12 A2995 4690 14 5900 VRB/06 RMK AO2 T01611117                                                              
24015KAKO AKO20191012140511010/12/19 14:05:31  5-MIN KAKO 122105Z AUTO VRB04KT 10SM CLR 17/M12 A2994 4700 12 6000 VRB/04 RMK AO2 T01671122                                                              
24015KAKO AKO20191012141011010/12/19 14:10:31  5-MIN KAKO 122110Z AUTO 00000KT 10SM CLR 17/M12 A2994 4700 13 6000 000/00 RMK AO2 T01671117                                                              
24015KAKO AKO20191012144011010/12/19 14:40:31  5-MIN KAKO 122140Z AUTO VRB05KT 10SM CLR 17/M12 A2993 4710 12 6100 VRB/05 RMK AO2 T01721122                                                              
24015KAKO AKO20191013103011210/13/19 10:30:31  5-MIN KAKO 131730Z AUTO 00000KT 10SM CLR 13/M07 A3002 4630 24 5500 000/00 RMK AO2 T01331067 $                                                            
24015KAKO AKO20191013103511210/13/19 10:35:31  5-MIN KAKO 131735Z AUTO VRB03KT 10SM CLR 13/M07 A3001 4630 24 5500 VRB/03 RMK AO2 T01331067 $                                                            
24015KAKO AKO20191013104011210/13/19 10:40:31  5-MIN KAKO 131740Z AUTO 00000KT 10SM CLR 14/M07 A3001 4630 22 5700 000/00 RMK AO2 T01441067 $                                                            
24015KAKO AKO20191013104511210/13/19 10:45:31  5-MIN KAKO 131745Z AUTO 00000KT 10SM CLR 15/M07 A3001 4640 21 5700 000/00 RMK AO2 T01501072 $                                                            
24015KAKO AKO20191013110011210/13/19 11:00:31  5-MIN KAKO 131800Z AUTO 00000KT 10SM CLR 16/M09 A3000 4640 17 5800 000/00 RMK AO2 T01561089 $                                                            
24015KAKO AKO20191013110511210/13/19 11:05:31  5-MIN KAKO 131805Z AUTO VRB03KT 10SM CLR 16/M08 A3000 4640 18 5900 VRB/03 RMK AO2 T01611083 $                                                            
24015KAKO AKO20191013113511210/13/19 11:35:31  5-MIN KAKO 131835Z AUTO VRB06KT 10SM CLR 18/M09 A2999 4650 15 6100 VRB/06 RMK AO2 T01781089 $                                                            
24015KAKO AKO20191013114511210/13/19 11:45:31  5-MIN KAKO 131845Z AUTO 00000KT 10SM CLR 18/M09 A2999 4660 15 6100 000/00 RMK AO2 T01781089 $                                                            
24015KAKO AKO20191013115011910/13/19 11:50:31  5-MIN KAKO 131850Z AUTO VRB04KT 10SM CLR 18/M09 A2999 4660 15 6100 VRB/04 RMK AO2 SLP132 T01781089 $                                                     
24015KAKO AKO20191013115511210/13/19 11:55:31  5-MIN KAKO 131855Z AUTO VRB04KT 10SM CLR 18/M09 A2999 4660 15 6100 VRB/04 RMK AO2 T01831089 $                                                            
24015KAKO AKO20191013124511810/13/19 12:45:31  5-MIN KAKO 131945Z AUTO VRB05G18KT 10SM CLR 21/M12 A2996 4680 10 6400 VRB/05G18 RMK AO2 T02061122 $                                                      
24015KAKO AKO20191013130011210/13/19 13:00:31  5-MIN KAKO 132000Z AUTO VRB03KT 10SM CLR 21/M13 A2995 4690 09 6500 VRB/03 RMK AO2 T02111128 $                                                            
24015KAKO AKO20191013144011210/13/19 14:40:31  5-MIN KAKO 132140Z AUTO VRB04KT 10SM CLR 22/M12 A2994 4700 09 6600 VRB/04 RMK AO2 T02171122 $                                                            
24015KAKO AKO20191013145511210/13/19 14:55:31  5-MIN KAKO 132155Z AUTO 00000KT 10SM CLR 21/M13 A2994 4700 09 6500 000/00 RMK AO2 T02111133 $                                                            
24015KAKO AKO20191013150011210/13/19 15:00:31  5-MIN KAKO 132200Z AUTO VRB03KT 10SM CLR 22/M13 A2994 4700 09 6600 VRB/03 RMK AO2 T02171128 $                                                            
24015KAKO AKO20191013150511210/13/19 15:05:31  5-MIN KAKO 132205Z AUTO 00000KT 10SM CLR 21/M13 A2994 4700 09 6500 000/00 RMK AO2 T02111128 $                                                            
24015KAKO AKO20191013151511210/13/19 15:15:31  5-MIN KAKO 132215Z AUTO VRB03KT 10SM CLR 22/M13 A2994 4700 08 6600 VRB/03 RMK AO2 T02171133 $                                                            
24015KAKO AKO20191013152011210/13/19 15:20:31  5-MIN KAKO 132220Z AUTO VRB03KT 10SM CLR 22/M14 A2994 4700 08 6600 VRB/03 RMK AO2 T02221139 $                                                            
24015KAKO AKO20191013152511210/13/19 15:25:31  5-MIN KAKO 132225Z AUTO 00000KT 10SM CLR 22/M14 A2993 4710 08 6600 000/00 RMK AO2 T02171139 $                                                            
24015KAKO AKO20191013153011210/13/19 15:30:31  5-MIN KAKO 132230Z AUTO 00000KT 10SM CLR 21/M14 A2994 4710 08 6500 000/00 RMK AO2 T02111139 $                                                            
24015KAKO AKO20191013153511210/13/19 15:35:31  5-MIN KAKO 132235Z AUTO VRB04KT 10SM CLR 22/M13 A2994 4710 08 6600 VRB/04 RMK AO2 T02171133 $                                                            
24015KAKO AKO20191013154511210/13/19 15:45:31  5-MIN KAKO 132245Z AUTO VRB03KT 10SM CLR 21/M13 A2993 4710 09 6500 VRB/03 RMK AO2 T02111133 $                                                            
24015KAKO AKO20191013155511210/13/19 15:55:31  5-MIN KAKO 132255Z AUTO 00000KT 10SM CLR 21/M14 A2993 4710 08 6500 000/00 RMK AO2 T02111139 $                                                            
24015KAKO AKO20191013162011210/13/19 16:20:31  5-MIN KAKO 132320Z AUTO 00000KT 10SM CLR 21/M14 A2994 4700 08 6500 000/00 RMK AO2 T02111139 $                                                            
24015KAKO AKO20191013162511210/13/19 16:25:31  5-MIN KAKO 132325Z AUTO 00000KT 10SM CLR 21/M13 A2994 4700 09 6500 000/00 RMK AO2 T02111133 $                                                            
24015KAKO AKO20191013163011210/13/19 16:30:31  5-MIN KAKO 132330Z AUTO 00000KT 10SM CLR 21/M13 A2994 4700 09 6400 000/00 RMK AO2 T02061133 $                                                            
24015KAKO AKO20191013163511210/13/19 16:35:31  5-MIN KAKO 132335Z AUTO 00000KT 10SM CLR 21/M13 A2994 4700 09 6400 000/00 RMK AO2 T02061133 $                                                            
24015KAKO AKO20191013164011210/13/19 16:40:31  5-MIN KAKO 132340Z AUTO 00000KT 10SM CLR 21/M13 A2994 4700 09 6400 000/00 RMK AO2 T02061133 $                                                            
24015KAKO AKO20191013164511210/13/19 16:45:31  5-MIN KAKO 132345Z AUTO 00000KT 10SM CLR 20/M14 A2994 4700 09 6400 000/00 RMK AO2 T02001139 $                                                            
24015KAKO AKO20191015115511610/15/19 11:55:31  5-MIN KAKO 151855Z AUTO VRB06G15KT 10SM CLR 12/M05 A3023 4440 29 5200 VRB/06G15 RMK AO2 T01221050                                                        
24015KAKO AKO20191015132011610/15/19 13:20:31  5-MIN KAKO 152020Z AUTO VRB05G18KT 10SM CLR 13/M06 A3021 4460 27 5300 VRB/05G18 RMK AO2 T01281056                                                        
24015KAKO AKO20191015151511010/15/19 15:15:31  5-MIN KAKO 152215Z AUTO 00000KT 10SM CLR 13/M05 A3020 4460 27 5300 000/00 RMK AO2 T01331050                                                              
24015KAKO AKO20191016165511010/16/19 16:55:31  5-MIN KAKO 162355Z AUTO 00000KT 10SM CLR 21/M07 A3002 4620 15 6300 000/00 RMK AO2 T02061067                                                              
24015KAKO AKO20191016170011010/16/19 17:00:31  5-MIN KAKO 170000Z AUTO 00000KT 10SM CLR 21/M07 A3002 4630 15 6400 000/00 RMK AO2 T02111067                                                              
24015KAKO AKO20191016170511010/16/19 17:05:31  5-MIN KAKO 170005Z AUTO 00000KT 10SM CLR 22/M07 A3002 4630 13 6500 000/00 RMK AO2 T02171072                                                              
24015KAKO AKO20191016171011010/16/19 17:10:31  5-MIN KAKO 170010Z AUTO 00000KT 10SM CLR 21/M08 A3002 4630 13 6400 000/00 RMK AO2 T02111078                                                              
24015KAKO AKO20191016172511010/16/19 17:25:31  5-MIN KAKO 170025Z AUTO 00000KT 10SM CLR 20/M06 A3002 4630 16 6300 000/00 RMK AO2 T02001061                                                              
24015KAKO AKO20191016173011010/16/19 17:30:31  5-MIN KAKO 170030Z AUTO 00000KT 10SM CLR 20/M07 A3002 4630 16 6300 000/00 RMK AO2 T02001067                                                              
24015KAKO AKO20191016173511010/16/19 17:35:31  5-MIN KAKO 170035Z AUTO 00000KT 10SM CLR 20/M07 A3002 4630 16 6300 000/00 RMK AO2 T02001067                                                              
24015KAKO AKO20191017103511210/17/19 10:35:31  5-MIN KAKO 171735Z AUTO VRB06KT 10SM CLR 22/M09 A2982 4820 11 6800 VRB/06 RMK AO2 T02221094 $                                                            
24015KAKO AKO20191017105013710/17/19 10:50:31  5-MIN KAKO 171750Z AUTO VRB03KT 10SM CLR 23/M09 A2981 4820 11 6800 VRB/03 RMK AO2 SLP043 T02281094 10239 20106 56009 $                                   
24015KAKO AKO20191017115011910/17/19 11:50:31  5-MIN KAKO 171850Z AUTO VRB04KT 10SM CLR 26/M11 A2976 4870 08 7200 VRB/04 RMK AO2 SLP025 T02561106 $                                                     
24015KAKO AKO20191017120011210/17/19 12:00:31  5-MIN KAKO 171900Z AUTO VRB03KT 10SM CLR 27/M11 A2975 4870 07 7300 VRB/03 RMK AO2 T02671111 $                                                            
24015KAKO AKO20191019140511010/19/19 14:05:31  5-MIN KAKO 192105Z AUTO VRB05KT 10SM CLR 17/M11 A2979 4840 14 6200 VRB/05 RMK AO2 T01671106                                                              
24015KAKO AKO20191019161011010/19/19 16:10:31  5-MIN KAKO 192310Z AUTO VRB05KT 10SM CLR 16/M11 A2975 4880 15 6200 VRB/05 RMK AO2 T01611106                                                              
24015KAKO AKO20191022104011010/22/19 10:40:31  5-MIN KAKO 221740Z AUTO VRB05KT 10SM CLR 11/M06 A3012 4540 30 5200 VRB/05 RMK AO2 T01111056                                                              
24015KAKO AKO20191022185012010/22/19 18:50:31  5-MIN KAKO 230150Z AUTO 00000KT 10SM OVC080 13/M03 A2994 4700 32 5600 000/00 RMK AO2 SLP133 T01331028                                                    
24015KAKO AKO20191022185511310/22/19 18:55:31  5-MIN KAKO 230155Z AUTO 00000KT 10SM OVC080 13/M03 A2994 4700 32 5600 000/00 RMK AO2 T01331028                                                           
24015KAKO AKO20191022190011310/22/19 19:00:31  5-MIN KAKO 230200Z AUTO 00000KT 10SM OVC085 14/M03 A2993 4710 31 5700 000/00 RMK AO2 T01391028                                                           
24015KAKO AKO20191022195013310/22/19 19:50:31  5-MIN KAKO 230250Z AUTO 00000KT 10SM BKN090 OVC100 11/M03 A2994 4700 37 5300 000/00 RMK AO2 SLP129 T01061033 56014                                       
24015KAKO AKO20191022195511310/22/19 19:55:31  5-MIN KAKO 230255Z AUTO 00000KT 10SM OVC090 10/M03 A2994 4700 39 5200 000/00 RMK AO2 T01001033                                                           
24015KAKO AKO20191022200011310/22/19 20:00:31  5-MIN KAKO 230300Z AUTO 00000KT 10SM OVC090 11/M03 A2994 4700 37 5300 000/00 RMK AO2 T01061033                                                           
24015KAKO AKO20191022200511310/22/19 20:05:31  5-MIN KAKO 230305Z AUTO 00000KT 10SM OVC090 11/M03 A2994 4700 36 5400 000/00 RMK AO2 T01111033                                                           
24015KAKO AKO20191022201011310/22/19 20:10:31  5-MIN KAKO 230310Z AUTO 00000KT 10SM OVC090 11/M03 A2994 4700 36 5400 000/00 RMK AO2 T01111033                                                           
24015KAKO AKO20191022211511310/22/19 21:15:31  5-MIN KAKO 230415Z AUTO VRB04KT 10SM OVC095 10/M03 A2993 4710 39 5300 VRB/04 RMK AO2 T01001033                                                           
24015KAKO AKO20191022224511310/22/19 22:45:31  5-MIN KAKO 230545Z AUTO VRB04KT 10SM OVC100 09/M03 A2992 4720 43 5100 VRB/04 RMK AO2 T00891028                                                           
24015KAKO AKO20191023204012010/23/19 20:40:31  5-MIN KAKO 240340Z AUTO 00000KT 10SM SCT120 00/M05 A3033 4340 69 3600 000/00 RMK AO2 PRESRR T00001050                                                    
24015KAKO AKO20191023204512010/23/19 20:45:31  5-MIN KAKO 240345Z AUTO 00000KT 10SM BKN120 00/M05 A3034 4330 69 3600 000/00 RMK AO2 PRESRR T00001050                                                    
24015KAKO AKO20191023205012010/23/19 20:50:31  5-MIN KAKO 240350Z AUTO 00000KT 10SM BKN120 00/M05 A3034 4340 69 3600 000/00 RMK AO2 SLP283 T00001050                                                    
24015KAKO AKO20191023205511410/23/19 20:55:31  5-MIN KAKO 240355Z AUTO 00000KT 10SM BKN110 M01/M05 A3034 4340 72 3500 000/00 RMK AO2 T10061050                                                          
24015KAKO AKO20191023210011310/23/19 21:00:31  5-MIN KAKO 240400Z AUTO 00000KT 10SM OVC110 00/M05 A3034 4330 69 3600 000/00 RMK AO2 T00001050                                                           
24015KAKO AKO20191023210512010/23/19 21:05:31  5-MIN KAKO 240405Z AUTO 00000KT 10SM FEW031 OVC110 00/M05 A3034 4330 69 3600 000/00 RMK AO2 T00001050                                                    
24015KAKO AKO20191023211012110/23/19 21:10:31  5-MIN KAKO 240410Z AUTO 00000KT 10SM FEW031 OVC110 M01/M05 A3034 4330 72 3500 000/00 RMK AO2 T10061050                                                   
24015KAKO AKO20191023211511410/23/19 21:15:31  5-MIN KAKO 240415Z AUTO 00000KT 10SM OVC120 M01/M05 A3034 4330 72 3500 000/00 RMK AO2 T10061050                                                          
24015KAKO AKO20191023214511410/23/19 21:45:31  5-MIN KAKO 240445Z AUTO 00000KT 10SM SCT120 M01/M05 A3033 4340 75 3500 000/00 RMK AO2 T10111050                                                          
24015KAKO AKO20191023215012810/23/19 21:50:31  5-MIN KAKO 240450Z AUTO 00000KT 10SM SCT120 M01/M06 A3035 4330 72 3500 000/00 RMK AO2 PRESRR SLP288 T10111056                                            
24015KAKO AKO20191023215511410/23/19 21:55:31  5-MIN KAKO 240455Z AUTO 00000KT 10SM FEW120 M02/M06 A3035 4320 75 3400 000/00 RMK AO2 T10171056                                                          
24015KAKO AKO20191023220011110/23/19 22:00:31  5-MIN KAKO 240500Z AUTO 00000KT 10SM CLR M02/M05 A3035 4320 78 3400 000/00 RMK AO2 T10171050                                                             
24015KAKO AKO20191023220511110/23/19 22:05:31  5-MIN KAKO 240505Z AUTO 00000KT 10SM CLR M02/M06 A3035 4320 78 3300 000/00 RMK AO2 T10221056                                                             
24015KAKO AKO20191023221011110/23/19 22:10:31  5-MIN KAKO 240510Z AUTO 00000KT 10SM CLR M02/M06 A3035 4320 78 3300 000/00 RMK AO2 T10221056                                                             
24015KAKO AKO20191024012011110/24/19 01:20:31  5-MIN KAKO 240820Z AUTO 00000KT 10SM CLR M04/M07 A3037 4300 81 3100 000/00 RMK AO2 T10391067                                                             
24015KAKO AKO20191024012511110/24/19 01:25:31  5-MIN KAKO 240825Z AUTO 00000KT 10SM CLR M04/M07 A3037 4300 81 3100 000/00 RMK AO2 T10391067                                                             
24015KAKO AKO20191024013011110/24/19 01:30:31  5-MIN KAKO 240830Z AUTO 00000KT 10SM CLR M04/M07 A3037 4300 81 3100 000/00 RMK AO2 T10391067                                                             
24015KAKO AKO20191024013511110/24/19 01:35:31  5-MIN KAKO 240835Z AUTO 00000KT 10SM CLR M04/M07 A3037 4310 84 3000 000/00 RMK AO2 T10441067                                                             
24015KAKO AKO20191024014011110/24/19 01:40:31  5-MIN KAKO 240840Z AUTO 00000KT 10SM CLR M05/M07 A3037 4300 84 2900 000/00 RMK AO2 T10501072                                                             
24015KAKO AKO20191024014511110/24/19 01:45:31  5-MIN KAKO 240845Z AUTO 00000KT 10SM CLR M04/M07 A3037 4300 84 3000 000/00 RMK AO2 T10441067                                                             
24015KAKO AKO20191024015012410/24/19 01:50:31  5-MIN KAKO 240850Z AUTO 00000KT 10SM CLR M04/M07 A3037 4300 84 3000 000/00 RMK AO2 SLP301 T10441067 50018                                                
24015KAKO AKO20191024015511110/24/19 01:55:31  5-MIN KAKO 240855Z AUTO 00000KT 10SM CLR M04/M06 A3037 4300 85 3100 000/00 RMK AO2 T10391061                                                             
24015KAKO AKO20191024020011110/24/19 02:00:31  5-MIN KAKO 240900Z AUTO 00000KT 10SM CLR M04/M06 A3037 4300 85 3100 000/00 RMK AO2 T10391061                                                             
24015KAKO AKO20191024023511110/24/19 02:35:31  5-MIN KAKO 240935Z AUTO 00000KT 10SM CLR M04/M06 A3036 4320 85 3100 000/00 RMK AO2 T10391061                                                             
24015KAKO AKO20191024024011110/24/19 02:40:31  5-MIN KAKO 240940Z AUTO 00000KT 10SM CLR M04/M06 A3036 4310 85 3100 000/00 RMK AO2 T10391061                                                             
24015KAKO AKO20191024024511110/24/19 02:45:31  5-MIN KAKO 240945Z AUTO 00000KT 10SM CLR M05/M07 A3037 4310 88 3000 000/00 RMK AO2 T10501067                                                             
24015KAKO AKO20191024025011810/24/19 02:50:31  5-MIN KAKO 240950Z AUTO 00000KT 10SM CLR M04/M06 A3037 4310 85 3100 000/00 RMK AO2 SLP302 T10391061                                                      
24015KAKO AKO20191024025511110/24/19 02:55:31  5-MIN KAKO 240955Z AUTO 00000KT 10SM CLR M04/M06 A3037 4300 85 3100 000/00 RMK AO2 T10391061                                                             
24015KAKO AKO20191024030011110/24/19 03:00:31  5-MIN KAKO 241000Z AUTO 00000KT 10SM CLR M04/M06 A3037 4300 88 3000 000/00 RMK AO2 T10441061                                                             
24015KAKO AKO20191024030511110/24/19 03:05:31  5-MIN KAKO 241005Z AUTO 00000KT 10SM CLR M04/M06 A3037 4300 88 3000 000/00 RMK AO2 T10441061                                                             
24015KAKO AKO20191024031011110/24/19 03:10:31  5-MIN KAKO 241010Z AUTO 00000KT 10SM CLR M05/M07 A3037 4310 88 3000 000/00 RMK AO2 T10501067                                                             
24015KAKO AKO20191024031511110/24/19 03:15:31  5-MIN KAKO 241015Z AUTO 00000KT 10SM CLR M06/M07 A3037 4310 88 2900 000/00 RMK AO2 T10561072                                                             
24015KAKO AKO20191024032011110/24/19 03:20:31  5-MIN KAKO 241020Z AUTO 00000KT 10SM CLR M06/M07 A3037 4310 88 2900 000/00 RMK AO2 T10561072                                                             
24015KAKO AKO20191024032511110/24/19 03:25:31  5-MIN KAKO 241025Z AUTO 00000KT 10SM CLR M05/M07 A3037 4310 84 3000 000/00 RMK AO2 T10501072                                                             
24015KAKO AKO20191024033011110/24/19 03:30:31  5-MIN KAKO 241030Z AUTO 00000KT 10SM CLR M06/M07 A3036 4310 88 2900 000/00 RMK AO2 T10561072                                                             
24015KAKO AKO20191024033511110/24/19 03:35:31  5-MIN KAKO 241035Z AUTO 00000KT 10SM CLR M05/M07 A3036 4310 84 3000 000/00 RMK AO2 T10501072                                                             
24015KAKO AKO20191024034011110/24/19 03:40:31  5-MIN KAKO 241040Z AUTO 00000KT 10SM CLR M05/M07 A3036 4310 84 3000 000/00 RMK AO2 T10501072                                                             
24015KAKO AKO20191024034511110/24/19 03:45:31  5-MIN KAKO 241045Z AUTO 00000KT 10SM CLR M06/M07 A3036 4310 88 2900 000/00 RMK AO2 T10561072                                                             
24015KAKO AKO20191024041011110/24/19 04:10:31  5-MIN KAKO 241110Z AUTO 00000KT 10SM CLR M05/M07 A3037 4310 88 2900 000/00 RMK AO2 T10501067                                                             
24015KAKO AKO20191024041511110/24/19 04:15:31  5-MIN KAKO 241115Z AUTO 00000KT 10SM CLR M04/M07 A3037 4310 84 3000 000/00 RMK AO2 T10441067                                                             
24015KAKO AKO20191024085511010/24/19 08:55:31  5-MIN KAKO 241555Z AUTO VRB05KT 10SM CLR 01/M04 A3044 4240 69 3600 VRB/05 RMK AO2 T00111039                                                              
24015KAKO AKO20191024104511010/24/19 10:45:31  5-MIN KAKO 241745Z AUTO 00000KT 10SM CLR 03/M07 A3041 4270 46 3900 000/00 RMK AO2 T00331072                                                              
24015KAKO AKO20191024105511010/24/19 10:55:31  5-MIN KAKO 241755Z AUTO VRB04KT 10SM CLR 04/M08 A3041 4270 42 4000 VRB/04 RMK AO2 T00391078                                                              
24015KAKO AKO20191024113011010/24/19 11:30:31  5-MIN KAKO 241830Z AUTO VRB04KT 10SM CLR 04/M08 A3039 4290 40 4000 VRB/04 RMK AO2 T00391083                                                              
24015KAKO AKO20191024120011010/24/19 12:00:31  5-MIN KAKO 241900Z AUTO 00000KT 10SM CLR 04/M09 A3037 4300 39 4000 000/00 RMK AO2 T00391089                                                              
24015KAKO AKO20191024122011010/24/19 12:20:31  5-MIN KAKO 241920Z AUTO VRB03KT 10SM CLR 05/M09 A3037 4310 36 4200 VRB/03 RMK AO2 T00501089                                                              
24015KAKO AKO20191024125511010/24/19 12:55:31  5-MIN KAKO 241955Z AUTO 00000KT 10SM CLR 06/M09 A3035 4330 34 4300 000/00 RMK AO2 T00561089                                                              
24015KAKO AKO20191024132511010/24/19 13:25:31  5-MIN KAKO 242025Z AUTO VRB05KT 10SM CLR 06/M09 A3033 4340 32 4300 VRB/05 RMK AO2 T00611094                                                              
24015KAKO AKO20191024133011010/24/19 13:30:31  5-MIN KAKO 242030Z AUTO 00000KT 10SM CLR 06/M09 A3033 4350 33 4300 000/00 RMK AO2 T00561094                                                              
24015KAKO AKO20191024133511010/24/19 13:35:31  5-MIN KAKO 242035Z AUTO VRB04KT 10SM CLR 06/M09 A3032 4350 33 4400 VRB/04 RMK AO2 T00611089                                                              
24015KAKO AKO20191024140011010/24/19 14:00:31  5-MIN KAKO 242100Z AUTO VRB04KT 10SM CLR 06/M08 A3031 4360 35 4400 VRB/04 RMK AO2 T00611083                                                              
24015KAKO AKO20191024151011010/24/19 15:10:31  5-MIN KAKO 242210Z AUTO VRB05KT 10SM CLR 07/M09 A3030 4370 30 4400 VRB/05 RMK AO2 T00671094                                                              
24015KAKO AKO20191024153011010/24/19 15:30:31  5-MIN KAKO 242230Z AUTO VRB05KT 10SM CLR 07/M09 A3031 4360 30 4400 VRB/05 RMK AO2 T00671094                                                              
24015KAKO AKO20191024160011010/24/19 16:00:31  5-MIN KAKO 242300Z AUTO 00000KT 10SM CLR 06/M10 A3030 4370 30 4400 000/00 RMK AO2 T00611100                                                              
24015KAKO AKO20191024160511010/24/19 16:05:31  5-MIN KAKO 242305Z AUTO 00000KT 10SM CLR 06/M10 A3030 4370 30 4400 000/00 RMK AO2 T00611100                                                              
24015KAKO AKO20191024161011010/24/19 16:10:31  5-MIN KAKO 242310Z AUTO 00000KT 10SM CLR 06/M10 A3030 4370 30 4400 000/00 RMK AO2 T00611100                                                              
24015KAKO AKO20191024161511010/24/19 16:15:31  5-MIN KAKO 242315Z AUTO 00000KT 10SM CLR 06/M10 A3030 4370 30 4400 000/00 RMK AO2 T00611100                                                              
24015KAKO AKO20191024164011010/24/19 16:40:31  5-MIN KAKO 242340Z AUTO 00000KT 10SM CLR 04/M10 A3030 4370 34 4200 000/00 RMK AO2 T00441100                                                              
24015KAKO AKO20191024164511010/24/19 16:45:31  5-MIN KAKO 242345Z AUTO 00000KT 10SM CLR 05/M10 A3030 4370 33 4200 000/00 RMK AO2 T00501100                                                              
24015KAKO AKO20191024165013510/24/19 16:50:31  5-MIN KAKO 242350Z AUTO 00000KT 10SM CLR 04/M10 A3031 4360 34 4200 000/00 RMK AO2 SLP290 T00441100 10072 20033 58029                                     
24015KAKO AKO20191024165511010/24/19 16:55:31  5-MIN KAKO 242355Z AUTO 00000KT 10SM CLR 05/M10 A3031 4360 33 4200 000/00 RMK AO2 T00501100                                                              
24015KAKO AKO20191024170011010/24/19 17:00:31  5-MIN KAKO 250000Z AUTO 00000KT 10SM CLR 04/M10 A3031 4360 34 4200 000/00 RMK AO2 T00441100                                                              
24015KAKO AKO20191024170511010/24/19 17:05:31  5-MIN KAKO 250005Z AUTO 00000KT 10SM CLR 05/M10 A3031 4360 33 4200 000/00 RMK AO2 T00501100                                                              
24015KAKO AKO20191024171011010/24/19 17:10:31  5-MIN KAKO 250010Z AUTO 00000KT 10SM CLR 04/M09 A3031 4360 36 4200 000/00 RMK AO2 T00441094                                                              
24015KAKO AKO20191024171511010/24/19 17:15:31  5-MIN KAKO 250015Z AUTO 00000KT 10SM CLR 04/M09 A3031 4360 36 4200 000/00 RMK AO2 T00441094                                                              
24015KAKO AKO20191024172011010/24/19 17:20:31  5-MIN KAKO 250020Z AUTO 00000KT 10SM CLR 04/M09 A3031 4360 36 4200 000/00 RMK AO2 T00441094                                                              
24015KAKO AKO20191024172511010/24/19 17:25:31  5-MIN KAKO 250025Z AUTO 00000KT 10SM CLR 04/M09 A3031 4360 37 4100 000/00 RMK AO2 T00391094                                                              
24015KAKO AKO20191024173011010/24/19 17:30:31  5-MIN KAKO 250030Z AUTO 00000KT 10SM CLR 03/M10 A3031 4360 37 4000 000/00 RMK AO2 T00331100                                                              
24015KAKO AKO20191024173511010/24/19 17:35:31  5-MIN KAKO 250035Z AUTO 00000KT 10SM CLR 03/M09 A3032 4350 40 4000 000/00 RMK AO2 T00281094                                                              
24015KAKO AKO20191024174011010/24/19 17:40:31  5-MIN KAKO 250040Z AUTO 00000KT 10SM CLR 01/M10 A3032 4350 45 3700 000/00 RMK AO2 T00061100                                                              
24015KAKO AKO20191024174511010/24/19 17:45:31  5-MIN KAKO 250045Z AUTO 00000KT 10SM CLR 02/M10 A3032 4350 42 3800 000/00 RMK AO2 T00171100                                                              
24015KAKO AKO20191024175011710/24/19 17:50:31  5-MIN KAKO 250050Z AUTO 00000KT 10SM CLR 03/M09 A3032 4350 40 4000 000/00 RMK AO2 SLP300 T00281094                                                       
24015KAKO AKO20191025120511010/25/19 12:05:31  5-MIN KAKO 251905Z AUTO VRB06KT 10SM CLR 14/M06 A3020 4460 24 5400 VRB/06 RMK AO2 T01391061                                                              
24015KAKO AKO20191025121511010/25/19 12:15:31  5-MIN KAKO 251915Z AUTO VRB06KT 10SM CLR 13/M06 A3020 4470 25 5300 VRB/06 RMK AO2 T01331061                                                              
24015KAKO AKO20191025122511010/25/19 12:25:31  5-MIN KAKO 251925Z AUTO VRB03KT 10SM CLR 13/M07 A3019 4470 24 5300 VRB/03 RMK AO2 T01331067                                                              
24015KAKO AKO20191025123011010/25/19 12:30:31  5-MIN KAKO 251930Z AUTO VRB06KT 10SM CLR 14/M06 A3019 4470 24 5400 VRB/06 RMK AO2 T01391061                                                              
24015KAKO AKO20191025125011710/25/19 12:50:31  5-MIN KAKO 251950Z AUTO VRB05KT 10SM CLR 14/M06 A3018 4480 24 5400 VRB/05 RMK AO2 SLP214 T01391061                                                       
24015KAKO AKO20191025130511010/25/19 13:05:31  5-MIN KAKO 252005Z AUTO VRB04KT 10SM CLR 14/M06 A3017 4490 23 5500 VRB/04 RMK AO2 T01441061                                                              
24015KAKO AKO20191025131511010/25/19 13:15:31  5-MIN KAKO 252015Z AUTO VRB04KT 10SM CLR 14/M06 A3017 4490 23 5500 VRB/04 RMK AO2 T01441061                                                              
24015KAKO AKO20191025133011010/25/19 13:30:31  5-MIN KAKO 252030Z AUTO VRB03KT 10SM CLR 14/M06 A3016 4500 24 5500 VRB/03 RMK AO2 T01441056                                                              
24015KAKO AKO20191025134011010/25/19 13:40:31  5-MIN KAKO 252040Z AUTO VRB05KT 10SM CLR 15/M06 A3016 4500 23 5600 VRB/05 RMK AO2 T01501056                                                              
24015KAKO AKO20191025135012310/25/19 13:50:31  5-MIN KAKO 252050Z AUTO VRB05KT 10SM CLR 15/M05 A3015 4510 24 5600 VRB/05 RMK AO2 SLP205 T01501050 58017                                                 
24015KAKO AKO20191025140011010/25/19 14:00:31  5-MIN KAKO 252100Z AUTO VRB03KT 10SM CLR 16/M05 A3015 4510 24 5600 VRB/03 RMK AO2 T01561050                                                              
24015KAKO AKO20191025143511010/25/19 14:35:31  5-MIN KAKO 252135Z AUTO 00000KT 10SM CLR 15/M04 A3013 4520 25 5600 000/00 RMK AO2 T01501044                                                              
24015KAKO AKO20191025144011010/25/19 14:40:31  5-MIN KAKO 252140Z AUTO 00000KT 10SM CLR 15/M04 A3013 4520 25 5600 000/00 RMK AO2 T01501044                                                              
24015KAKO AKO20191025144511010/25/19 14:45:31  5-MIN KAKO 252145Z AUTO 00000KT 10SM CLR 16/M04 A3013 4530 25 5700 000/00 RMK AO2 T01561044                                                              
24015KAKO AKO20191025145011710/25/19 14:50:31  5-MIN KAKO 252150Z AUTO VRB03KT 10SM CLR 15/M04 A3013 4530 25 5600 VRB/03 RMK AO2 SLP197 T01501044                                                       
24015KAKO AKO20191025150011010/25/19 15:00:31  5-MIN KAKO 252200Z AUTO VRB03KT 10SM CLR 15/M04 A3012 4530 25 5600 VRB/03 RMK AO2 T01501044                                                              
24015KAKO AKO20191025150511010/25/19 15:05:31  5-MIN KAKO 252205Z AUTO VRB03KT 10SM CLR 15/M04 A3012 4530 25 5600 VRB/03 RMK AO2 T01501044                                                              
24015KAKO AKO20191025151011010/25/19 15:10:31  5-MIN KAKO 252210Z AUTO 00000KT 10SM CLR 15/M04 A3012 4530 25 5600 000/00 RMK AO2 T01501044                                                              
24015KAKO AKO20191025152011010/25/19 15:20:31  5-MIN KAKO 252220Z AUTO 00000KT 10SM CLR 15/M04 A3012 4540 25 5600 000/00 RMK AO2 T01501044                                                              
24015KAKO AKO20191025153011010/25/19 15:30:31  5-MIN KAKO 252230Z AUTO 00000KT 10SM CLR 16/M04 A3011 4540 25 5700 000/00 RMK AO2 T01561044                                                              
24015KAKO AKO20191025154011010/25/19 15:40:31  5-MIN KAKO 252240Z AUTO 00000KT 10SM CLR 15/M04 A3011 4550 25 5600 000/00 RMK AO2 T01501044                                                              
24015KAKO AKO20191026115511010/26/19 11:55:31  5-MIN KAKO 261855Z AUTO VRB05KT 10SM CLR 21/M07 A2972 4900 15 6800 VRB/05 RMK AO2 T02111067                                                              
24015KAKO AKO20191026121511010/26/19 12:15:31  5-MIN KAKO 261915Z AUTO 00000KT 10SM CLR 21/M07 A2972 4910 14 6700 000/00 RMK AO2 T02061072                                                              
24015KAKO AKO20191026122011010/26/19 12:20:31  5-MIN KAKO 261920Z AUTO VRB03KT 10SM CLR 21/M07 A2971 4910 15 6800 VRB/03 RMK AO2 T02111067                                                              
24015KAKO AKO20191026122511010/26/19 12:25:31  5-MIN KAKO 261925Z AUTO VRB03KT 10SM CLR 21/M07 A2971 4920 14 6700 VRB/03 RMK AO2 T02061072                                                              
24015KAKO AKO20191026123511010/26/19 12:35:31  5-MIN KAKO 261935Z AUTO VRB03KT 10SM CLR 21/M07 A2970 4920 14 6800 VRB/03 RMK AO2 T02111072                                                              
24015KAKO AKO20191026125011710/26/19 12:50:31  5-MIN KAKO 261950Z AUTO 00000KT 10SM CLR 21/M07 A2970 4930 14 6800 000/00 RMK AO2 SLP022 T02111072                                                       
24015KAKO AKO20191026125511010/26/19 12:55:31  5-MIN KAKO 261955Z AUTO 00000KT 10SM CLR 21/M07 A2969 4930 14 6800 000/00 RMK AO2 T02111072                                                              
24015KAKO AKO20191026130511010/26/19 13:05:31  5-MIN KAKO 262005Z AUTO VRB04KT 10SM CLR 22/M07 A2969 4930 13 6900 VRB/04 RMK AO2 T02221072                                                              
24015KAKO AKO20191026131011010/26/19 13:10:31  5-MIN KAKO 262010Z AUTO VRB03KT 10SM CLR 22/M07 A2969 4940 13 6900 VRB/03 RMK AO2 T02171072                                                              
24015KAKO AKO20191026131511010/26/19 13:15:31  5-MIN KAKO 262015Z AUTO 00000KT 10SM CLR 22/M08 A2969 4940 13 6900 000/00 RMK AO2 T02171078                                                              
24015KAKO AKO20191026132011010/26/19 13:20:31  5-MIN KAKO 262020Z AUTO 00000KT 10SM CLR 21/M08 A2969 4940 13 6800 000/00 RMK AO2 T02111078                                                              
24015KAKO AKO20191026133011010/26/19 13:30:31  5-MIN KAKO 262030Z AUTO VRB04KT 10SM CLR 23/M07 A2968 4940 13 7000 VRB/04 RMK AO2 T02281072                                                              
24015KAKO AKO20191026134511010/26/19 13:45:31  5-MIN KAKO 262045Z AUTO 00000KT 10SM CLR 22/M08 A2968 4940 12 6900 000/00 RMK AO2 T02221078                                                              
24015KAKO AKO20191026140011010/26/19 14:00:31  5-MIN KAKO 262100Z AUTO VRB05KT 10SM CLR 23/M08 A2968 4950 12 7000 VRB/05 RMK AO2 T02281078                                                              
24015KAKO AKO20191026140511010/26/19 14:05:31  5-MIN KAKO 262105Z AUTO VRB03KT 10SM CLR 23/M08 A2968 4940 12 7000 VRB/03 RMK AO2 T02281083                                                              
24015KAKO AKO20191026141011010/26/19 14:10:31  5-MIN KAKO 262110Z AUTO VRB04KT 10SM CLR 23/M08 A2968 4940 12 7000 VRB/04 RMK AO2 T02281083                                                              
24015KAKO AKO20191026142511010/26/19 14:25:31  5-MIN KAKO 262125Z AUTO 00000KT 10SM CLR 22/M08 A2967 4950 12 6900 000/00 RMK AO2 T02221083                                                              
24015KAKO AKO20191026143511010/26/19 14:35:31  5-MIN KAKO 262135Z AUTO VRB03KT 10SM CLR 23/M08 A2968 4950 12 7000 VRB/03 RMK AO2 T02281083                                                              
24015KAKO AKO20191026144511010/26/19 14:45:31  5-MIN KAKO 262145Z AUTO VRB03KT 10SM CLR 23/M08 A2968 4950 12 7000 VRB/03 RMK AO2 T02281083                                                              
24015KAKO AKO20191028054012510/28/19 05:40:31  5-MIN KAKO 281240Z AUTO 00000KT 1SM -SN BR VV009 M08/M11 A3006 4590 84 2900 000/00 RMK AO2 P0002 T10831106                                               
24015KAKO AKO20191028064012810/28/19 06:40:31  5-MIN KAKO 281340Z AUTO 00000KT 1/2SM SN FZFG VV013 M08/M11 A3006 4590 84 2900 000/00 RMK AO2 P0003 T10831106                                            
24015KAKO AKO20191028083013310/28/19 08:30:31  5-MIN KAKO 281530Z AUTO 00000KT 1SM -SN BR BKN022 OVC031 M08/M10 A3008 4580 88 2900 000/00 RMK AO2 P0000 T10831100                                       
24015KAKO AKO20191028083513310/28/19 08:35:31  5-MIN KAKO 281535Z AUTO 00000KT 1SM -SN BR BKN022 OVC032 M08/M10 A3007 4580 88 2900 000/00 RMK AO2 P0000 T10831100                                       
24015KAKO AKO20191028084513710/28/19 08:45:31  5-MIN KAKO 281545Z AUTO 00000KT 1 1/4SM -SN BR BKN024 OVC034 M08/M10 A3008 4580 84 2900 000/00 RMK AO2 P0000 T10781100                                   
24015KAKO AKO20191028085012710/28/19 08:50:31  5-MIN KAKO 281550Z AUTO 00000KT 1 1/2SM -SN BR BKN026 OVC034 M08/M10 A3008 4580 88 2900 000/00 RMK AO2 P0000                                             
24015KAKO AKO20191028085513710/28/19 08:55:31  5-MIN KAKO 281555Z AUTO 00000KT 1 1/2SM -SN BR SCT028 OVC036 M08/M09 A3008 4580 92 2900 000/00 RMK AO2 P0000 T10831094                                   
24015KAKO AKO20191028091513310/28/19 09:15:31  5-MIN KAKO 281615Z AUTO 00000KT 1SM -SN BR BKN023 OVC034 M08/M09 A3007 4580 88 2900 000/00 RMK AO2 P0000 T10781094                                       
24015KAKO AKO20191028092014210/28/19 09:20:31  5-MIN KAKO 281620Z AUTO 00000KT 3/4SM -SN BR BKN021 BKN025 OVC036 M08/M09 A3007 4580 92 2900 000/00 RMK AO2 P0000 T10831094                              
24015KAKO AKO20191028092514210/28/19 09:25:31  5-MIN KAKO 281625Z AUTO 00000KT 3/4SM -SN BR BKN021 BKN026 OVC034 M08/M09 A3007 4580 92 2900 000/00 RMK AO2 P0001 T10831094                              
24015KAKO AKO20191028093013510/28/19 09:30:31  5-MIN KAKO 281630Z AUTO 00000KT 3/4SM -SN BR BKN021 OVC029 M08/M09 A3007 4580 92 2900 000/00 RMK AO2 P0001 T10831094                                     
24015KAKO AKO20191028093513310/28/19 09:35:31  5-MIN KAKO 281635Z AUTO 00000KT 1SM -SN BR BKN019 OVC029 M08/M09 A3007 4580 88 2900 000/00 RMK AO2 P0001 T10781094                                       
24015KAKO AKO20191028094013310/28/19 09:40:31  5-MIN KAKO 281640Z AUTO 00000KT 1SM -SN BR BKN019 OVC029 M08/M09 A3007 4580 88 2900 000/00 RMK AO2 P0001 T10781094                                       
24015KAKO AKO20191028094512510/28/19 09:45:31  5-MIN KAKO 281645Z AUTO 00000KT 1SM -SN BR VV020 M08/M09 A3006 4590 88 3000 000/00 RMK AO2 P0001 T10781094                                               
24015KAKO AKO20191028095014010/28/19 09:50:31  5-MIN KAKO 281650Z AUTO 00000KT 1SM -SN BR BKN021 OVC030 M08/M09 A3006 4590 92 2900 000/00 RMK AO2 SLP234 P0001 T10831094                                
24015KAKO AKO20191028095513310/28/19 09:55:31  5-MIN KAKO 281655Z AUTO 00000KT 1SM -SN BR BKN021 OVC032 M08/M09 A3006 4590 88 3000 000/00 RMK AO2 P0000 T10781094                                       
24015KAKO AKO20191028100013710/28/19 10:00:31  5-MIN KAKO 281700Z AUTO 00000KT 1 1/4SM -SN BR BKN023 OVC032 M08/M09 A3005 4600 88 3000 000/00 RMK AO2 P0000 T10781094                                   
24015KAKO AKO20191028100513710/28/19 10:05:31  5-MIN KAKO 281705Z AUTO 00000KT 1 1/2SM -SN BR BKN025 OVC034 M08/M09 A3005 4600 88 3000 000/00 RMK AO2 P0000 T10781094                                   
24015KAKO AKO20191028101013310/28/19 10:10:31  5-MIN KAKO 281710Z AUTO 00000KT 2SM -SN BR BKN027 OVC034 M08/M09 A3005 4600 88 3000 000/00 RMK AO2 P0000 T10781094                                       
24015KAKO AKO20191028101512610/28/19 10:15:31  5-MIN KAKO 281715Z AUTO 00000KT 2SM -SN BR OVC032 M08/M09 A3005 4600 88 3000 000/00 RMK AO2 P0000 T10781094                                              
24015KAKO AKO20191028102012610/28/19 10:20:31  5-MIN KAKO 281720Z AUTO 00000KT 2SM -SN BR OVC032 M08/M09 A3004 4610 92 3000 000/00 RMK AO2 P0000 T10781089                                              
24015KAKO AKO20191028103014410/28/19 10:30:31  5-MIN KAKO 281730Z AUTO 00000KT 2 1/2SM -SN BR FEW010 BKN034 OVC043 M07/M09 A3004 4610 88 3000 000/00 RMK AO2 P0000 T10721089                            
24015KAKO AKO20191028103513310/28/19 10:35:31  5-MIN KAKO 281735Z AUTO 00000KT 3SM -SN BR FEW010 OVC036 M07/M09 A3004 4610 88 3100 000/00 RMK AO2 P0000 T10721089                                       
24015KAKO AKO20191028104013310/28/19 10:40:31  5-MIN KAKO 281740Z AUTO 00000KT 3SM -SN BR FEW011 OVC038 M07/M09 A3004 4610 88 3000 000/00 RMK AO2 P0000 T10721089                                       
24015KAKO AKO20191028161511110/28/19 16:15:31  5-MIN KAKO 282315Z AUTO 00000KT 10SM CLR M06/M08 A2995 4690 84 3300 000/00 RMK AO2 T10611083                                                             
24015KAKO AKO20191028162011110/28/19 16:20:31  5-MIN KAKO 282320Z AUTO 00000KT 10SM CLR M06/M08 A2995 4690 84 3300 000/00 RMK AO2 T10611083                                                             
24015KAKO AKO20191028162511110/28/19 16:25:31  5-MIN KAKO 282325Z AUTO 00000KT 10SM CLR M06/M08 A2995 4690 81 3400 000/00 RMK AO2 T10561083                                                             
24015KAKO AKO20191028163011110/28/19 16:30:31  5-MIN KAKO 282330Z AUTO 00000KT 10SM CLR M06/M08 A2995 4690 81 3400 000/00 RMK AO2 T10561083                                                             
24015KAKO AKO20191028163511110/28/19 16:35:31  5-MIN KAKO 282335Z AUTO 00000KT 10SM CLR M06/M08 A2995 4690 84 3300 000/00 RMK AO2 T10611083                                                             
24015KAKO AKO20191028164011110/28/19 16:40:31  5-MIN KAKO 282340Z AUTO 00000KT 10SM CLR M06/M08 A2995 4690 84 3300 000/00 RMK AO2 T10611083                                                             
24015KAKO AKO20191028164511110/28/19 16:45:31  5-MIN KAKO 282345Z AUTO 00000KT 10SM CLR M07/M08 A2995 4690 88 3200 000/00 RMK AO2 T10671083                                                             
24015KAKO AKO20191028165014210/28/19 16:50:31  5-MIN KAKO 282350Z AUTO 00000KT 10SM CLR M08/M09 A2996 4680 88 3100 000/00 RMK AO2 SLP201 60000 T10781094 11050 21078 56022                              
24015KAKO AKO20191028165511110/28/19 16:55:31  5-MIN KAKO 282355Z AUTO 00000KT 10SM CLR M08/M09 A2996 4680 88 3100 000/00 RMK AO2 T10781094                                                             
24015KAKO AKO20191028170011110/28/19 17:00:31  5-MIN KAKO 290000Z AUTO 00000KT 10SM CLR M07/M10 A2996 4680 81 3100 000/00 RMK AO2 T10721100                                                             
24015KAKO AKO20191028170511110/28/19 17:05:31  5-MIN KAKO 290005Z AUTO 00000KT 10SM CLR M07/M10 A2996 4680 81 3100 000/00 RMK AO2 T10721100                                                             
24015KAKO AKO20191028171011110/28/19 17:10:31  5-MIN KAKO 290010Z AUTO 00000KT 10SM CLR M07/M10 A2997 4670 81 3100 000/00 RMK AO2 T10721100                                                             
24015KAKO AKO20191028171511110/28/19 17:15:31  5-MIN KAKO 290015Z AUTO 00000KT 10SM CLR M08/M10 A2997 4670 84 3100 000/00 RMK AO2 T10781100                                                             
24015KAKO AKO20191028172011110/28/19 17:20:31  5-MIN KAKO 290020Z AUTO 00000KT 10SM CLR M08/M11 A2997 4680 80 3100 000/00 RMK AO2 T10781106                                                             
24015KAKO AKO20191028172511110/28/19 17:25:31  5-MIN KAKO 290025Z AUTO 00000KT 10SM CLR M08/M11 A2997 4680 77 3100 000/00 RMK AO2 T10781111                                                             
24015KAKO AKO20191028173011110/28/19 17:30:31  5-MIN KAKO 290030Z AUTO 00000KT 10SM CLR M08/M11 A2997 4670 77 3100 000/00 RMK AO2 T10781111                                                             
24015KAKO AKO20191028173511110/28/19 17:35:31  5-MIN KAKO 290035Z AUTO 00000KT 10SM CLR M09/M11 A2997 4670 84 2900 000/00 RMK AO2 T10891111                                                             
24015KAKO AKO20191028174011110/28/19 17:40:31  5-MIN KAKO 290040Z AUTO 00000KT 10SM CLR M09/M12 A2997 4670 84 2800 000/00 RMK AO2 T10941117                                                             
24015KAKO AKO20191028174511110/28/19 17:45:31  5-MIN KAKO 290045Z AUTO 00000KT 10SM CLR M09/M12 A2997 4670 80 2900 000/00 RMK AO2 T10891117                                                             
24015KAKO AKO20191028175011810/28/19 17:50:31  5-MIN KAKO 290050Z AUTO 00000KT 10SM CLR M08/M12 A2997 4670 77 3000 000/00 RMK AO2 SLP207 T10831117                                                      
24015KAKO AKO20191028175511110/28/19 17:55:31  5-MIN KAKO 290055Z AUTO 00000KT 10SM CLR M09/M12 A2997 4670 80 2900 000/00 RMK AO2 T10891117                                                             
24015KAKO AKO20191028180011110/28/19 18:00:31  5-MIN KAKO 290100Z AUTO 00000KT 10SM CLR M10/M12 A2998 4670 88 2800 000/00 RMK AO2 T11001117                                                             
24015KAKO AKO20191028180511710/28/19 18:05:31  5-MIN KAKO 290105Z AUTO 00000KT 10SM CLR M10/M12 A2998 4670 84 2800 000/00 RMK AO2 I1000 T11001122                                                       
24015KAKO AKO20191028181011710/28/19 18:10:31  5-MIN KAKO 290110Z AUTO 00000KT 10SM CLR M09/M12 A2998 4660 80 2800 000/00 RMK AO2 I1000 T10941122                                                       
24015KAKO AKO20191028181511710/28/19 18:15:31  5-MIN KAKO 290115Z AUTO 00000KT 10SM CLR M09/M12 A2998 4660 80 2800 000/00 RMK AO2 I1000 T10941122                                                       
24015KAKO AKO20191028182011710/28/19 18:20:31  5-MIN KAKO 290120Z AUTO 00000KT 10SM CLR M11/M12 A2998 4660 92 2700 000/00 RMK AO2 I1000 T11061117                                                       
24015KAKO AKO20191028182511710/28/19 18:25:31  5-MIN KAKO 290125Z AUTO 00000KT 10SM CLR M11/M12 A2998 4660 88 2700 000/00 RMK AO2 I1000 T11061122                                                       
24015KAKO AKO20191028183011710/28/19 18:30:31  5-MIN KAKO 290130Z AUTO 00000KT 10SM CLR M10/M12 A2998 4660 84 2800 000/00 RMK AO2 I1001 T11001122                                                       
24015KAKO AKO20191028183511710/28/19 18:35:31  5-MIN KAKO 290135Z AUTO 00000KT 10SM CLR M09/M12 A2998 4670 84 2800 000/00 RMK AO2 I1001 T10941117                                                       
24015KAKO AKO20191028184511710/28/19 18:45:31  5-MIN KAKO 290145Z AUTO 00000KT 10SM CLR M08/M11 A2997 4670 80 3000 000/00 RMK AO2 I1001 T10831111                                                       
24015KAKO AKO20191028185012410/28/19 18:50:31  5-MIN KAKO 290150Z AUTO 00000KT 10SM CLR M09/M11 A2997 4670 88 2800 000/00 RMK AO2 SLP210 I1001 T10941111                                                
24015KAKO AKO20191028185511110/28/19 18:55:31  5-MIN KAKO 290155Z AUTO 00000KT 10SM CLR M12/M13 A2997 4670 91 2600 000/00 RMK AO2 T11171128                                                             
24015KAKO AKO20191028195013610/28/19 19:50:31  5-MIN KAKO 290250Z AUTO 00000KT 10SM CLR M11/M11 A2999 4660 96 2700 000/00 RMK AO2 SLP218 I1000 I3/// T11061111 56002                                    
24015KAKO AKO20191028195511110/28/19 19:55:31  5-MIN KAKO 290255Z AUTO 00000KT 10SM CLR M12/M13 A2999 4650 91 2500 000/00 RMK AO2 T11171128                                                             
24015KAKO AKO20191028200011110/28/19 20:00:31  5-MIN KAKO 290300Z AUTO 00000KT 10SM CLR M12/M13 A3000 4650 87 2500 000/00 RMK AO2 T11171133                                                             
24015KAKO AKO20191028200511110/28/19 20:05:31  5-MIN KAKO 290305Z AUTO 00000KT 10SM CLR M11/M13 A3000 4650 88 2600 000/00 RMK AO2 T11111128                                                             
24015KAKO AKO20191028201011110/28/19 20:10:31  5-MIN KAKO 290310Z AUTO 00000KT 10SM CLR M11/M13 A3000 4650 88 2600 000/00 RMK AO2 T11111128                                                             
24015KAKO AKO20191028201511110/28/19 20:15:31  5-MIN KAKO 290315Z AUTO 00000KT 10SM CLR M11/M13 A3000 4650 88 2600 000/00 RMK AO2 T11111128                                                             
24015KAKO AKO20191028202011410/28/19 20:20:31  5-MIN KAKO 290320Z AUTO 00000KT 10SM FEW120 M11/M13 A3000 4650 84 2700 000/00 RMK AO2 T11061128                                                          
24015KAKO AKO20191028202511410/28/19 20:25:31  5-MIN KAKO 290325Z AUTO 00000KT 10SM FEW120 M11/M12 A3000 4640 88 2700 000/00 RMK AO2 T11061122                                                          
24015KAKO AKO20191028210511410/28/19 21:05:31  5-MIN KAKO 290405Z AUTO 00000KT 10SM BKN110 M08/M10 A3000 4650 88 3000 000/00 RMK AO2 T10831100                                                          
24015KAKO AKO20191028211011410/28/19 21:10:31  5-MIN KAKO 290410Z AUTO 00000KT 10SM SCT110 M09/M11 A3000 4640 88 2900 000/00 RMK AO2 T10891106                                                          
24015KAKO AKO20191028215011810/28/19 21:50:31  5-MIN KAKO 290450Z AUTO 00000KT 10SM CLR M09/M11 A3001 4640 84 2900 000/00 RMK AO2 SLP221 T10891111                                                      
24015KAKO AKO20191028215511110/28/19 21:55:31  5-MIN KAKO 290455Z AUTO 00000KT 10SM CLR M09/M11 A3000 4640 88 2800 000/00 RMK AO2 T10941111                                                             
24015KAKO AKO20191028220511110/28/19 22:05:31  5-MIN KAKO 290505Z AUTO 00000KT 10SM CLR M09/M11 A3001 4640 84 2900 000/00 RMK AO2 T10891111                                                             
24015KAKO AKO20191028221011110/28/19 22:10:31  5-MIN KAKO 290510Z AUTO 00000KT 10SM CLR M08/M11 A3001 4630 84 2900 000/00 RMK AO2 T10831106                                                             
24015KAKO AKO20191028221511110/28/19 22:15:31  5-MIN KAKO 290515Z AUTO 00000KT 10SM CLR M08/M11 A3002 4630 84 2900 000/00 RMK AO2 T10831106                                                             
24015KAKO AKO20191028222011110/28/19 22:20:31  5-MIN KAKO 290520Z AUTO 00000KT 10SM CLR M08/M11 A3002 4630 84 2900 000/00 RMK AO2 T10831106                                                             
24015KAKO AKO20191029004011410/29/19 00:40:31  5-MIN KAKO 290740Z AUTO 00000KT 10SM OVC070 M07/M09 A2999 4650 84 3200 000/00 RMK AO2 T10671089                                                          
24015KAKO AKO20191029004511410/29/19 00:45:31  5-MIN KAKO 290745Z AUTO 00000KT 10SM OVC070 M07/M09 A2999 4650 84 3200 000/00 RMK AO2 T10671089                                                          
24015KAKO AKO20191029005012110/29/19 00:50:31  5-MIN KAKO 290750Z AUTO 00000KT 10SM OVC070 M07/M09 A2999 4650 84 3200 000/00 RMK AO2 SLP206 T10671089                                                   
24015KAKO AKO20191029005511410/29/19 00:55:31  5-MIN KAKO 290755Z AUTO 00000KT 10SM OVC070 M07/M09 A2999 4650 84 3200 000/00 RMK AO2 T10671089                                                          
24015KAKO AKO20191029010011410/29/19 01:00:31  5-MIN KAKO 290800Z AUTO 00000KT 10SM OVC070 M07/M09 A2999 4660 84 3200 000/00 RMK AO2 T10671089                                                          
24015KAKO AKO20191029012011410/29/19 01:20:31  5-MIN KAKO 290820Z AUTO 00000KT 10SM OVC070 M07/M08 A3000 4650 88 3200 000/00 RMK AO2 T10671083                                                          
24015KAKO AKO20191029012511410/29/19 01:25:31  5-MIN KAKO 290825Z AUTO 00000KT 10SM OVC070 M06/M08 A3000 4650 84 3200 000/00 RMK AO2 T10611083                                                          
24015KAKO AKO20191029013011410/29/19 01:30:31  5-MIN KAKO 290830Z AUTO 00000KT 10SM OVC070 M06/M08 A3000 4650 84 3200 000/00 RMK AO2 T10611083                                                          
24015KAKO AKO20191029014011410/29/19 01:40:31  5-MIN KAKO 290840Z AUTO 00000KT 10SM OVC065 M06/M08 A3000 4650 84 3200 000/00 RMK AO2 T10611083                                                          
24015KAKO AKO20191029014511410/29/19 01:45:31  5-MIN KAKO 290845Z AUTO 00000KT 10SM OVC065 M06/M08 A3000 4650 84 3200 000/00 RMK AO2 T10611083                                                          
24015KAKO AKO20191029015511410/29/19 01:55:31  5-MIN KAKO 290855Z AUTO VRB04KT 10SM OVC060 M06/M08 A3000 4650 84 3200 VRB/04 RMK AO2 T10611083                                                          
24015KAKO AKO20191029021011410/29/19 02:10:31  5-MIN KAKO 290910Z AUTO 00000KT 10SM OVC055 M06/M08 A3000 4650 81 3300 000/00 RMK AO2 T10561083                                                          
24015KAKO AKO20191029022012110/29/19 02:20:31  5-MIN KAKO 290920Z AUTO 00000KT 10SM BKN055 OVC070 M06/M08 A3000 4650 81 3300 000/00 RMK AO2 T10561083                                                   
24015KAKO AKO20191029023011410/29/19 02:30:31  5-MIN KAKO 290930Z AUTO 00000KT 10SM OVC060 M06/M08 A3000 4650 81 3300 000/00 RMK AO2 T10561083                                                          
24015KAKO AKO20191029024511410/29/19 02:45:31  5-MIN KAKO 290945Z AUTO 00000KT 10SM OVC055 M06/M08 A3000 4650 81 3300 000/00 RMK AO2 T10561083                                                          
24015KAKO AKO20191029030511410/29/19 03:05:31  5-MIN KAKO 291005Z AUTO VRB04KT 10SM OVC055 M06/M08 A3001 4640 84 3200 VRB/04 RMK AO2 T10611083                                                          
24015KAKO AKO20191031143011010/31/19 14:30:31  5-MIN KAKO 312130Z AUTO 00000KT 10SM CLR 01/M07 A3010 4560 56 4000 000/00 RMK AO2 T00111067                                                              
24015KAKO AKO20191031153011110/31/19 15:30:31  5-MIN KAKO 312230Z AUTO 00000KT 10SM CLR M01/M07 A3009 4560 66 3700 000/00 RMK AO2 T10111067                                                             
24015KAKO AKO20191031153511110/31/19 15:35:31  5-MIN KAKO 312235Z AUTO 00000KT 10SM CLR M01/M07 A3009 4560 63 3800 000/00 RMK AO2 T10061067                                                             
24015KAKO AKO20191031161511010/31/19 16:15:31  5-MIN KAKO 312315Z AUTO 00000KT 10SM CLR 01/M06 A3009 4570 61 4000 000/00 RMK AO2 T00061061                                                              
24015KAKO AKO20191031162011010/31/19 16:20:31  5-MIN KAKO 312320Z AUTO 00000KT 10SM CLR 01/M07 A3009 4570 58 4000 000/00 RMK AO2 T00061067                                                              
24015KAKO AKO20191031162511010/31/19 16:25:31  5-MIN KAKO 312325Z AUTO 00000KT 10SM CLR 01/M07 A3009 4560 58 4000 000/00 RMK AO2 T00061067                                                              
24015KAKO AKO20191031163011010/31/19 16:30:31  5-MIN KAKO 312330Z AUTO 00000KT 10SM CLR 01/M06 A3009 4560 58 4000 000/00 RMK AO2 T00111061                                                              
24015KAKO AKO20191031163511010/31/19 16:35:31  5-MIN KAKO 312335Z AUTO 00000KT 10SM CLR 02/M06 A3009 4560 56 4100 000/00 RMK AO2 T00171061                                                              
24015KAKO AKO20191031192011110/31/19 19:20:31  5-MIN KAKO 010220Z AUTO 00000KT 10SM CLR M02/M07 A3008 4570 69 3700 000/00 RMK AO2 T10171067                                                             
24015KAKO AKO20191101214511311/01/19 21:45:31  5-MIN KAKO 020445Z AUTO 00000KT 10SM CLR M05/M08 A3041 4270 81 2900 000/00 RMK AO2 T10501078 $                                                           
24015KAKO AKO20191102123511211/02/19 12:35:31  5-MIN KAKO 021935Z AUTO 00000KT 10SM CLR 05/M02 A3019 4470 62 4400 000/00 RMK AO2 T00501017 $                                                            
24015KAKO AKO20191102131011211/02/19 13:10:31  5-MIN KAKO 022010Z AUTO 00000KT 10SM CLR 06/M01 A3017 4490 60 4500 000/00 RMK AO2 T00611011 $                                                            
24015KAKO AKO20191102131511211/02/19 13:15:31  5-MIN KAKO 022015Z AUTO VRB03KT 10SM CLR 06/M02 A3017 4490 57 4500 VRB/03 RMK AO2 T00611017 $                                                            
24015KAKO AKO20191102132011211/02/19 13:20:31  5-MIN KAKO 022020Z AUTO 00000KT 10SM CLR 07/M02 A3017 4490 53 4600 000/00 RMK AO2 T00671022 $                                                            
24015KAKO AKO20191102132511211/02/19 13:25:31  5-MIN KAKO 022025Z AUTO 00000KT 10SM CLR 07/M02 A3017 4490 53 4700 000/00 RMK AO2 T00721017 $                                                            
24015KAKO AKO20191102133011211/02/19 13:30:31  5-MIN KAKO 022030Z AUTO 00000KT 10SM CLR 08/M01 A3017 4490 51 4800 000/00 RMK AO2 T00831011 $                                                            
24015KAKO AKO20191102133511211/02/19 13:35:31  5-MIN KAKO 022035Z AUTO 00000KT 10SM CLR 08/M02 A3017 4490 51 4700 000/00 RMK AO2 T00781017 $                                                            
24015KAKO AKO20191102134011211/02/19 13:40:31  5-MIN KAKO 022040Z AUTO 00000KT 10SM CLR 08/M02 A3017 4490 49 4800 000/00 RMK AO2 T00831017 $                                                            
24015KAKO AKO20191102140511211/02/19 14:05:31  5-MIN KAKO 022105Z AUTO 00000KT 10SM CLR 08/M02 A3016 4490 51 4700 000/00 RMK AO2 T00781017 $                                                            
24015KAKO AKO20191102141511211/02/19 14:15:31  5-MIN KAKO 022115Z AUTO 00000KT 10SM CLR 08/M02 A3017 4490 49 4700 000/00 RMK AO2 T00781022 $                                                            
24015KAKO AKO20191102142511211/02/19 14:25:31  5-MIN KAKO 022125Z AUTO 00000KT 10SM CLR 09/M02 A3016 4500 47 4900 000/00 RMK AO2 T00891017 $                                                            
24015KAKO AKO20191102143011211/02/19 14:30:31  5-MIN KAKO 022130Z AUTO 00000KT 10SM CLR 08/M02 A3016 4500 49 4800 000/00 RMK AO2 T00831017 $                                                            
24015KAKO AKO20191102143511211/02/19 14:35:31  5-MIN KAKO 022135Z AUTO 00000KT 10SM CLR 08/M02 A3016 4500 49 4800 000/00 RMK AO2 T00831017 $                                                            
24015KAKO AKO20191102144011211/02/19 14:40:31  5-MIN KAKO 022140Z AUTO 00000KT 10SM CLR 08/M02 A3016 4500 49 4800 000/00 RMK AO2 T00831017 $                                                            
24015KAKO AKO20191102144511211/02/19 14:45:31  5-MIN KAKO 022145Z AUTO 00000KT 10SM CLR 09/M02 A3016 4500 45 4900 000/00 RMK AO2 T00891022 $                                                            
24015KAKO AKO20191102145011911/02/19 14:50:31  5-MIN KAKO 022150Z AUTO 00000KT 10SM CLR 09/M02 A3016 4500 45 4900 000/00 RMK AO2 SLP227 T00891022 $                                                     
24015KAKO AKO20191102145511211/02/19 14:55:31  5-MIN KAKO 022155Z AUTO 00000KT 10SM CLR 08/M03 A3016 4500 45 4800 000/00 RMK AO2 T00831028 $                                                            
24015KAKO AKO20191102150511211/02/19 15:05:31  5-MIN KAKO 022205Z AUTO 00000KT 10SM CLR 09/M03 A3016 4500 43 4900 000/00 RMK AO2 T00891028 $                                                            
24015KAKO AKO20191102151011211/02/19 15:10:31  5-MIN KAKO 022210Z AUTO 00000KT 10SM CLR 09/M03 A3016 4500 43 4900 000/00 RMK AO2 T00891028 $                                                            
24015KAKO AKO20191102151511211/02/19 15:15:31  5-MIN KAKO 022215Z AUTO 00000KT 10SM CLR 09/M03 A3016 4500 42 4900 000/00 RMK AO2 T00941028 $                                                            
24015KAKO AKO20191102152011211/02/19 15:20:31  5-MIN KAKO 022220Z AUTO 00000KT 10SM CLR 09/M03 A3015 4500 42 4900 000/00 RMK AO2 T00941028 $                                                            
24015KAKO AKO20191102152511211/02/19 15:25:31  5-MIN KAKO 022225Z AUTO 00000KT 10SM CLR 10/M03 A3015 4500 39 5000 000/00 RMK AO2 T01001033 $                                                            
24015KAKO AKO20191102153011211/02/19 15:30:31  5-MIN KAKO 022230Z AUTO 00000KT 10SM CLR 10/M04 A3015 4510 37 5000 000/00 RMK AO2 T01001039 $                                                            
24015KAKO AKO20191102153511211/02/19 15:35:31  5-MIN KAKO 022235Z AUTO 00000KT 10SM CLR 10/M04 A3015 4510 37 5000 000/00 RMK AO2 T01001039 $                                                            
24015KAKO AKO20191102154011211/02/19 15:40:31  5-MIN KAKO 022240Z AUTO 00000KT 10SM CLR 10/M05 A3015 4510 34 5000 000/00 RMK AO2 T01001050 $                                                            
24015KAKO AKO20191102154511211/02/19 15:45:31  5-MIN KAKO 022245Z AUTO 00000KT 10SM CLR 10/M05 A3015 4510 34 5000 000/00 RMK AO2 T01001050 $                                                            
24015KAKO AKO20191102155011911/02/19 15:50:31  5-MIN KAKO 022250Z AUTO 00000KT 10SM CLR 10/M03 A3015 4510 39 5000 000/00 RMK AO2 SLP219 T01001033 $                                                     
24015KAKO AKO20191102155511211/02/19 15:55:31  5-MIN KAKO 022255Z AUTO 00000KT 10SM CLR 10/M03 A3014 4510 39 5000 000/00 RMK AO2 T01001033 $                                                            
24015KAKO AKO20191102160011211/02/19 16:00:31  5-MIN KAKO 022300Z AUTO 00000KT 10SM CLR 09/M03 A3014 4520 40 5000 000/00 RMK AO2 T00941033 $                                                            
24015KAKO AKO20191102160511211/02/19 16:05:31  5-MIN KAKO 022305Z AUTO 00000KT 10SM CLR 09/M04 A3014 4520 39 5000 000/00 RMK AO2 T00941039 $                                                            
24015KAKO AKO20191102163511211/02/19 16:35:31  5-MIN KAKO 022335Z AUTO 00000KT 10SM CLR 08/M05 A3014 4520 40 4800 000/00 RMK AO2 T00781050 $                                                            
24015KAKO AKO20191102175511211/02/19 17:55:31  5-MIN KAKO 030055Z AUTO 00000KT 10SM CLR 02/M03 A3015 4510 67 4100 000/00 RMK AO2 T00221033 $                                                            
24015KAKO AKO20191102180011211/02/19 18:00:31  5-MIN KAKO 030100Z AUTO 00000KT 10SM CLR 02/M03 A3015 4510 69 4000 000/00 RMK AO2 T00171033 $                                                            
24015KAKO AKO20191102181011211/02/19 18:10:31  5-MIN KAKO 030110Z AUTO 00000KT 10SM CLR 04/M04 A3015 4510 55 4400 000/00 RMK AO2 T00441039 $                                                            
24015KAKO AKO20191102181511211/02/19 18:15:31  5-MIN KAKO 030115Z AUTO 00000KT 10SM CLR 04/M04 A3015 4510 55 4400 000/00 RMK AO2 T00441039 $                                                            
24015KAKO AKO20191102182011211/02/19 18:20:31  5-MIN KAKO 030120Z AUTO 00000KT 10SM CLR 05/M05 A3015 4510 48 4400 000/00 RMK AO2 T00501050 $                                                            
24015KAKO AKO20191102182511211/02/19 18:25:31  5-MIN KAKO 030125Z AUTO 00000KT 10SM CLR 04/M04 A3015 4510 54 4300 000/00 RMK AO2 T00391044 $                                                            
24015KAKO AKO20191102183011211/02/19 18:30:31  5-MIN KAKO 030130Z AUTO 00000KT 10SM CLR 04/M04 A3015 4510 52 4400 000/00 RMK AO2 T00441044 $                                                            
24015KAKO AKO20191102183511211/02/19 18:35:31  5-MIN KAKO 030135Z AUTO 00000KT 10SM CLR 03/M04 A3015 4510 61 4200 000/00 RMK AO2 T00281039 $                                                            
24015KAKO AKO20191102184011211/02/19 18:40:31  5-MIN KAKO 030140Z AUTO 00000KT 10SM CLR 03/M04 A3015 4510 61 4200 000/00 RMK AO2 T00281039 $                                                            
24015KAKO AKO20191102184511211/02/19 18:45:31  5-MIN KAKO 030145Z AUTO 00000KT 10SM CLR 04/M05 A3014 4510 50 4400 000/00 RMK AO2 T00441050 $                                                            
24015KAKO AKO20191102193011211/02/19 19:30:31  5-MIN KAKO 030230Z AUTO 00000KT 10SM CLR 02/M06 A3013 4520 54 4100 000/00 RMK AO2 T00221061 $                                                            
24015KAKO AKO20191102193511211/02/19 19:35:31  5-MIN KAKO 030235Z AUTO 00000KT 10SM CLR 02/M06 A3013 4520 56 4100 000/00 RMK AO2 T00221056 $                                                            
24015KAKO AKO20191102194011211/02/19 19:40:31  5-MIN KAKO 030240Z AUTO 00000KT 10SM CLR 03/M06 A3013 4520 54 4200 000/00 RMK AO2 T00281056 $                                                            
24015KAKO AKO20191102194511211/02/19 19:45:31  5-MIN KAKO 030245Z AUTO 00000KT 10SM CLR 02/M06 A3013 4520 56 4100 000/00 RMK AO2 T00221056 $                                                            
24015KAKO AKO20191102195511211/02/19 19:55:31  5-MIN KAKO 030255Z AUTO 00000KT 10SM CLR 06/M08 A3013 4520 36 4500 000/00 RMK AO2 T00561083 $                                                            
24015KAKO AKO20191102210511211/02/19 21:05:31  5-MIN KAKO 030405Z AUTO 00000KT 10SM CLR 02/M06 A3012 4530 54 4100 000/00 RMK AO2 T00221061 $                                                            
24015KAKO AKO20191103193011511/03/19 19:30:31  5-MIN KAKO 040230Z AUTO VRB03KT 10SM OVC100 06/M05 A3000 4640 46 4700 VRB/03 RMK AO2 T00561050 $                                                         
24015KAKO AKO20191103193511511/03/19 19:35:31  5-MIN KAKO 040235Z AUTO 00000KT 10SM OVC100 06/M05 A3000 4650 46 4700 000/00 RMK AO2 T00561050 $                                                         
24015KAKO AKO20191103194011511/03/19 19:40:31  5-MIN KAKO 040240Z AUTO 00000KT 10SM OVC100 06/M05 A3000 4650 45 4700 000/00 RMK AO2 T00611050 $                                                         
24015KAKO AKO20191103201011511/03/19 20:10:31  5-MIN KAKO 040310Z AUTO 00000KT 10SM OVC100 06/M03 A2999 4650 53 4700 000/00 RMK AO2 T00561033 $                                                         
24015KAKO AKO20191103201511511/03/19 20:15:31  5-MIN KAKO 040315Z AUTO 00000KT 10SM OVC100 06/M04 A3000 4650 50 4700 000/00 RMK AO2 T00561039 $                                                         
24015KAKO AKO20191103213011511/03/19 21:30:31  5-MIN KAKO 040430Z AUTO VRB04KT 10SM BKN110 05/M03 A3002 4630 57 4600 VRB/04 RMK AO2 T00501028 $                                                         
24015KAKO AKO20191104015012811/04/19 01:50:31  5-MIN KAKO 040850Z AUTO 00000KT 10SM OVC110 02/M01 A3003 4620 78 4200 000/00 RMK AO2 SLP160 T00221011 50009 $                                            
24015KAKO AKO20191104032011511/04/19 03:20:31  5-MIN KAKO 041020Z AUTO 00000KT 10SM OVC120 02/M01 A3004 4610 82 4100 000/00 RMK AO2 T00171011 $                                                         
24015KAKO AKO20191104032511511/04/19 03:25:31  5-MIN KAKO 041025Z AUTO 00000KT 10SM BKN120 02/M01 A3004 4610 78 4200 000/00 RMK AO2 T00221011 $                                                         
24015KAKO AKO20191104222511211/04/19 22:25:31  5-MIN KAKO 050525Z AUTO 00000KT 10SM OVC100 01/00 A3018 4480 92 3900 000/00 RMK AO2 T00110000                                                            
24015KAKO AKO20191104223011311/04/19 22:30:31  5-MIN KAKO 050530Z AUTO 00000KT 10SM OVC100 01/M01 A3018 4480 89 3900 000/00 RMK AO2 T00111006                                                           
24015KAKO AKO20191104223511211/04/19 22:35:31  5-MIN KAKO 050535Z AUTO 00000KT 9SM OVC100 01/M01 A3018 4480 92 3900 000/00 RMK AO2 T00061006                                                            
24015KAKO AKO20191104224011211/04/19 22:40:31  5-MIN KAKO 050540Z AUTO 00000KT 9SM OVC100 01/M01 A3018 4480 92 3900 000/00 RMK AO2 T00061006                                                            
24015KAKO AKO20191105002012711/05/19 00:20:31  5-MIN KAKO 050720Z AUTO 00000KT 1/4SM FZFG VV001 M01/M02 A3017 4490 92 3700 000/00 RMK AO2 I1000 T10061017 $                                             
24015KAKO AKO20191105002512711/05/19 00:25:31  5-MIN KAKO 050725Z AUTO 00000KT 1/4SM FZFG VV001 M01/M02 A3017 4490 92 3700 000/00 RMK AO2 I1000 T10111022 $                                             
24015KAKO AKO20191105003012711/05/19 00:30:31  5-MIN KAKO 050730Z AUTO 00000KT 1/4SM FZFG VV001 M01/M03 A3017 4490 88 3700 000/00 RMK AO2 I1000 T10111028 $                                             
24015KAKO AKO20191105003512711/05/19 00:35:31  5-MIN KAKO 050735Z AUTO 00000KT 1/4SM FZFG VV001 M02/M03 A3017 4490 92 3600 000/00 RMK AO2 I1000 T10171028 $                                             
24015KAKO AKO20191105004012711/05/19 00:40:31  5-MIN KAKO 050740Z AUTO 00000KT 1/4SM FZFG VV001 M02/M03 A3016 4490 88 3600 000/00 RMK AO2 I1000 T10171033 $                                             
24015KAKO AKO20191105005512111/05/19 00:55:31  5-MIN KAKO 050755Z AUTO 00000KT 1/4SM FZFG VV001 M02/M04 A3016 4500 88 3500 000/00 RMK AO2 T10221039 $                                                   
24015KAKO AKO20191105010010411/05/19 01:00:31  5-MIN KAKO 050800Z AUTO 00000KT M02/M04 A3016 4500 88 3500 000/00 RMK AO2 T10221039 $                                                                    
24015KAKO AKO20191105013512411/05/19 01:35:31  5-MIN KAKO 050835Z AUTO 00000KT 4SM BR FEW002 M03/M04 A3014 4510 92 3400 000/00 RMK AO2 I1/// T10331044 $                                                
24015KAKO AKO20191105033011311/05/19 03:30:31  5-MIN KAKO 051030Z AUTO 00000KT 10SM CLR M03/M05 A3015 4510 88 3400 000/00 RMK AO2 T10331050 $                                                           
24015KAKO AKO20191105034011911/05/19 03:40:31  5-MIN KAKO 051040Z AUTO VRB03KT 10SM CLR M01/M03 A3015 4510 88 3700 VRB/03 RMK AO2 I1000 T10111028 $                                                     
24015KAKO AKO20191105035012611/05/19 03:50:31  5-MIN KAKO 051050Z AUTO 00000KT 10SM CLR M03/M04 A3015 4510 88 3500 000/00 RMK AO2 SLP225 I1000 T10281044 $                                              
24015KAKO AKO20191105035511311/05/19 03:55:31  5-MIN KAKO 051055Z AUTO 00000KT 10SM CLR M02/M04 A3014 4510 88 3500 000/00 RMK AO2 T10221039 $                                                           
24015KAKO AKO20191105042011311/05/19 04:20:31  5-MIN KAKO 051120Z AUTO 00000KT 10SM CLR M03/M04 A3015 4510 92 3400 000/00 RMK AO2 T10331044 $                                                           
24015KAKO AKO20191105051511311/05/19 05:15:31  5-MIN KAKO 051215Z AUTO 00000KT 10SM CLR M02/M03 A3015 4510 92 3500 000/00 RMK AO2 T10221033 $                                                           
24015KAKO AKO20191105052011311/05/19 05:20:31  5-MIN KAKO 051220Z AUTO 00000KT 10SM CLR M03/M04 A3015 4510 88 3500 000/00 RMK AO2 T10281044 $                                                           
24015KAKO AKO20191105053011311/05/19 05:30:31  5-MIN KAKO 051230Z AUTO 00000KT 10SM CLR M02/M03 A3015 4510 88 3600 000/00 RMK AO2 T10171033 $                                                           
24015KAKO AKO20191105053511311/05/19 05:35:31  5-MIN KAKO 051235Z AUTO 00000KT 10SM CLR M03/M04 A3015 4510 92 3500 000/00 RMK AO2 T10281039 $                                                           
24015KAKO AKO20191105055012011/05/19 05:50:31  5-MIN KAKO 051250Z AUTO 00000KT 10SM CLR M03/M03 A3015 4510 96 3500 000/00 RMK AO2 SLP231 T10281033 $                                                    
24015KAKO AKO20191105113510911/05/19 11:35:31  5-MIN KAKO 051835Z AUTO VRB06KT 10SM CLR 11/01 A3016 4500 52 5100 VRB/06 RMK AO2 T01060011                                                               
24015KAKO AKO20191105114010911/05/19 11:40:31  5-MIN KAKO 051840Z AUTO VRB06KT 10SM CLR 11/01 A3016 4500 52 5100 VRB/06 RMK AO2 T01060011                                                               
24015KAKO AKO20191105134011011/05/19 13:40:31  5-MIN KAKO 052040Z AUTO 00000KT 10SM CLR 13/M01 A3012 4530 38 5400 000/00 RMK AO2 T01331006                                                              
24015KAKO AKO20191105135012311/05/19 13:50:31  5-MIN KAKO 052050Z AUTO 00000KT 10SM CLR 13/M01 A3012 4530 38 5400 000/00 RMK AO2 SLP201 T01331006 53000                                                 
24015KAKO AKO20191105140011011/05/19 14:00:31  5-MIN KAKO 052100Z AUTO 00000KT 10SM CLR 14/M01 A3012 4530 37 5500 000/00 RMK AO2 T01391006                                                              
24015KAKO AKO20191105141011011/05/19 14:10:31  5-MIN KAKO 052110Z AUTO VRB05KT 10SM CLR 14/M01 A3012 4530 35 5600 VRB/05 RMK AO2 T01441006                                                              
24015KAKO AKO20191105142511011/05/19 14:25:31  5-MIN KAKO 052125Z AUTO VRB03KT 10SM CLR 14/M01 A3012 4540 37 5500 VRB/03 RMK AO2 T01391006                                                              
24015KAKO AKO20191105144011011/05/19 14:40:31  5-MIN KAKO 052140Z AUTO VRB03KT 10SM CLR 14/M01 A3011 4540 35 5600 VRB/03 RMK AO2 T01441006                                                              
24015KAKO AKO20191105145011711/05/19 14:50:31  5-MIN KAKO 052150Z AUTO 00000KT 10SM CLR 14/M01 A3011 4540 35 5600 000/00 RMK AO2 SLP194 T01441006                                                       
24015KAKO AKO20191105153511011/05/19 15:35:31  5-MIN KAKO 052235Z AUTO 00000KT 10SM CLR 15/M03 A3011 4540 28 5600 000/00 RMK AO2 T01501033                                                              
24015KAKO AKO20191105155011711/05/19 15:50:31  5-MIN KAKO 052250Z AUTO 00000KT 10SM CLR 15/M04 A3011 4540 27 5600 000/00 RMK AO2 SLP195 T01501039                                                       
24015KAKO AKO20191105155511011/05/19 15:55:31  5-MIN KAKO 052255Z AUTO 00000KT 10SM CLR 15/M04 A3011 4540 27 5600 000/00 RMK AO2 T01501039                                                              
24015KAKO AKO20191105160011011/05/19 16:00:31  5-MIN KAKO 052300Z AUTO 00000KT 10SM CLR 14/M04 A3011 4540 28 5600 000/00 RMK AO2 T01441039                                                              
24015KAKO AKO20191105160511011/05/19 16:05:31  5-MIN KAKO 052305Z AUTO 00000KT 10SM CLR 14/M04 A3011 4540 28 5600 000/00 RMK AO2 T01441039                                                              
24015KAKO AKO20191105161011011/05/19 16:10:31  5-MIN KAKO 052310Z AUTO 00000KT 10SM CLR 14/M04 A3011 4540 28 5600 000/00 RMK AO2 T01441039                                                              
24015KAKO AKO20191105161511011/05/19 16:15:31  5-MIN KAKO 052315Z AUTO 00000KT 10SM CLR 14/M04 A3011 4540 28 5600 000/00 RMK AO2 T01441039                                                              
24015KAKO AKO20191105162011011/05/19 16:20:31  5-MIN KAKO 052320Z AUTO 00000KT 10SM CLR 14/M03 A3011 4540 30 5500 000/00 RMK AO2 T01391033                                                              
24015KAKO AKO20191105162511011/05/19 16:25:31  5-MIN KAKO 052325Z AUTO 00000KT 10SM CLR 13/M03 A3011 4540 31 5400 000/00 RMK AO2 T01331033                                                              
24015KAKO AKO20191105163011011/05/19 16:30:31  5-MIN KAKO 052330Z AUTO 00000KT 10SM CLR 13/M03 A3011 4540 32 5400 000/00 RMK AO2 T01331028                                                              
24015KAKO AKO20191105163511011/05/19 16:35:31  5-MIN KAKO 052335Z AUTO 00000KT 10SM CLR 13/M02 A3011 4540 34 5400 000/00 RMK AO2 T01331022                                                              
24015KAKO AKO20191105164011011/05/19 16:40:31  5-MIN KAKO 052340Z AUTO 00000KT 10SM CLR 13/M02 A3011 4540 35 5400 000/00 RMK AO2 T01281022                                                              
24015KAKO AKO20191105164511011/05/19 16:45:31  5-MIN KAKO 052345Z AUTO 00000KT 10SM CLR 12/M02 A3011 4540 38 5200 000/00 RMK AO2 T01171022                                                              
24015KAKO AKO20191105165013511/05/19 16:50:31  5-MIN KAKO 052350Z AUTO 00000KT 10SM CLR 12/M02 A3011 4540 38 5200 000/00 RMK AO2 SLP198 T01171022 10150 20094 56018                                     
24015KAKO AKO20191105165511011/05/19 16:55:31  5-MIN KAKO 052355Z AUTO 00000KT 10SM CLR 12/M02 A3011 4540 38 5200 000/00 RMK AO2 T01171022                                                              
24015KAKO AKO20191105170011011/05/19 17:00:31  5-MIN KAKO 060000Z AUTO 00000KT 10SM CLR 10/M02 A3011 4540 42 5000 000/00 RMK AO2 T01001022                                                              
24015KAKO AKO20191105170511011/05/19 17:05:31  5-MIN KAKO 060005Z AUTO 00000KT 10SM CLR 11/M03 A3011 4540 39 5100 000/00 RMK AO2 T01061028                                                              
24015KAKO AKO20191105171011011/05/19 17:10:31  5-MIN KAKO 060010Z AUTO 00000KT 10SM CLR 11/M03 A3011 4540 39 5100 000/00 RMK AO2 T01061028                                                              
24015KAKO AKO20191105171511011/05/19 17:15:31  5-MIN KAKO 060015Z AUTO 00000KT 10SM CLR 11/M03 A3011 4540 39 5100 000/00 RMK AO2 T01061028                                                              
24015KAKO AKO20191105172011011/05/19 17:20:31  5-MIN KAKO 060020Z AUTO 00000KT 10SM CLR 11/M03 A3011 4540 37 5200 000/00 RMK AO2 T01111028                                                              
24015KAKO AKO20191105172511011/05/19 17:25:31  5-MIN KAKO 060025Z AUTO 00000KT 10SM CLR 11/M03 A3011 4540 37 5200 000/00 RMK AO2 T01111028                                                              
24015KAKO AKO20191105173011011/05/19 17:30:31  5-MIN KAKO 060030Z AUTO 00000KT 10SM CLR 09/M03 A3011 4540 43 4900 000/00 RMK AO2 T00891028                                                              
24015KAKO AKO20191105173511011/05/19 17:35:31  5-MIN KAKO 060035Z AUTO 00000KT 10SM CLR 11/M03 A3011 4540 37 5200 000/00 RMK AO2 T01111028                                                              
24015KAKO AKO20191106222511411/06/19 22:25:31  5-MIN KAKO 070525Z AUTO VRB03KT 10SM OVC005 M04/M06 A3045 4230 92 2900 VRB/03 RMK AO2 T10441056                                                          
24015KAKO AKO20191106223511411/06/19 22:35:31  5-MIN KAKO 070535Z AUTO 00000KT 10SM OVC005 M04/M06 A3045 4230 92 2900 000/00 RMK AO2 T10441056                                                          
24015KAKO AKO20191106224011411/06/19 22:40:31  5-MIN KAKO 070540Z AUTO 00000KT 10SM OVC005 M04/M06 A3046 4230 92 2900 000/00 RMK AO2 T10441056                                                          
24015KAKO AKO20191107011011411/07/19 01:10:31  5-MIN KAKO 070810Z AUTO 00000KT 10SM OVC004 M04/M06 A3043 4250 92 2900 000/00 RMK AO2 T10441056                                                          
24015KAKO AKO20191107011511411/07/19 01:15:31  5-MIN KAKO 070815Z AUTO 00000KT 10SM OVC004 M04/M06 A3043 4250 92 2900 000/00 RMK AO2 T10441056                                                          
24015KAKO AKO20191107012011411/07/19 01:20:31  5-MIN KAKO 070820Z AUTO 00000KT 10SM OVC004 M04/M06 A3044 4240 92 2900 000/00 RMK AO2 T10441056                                                          
24015KAKO AKO20191107012511411/07/19 01:25:31  5-MIN KAKO 070825Z AUTO 00000KT 10SM OVC004 M04/M06 A3044 4240 92 2900 000/00 RMK AO2 T10441056                                                          
24015KAKO AKO20191107013011411/07/19 01:30:31  5-MIN KAKO 070830Z AUTO 00000KT 10SM OVC004 M04/M06 A3044 4250 92 2900 000/00 RMK AO2 T10441056                                                          
24015KAKO AKO20191107013511411/07/19 01:35:31  5-MIN KAKO 070835Z AUTO 00000KT 10SM OVC005 M04/M06 A3043 4250 92 2900 000/00 RMK AO2 T10441056                                                          
24015KAKO AKO20191107014011411/07/19 01:40:31  5-MIN KAKO 070840Z AUTO 00000KT 10SM OVC005 M04/M06 A3043 4250 92 2900 000/00 RMK AO2 T10441056                                                          
24015KAKO AKO20191107014511411/07/19 01:45:31  5-MIN KAKO 070845Z AUTO 00000KT 10SM OVC005 M04/M06 A3043 4250 92 2900 000/00 RMK AO2 T10441056                                                          
24015KAKO AKO20191107015013911/07/19 01:50:31  5-MIN KAKO 070850Z AUTO 00000KT 10SM OVC005 M04/M06 A3043 4250 92 2900 000/00 RMK AO2 CIG 003V007 SLP345 T10441056 51009                                 
24015KAKO AKO20191107015511411/07/19 01:55:31  5-MIN KAKO 070855Z AUTO 00000KT 10SM OVC005 M04/M06 A3043 4250 92 2900 000/00 RMK AO2 T10441056                                                          
24015KAKO AKO20191107020012611/07/19 02:00:31  5-MIN KAKO 070900Z AUTO 00000KT 10SM OVC005 M04/M06 A3043 4250 92 2900 000/00 RMK AO2 CIG 003V007 T10441056                                              
24015KAKO AKO20191107020512511/07/19 02:05:31  5-MIN KAKO 070905Z AUTO 00000KT 9SM OVC005 M04/M06 A3043 4250 92 2900 000/00 RMK AO2 CIG 003V007 T10441056                                               
24015KAKO AKO20191107021011411/07/19 02:10:31  5-MIN KAKO 070910Z AUTO 00000KT 10SM OVC004 M04/M06 A3043 4250 92 2900 000/00 RMK AO2 T10441056                                                          
24015KAKO AKO20191107021511411/07/19 02:15:31  5-MIN KAKO 070915Z AUTO 00000KT 10SM OVC004 M04/M06 A3043 4250 92 2900 000/00 RMK AO2 T10441056                                                          
24015KAKO AKO20191107022011411/07/19 02:20:31  5-MIN KAKO 070920Z AUTO 00000KT 10SM OVC004 M04/M06 A3043 4250 92 2900 000/00 RMK AO2 T10441056                                                          
24015KAKO AKO20191107022511411/07/19 02:25:31  5-MIN KAKO 070925Z AUTO 00000KT 10SM OVC004 M04/M06 A3043 4250 92 2900 000/00 RMK AO2 T10441056                                                          
24015KAKO AKO20191107023011411/07/19 02:30:31  5-MIN KAKO 070930Z AUTO 00000KT 10SM OVC004 M04/M06 A3043 4250 92 2900 000/00 RMK AO2 T10441056                                                          
24015KAKO AKO20191107023511411/07/19 02:35:31  5-MIN KAKO 070935Z AUTO 00000KT 10SM OVC003 M04/M06 A3043 4250 92 2900 000/00 RMK AO2 T10441056                                                          
24015KAKO AKO20191107025512111/07/19 02:55:31  5-MIN KAKO 070955Z AUTO 00000KT 10SM BKN003 OVC024 M04/M06 A3043 4250 92 2900 000/00 RMK AO2 T10441056                                                   
24015KAKO AKO20191107114511011/07/19 11:45:31  5-MIN KAKO 071845Z AUTO VRB05KT 10SM CLR 06/M01 A3037 4310 62 4200 VRB/05 RMK AO2 T00561011                                                              
24015KAKO AKO20191107115511011/07/19 11:55:31  5-MIN KAKO 071855Z AUTO VRB06KT 10SM CLR 06/M01 A3036 4320 62 4300 VRB/06 RMK AO2 T00611006                                                              
24015KAKO AKO20191107121011011/07/19 12:10:31  5-MIN KAKO 071910Z AUTO VRB04KT 10SM CLR 07/M01 A3035 4320 60 4400 VRB/04 RMK AO2 T00671006                                                              
24015KAKO AKO20191107121511011/07/19 12:15:31  5-MIN KAKO 071915Z AUTO 00000KT 10SM CLR 06/M01 A3035 4320 60 4300 000/00 RMK AO2 T00611011                                                              
24015KAKO AKO20191107122511011/07/19 12:25:31  5-MIN KAKO 071925Z AUTO VRB04KT 10SM CLR 06/M01 A3035 4330 60 4300 VRB/04 RMK AO2 T00611011                                                              
24015KAKO AKO20191107125011711/07/19 12:50:31  5-MIN KAKO 071950Z AUTO VRB05KT 10SM CLR 07/M01 A3034 4330 60 4400 VRB/05 RMK AO2 SLP295 T00671006                                                       
24015KAKO AKO20191107131511011/07/19 13:15:31  5-MIN KAKO 072015Z AUTO 00000KT 10SM CLR 07/M01 A3034 4340 57 4400 000/00 RMK AO2 T00671011                                                              
24015KAKO AKO20191107132511011/07/19 13:25:31  5-MIN KAKO 072025Z AUTO 00000KT 10SM CLR 07/M01 A3033 4340 55 4500 000/00 RMK AO2 T00721011                                                              
24015KAKO AKO20191107133011011/07/19 13:30:31  5-MIN KAKO 072030Z AUTO 00000KT 10SM CLR 07/M01 A3033 4340 55 4500 000/00 RMK AO2 T00721011                                                              
24015KAKO AKO20191107134011011/07/19 13:40:31  5-MIN KAKO 072040Z AUTO 00000KT 10SM CLR 07/M01 A3033 4340 55 4500 000/00 RMK AO2 T00721011                                                              
24015KAKO AKO20191107135012311/07/19 13:50:31  5-MIN KAKO 072050Z AUTO 00000KT 10SM CLR 08/M02 A3033 4350 51 4500 000/00 RMK AO2 SLP287 T00781017 58012                                                 
24015KAKO AKO20191107135511011/07/19 13:55:31  5-MIN KAKO 072055Z AUTO VRB04KT 10SM CLR 08/M01 A3033 4350 53 4500 VRB/04 RMK AO2 T00781011                                                              
24015KAKO AKO20191107140511011/07/19 14:05:31  5-MIN KAKO 072105Z AUTO VRB03KT 10SM CLR 08/M01 A3032 4350 53 4500 VRB/03 RMK AO2 T00781011                                                              
24015KAKO AKO20191107141011011/07/19 14:10:31  5-MIN KAKO 072110Z AUTO VRB03KT 10SM CLR 08/M01 A3032 4350 53 4500 VRB/03 RMK AO2 T00781011                                                              
24015KAKO AKO20191107141511011/07/19 14:15:31  5-MIN KAKO 072115Z AUTO 00000KT 10SM CLR 08/M01 A3032 4350 53 4600 000/00 RMK AO2 T00781011                                                              
24015KAKO AKO20191107142511011/07/19 14:25:31  5-MIN KAKO 072125Z AUTO VRB04KT 10SM CLR 08/M02 A3032 4350 51 4600 VRB/04 RMK AO2 T00781017                                                              
24015KAKO AKO20191107143511011/07/19 14:35:31  5-MIN KAKO 072135Z AUTO 00000KT 10SM CLR 08/M02 A3032 4350 49 4600 000/00 RMK AO2 T00831017                                                              
24015KAKO AKO20191107144011011/07/19 14:40:31  5-MIN KAKO 072140Z AUTO VRB04KT 10SM CLR 08/M02 A3032 4350 49 4600 VRB/04 RMK AO2 T00831017                                                              
24015KAKO AKO20191107151511011/07/19 15:15:31  5-MIN KAKO 072215Z AUTO VRB04KT 10SM CLR 08/M01 A3031 4360 51 4600 VRB/04 RMK AO2 T00831011                                                              
24015KAKO AKO20191110051011011/10/19 05:10:31  5-MIN KAKO 101210Z AUTO 00000KT 10SM CLR 03/M07 A3003 4620 48 4400 000/00 RMK AO2 T00331067                                                              
24015KAKO AKO20191110051511011/10/19 05:15:31  5-MIN KAKO 101215Z AUTO 00000KT 10SM CLR 02/M07 A3003 4610 52 4200 000/00 RMK AO2 T00221067                                                              
24015KAKO AKO20191110052011011/10/19 05:20:31  5-MIN KAKO 101220Z AUTO 00000KT 10SM CLR 01/M07 A3003 4620 56 4100 000/00 RMK AO2 T00111067                                                              
24015KAKO AKO20191110053511011/10/19 05:35:31  5-MIN KAKO 101235Z AUTO 00000KT 10SM CLR 02/M07 A3003 4620 54 4200 000/00 RMK AO2 T00171067                                                              
24015KAKO AKO20191110105013711/10/19 10:50:31  5-MIN KAKO 101750Z AUTO VRB04G14KT 10SM CLR 16/M05 A3001 4640 24 5800 VRB/04G14 RMK AO2 SLP138 T01561050 10161 21011 $                                   
24015KAKO AKO20191110115511211/10/19 11:55:31  5-MIN KAKO 101855Z AUTO VRB05KT 10SM CLR 18/M06 A2996 4680 20 6100 VRB/05 RMK AO2 T01781056 $                                                            
24015KAKO AKO20191110120011211/10/19 12:00:31  5-MIN KAKO 101900Z AUTO 00000KT 10SM CLR 18/M06 A2996 4680 19 6100 000/00 RMK AO2 T01781061 $                                                            
24015KAKO AKO20191110121011211/10/19 12:10:31  5-MIN KAKO 101910Z AUTO VRB06KT 10SM CLR 18/M06 A2995 4690 18 6200 VRB/06 RMK AO2 T01831061 $                                                            
24015KAKO AKO20191110121511211/10/19 12:15:31  5-MIN KAKO 101915Z AUTO 00000KT 10SM CLR 18/M07 A2995 4690 17 6200 000/00 RMK AO2 T01831067 $                                                            
24015KAKO AKO20191110122511211/10/19 12:25:31  5-MIN KAKO 101925Z AUTO VRB05KT 10SM CLR 18/M07 A2994 4700 17 6200 VRB/05 RMK AO2 T01831067 $                                                            
24015KAKO AKO20191110123011211/10/19 12:30:31  5-MIN KAKO 101930Z AUTO VRB03KT 10SM CLR 18/M07 A2994 4700 17 6200 VRB/03 RMK AO2 T01831067 $                                                            
24015KAKO AKO20191113183511011/13/19 18:35:31  5-MIN KAKO 140135Z AUTO 00000KT 10SM CLR 02/M02 A3012 4540 75 4100 000/00 RMK AO2 T00171022                                                              
24015KAKO AKO20191113184011011/13/19 18:40:31  5-MIN KAKO 140140Z AUTO 00000KT 10SM CLR 01/M02 A3012 4530 78 4000 000/00 RMK AO2 T00111022                                                              
24015KAKO AKO20191113184511111/13/19 18:45:31  5-MIN KAKO 140145Z AUTO 00000KT 10SM CLR M01/M04 A3012 4530 81 3700 000/00 RMK AO2 T10111039                                                             
24015KAKO AKO20191113201011411/13/19 20:10:31  5-MIN KAKO 140310Z AUTO 00000KT 10SM SCT090 M01/M03 A3016 4500 81 3700 000/00 RMK AO2 T10061033                                                          
24015KAKO AKO20191113215512311/13/19 21:55:31  5-MIN KAKO 140455Z AUTO VRB04KT 10SM -RA OVC043 03/M01 A3019 4470 76 4200 VRB/04 RMK AO2 P0000 T00331006                                                 
24015KAKO AKO20191113220512211/13/19 22:05:31  5-MIN KAKO 140505Z AUTO VRB05KT 10SM -RA OVC036 03/00 A3019 4470 82 4100 VRB/05 RMK AO2 P0000 T00280000                                                  
24015KAKO AKO20191113224513111/13/19 22:45:31  5-MIN KAKO 140545Z AUTO 00000KT 10SM -RA OVC037 03/00 A3021 4460 82 4100 000/00 RMK AO2 UPB28E37 P0000 T00280000                                         
24015KAKO AKO20191113225016211/13/19 22:50:31  5-MIN KAKO 140550Z AUTO 00000KT 10SM -RA OVC037 03/00 A3021 4450 82 4100 000/00 RMK AO2 UPB28E37 SLP230 P0000 60000 T00280000 10044 21017 53024          
24015KAKO AKO20191114164011011/14/19 16:40:31  5-MIN KAKO 142340Z AUTO 00000KT 10SM CLR 09/M03 A3023 4430 42 4800 000/00 RMK AO2 T00891033                                                              
24015KAKO AKO20191114164511011/14/19 16:45:31  5-MIN KAKO 142345Z AUTO 00000KT 10SM CLR 09/M03 A3023 4430 42 4800 000/00 RMK AO2 T00891033                                                              
24015KAKO AKO20191115153510911/15/19 15:35:31  5-MIN KAKO 152235Z AUTO 00000KT 10SM CLR 14/00 A3006 4590 38 5600 000/00 RMK AO2 T01390000                                                               
24015KAKO AKO20191115154010911/15/19 15:40:31  5-MIN KAKO 152240Z AUTO 00000KT 10SM CLR 14/00 A3006 4590 37 5600 000/00 RMK AO2 T01440000                                                               
24015KAKO AKO20191115154510911/15/19 15:45:31  5-MIN KAKO 152245Z AUTO 00000KT 10SM CLR 14/00 A3006 4590 38 5600 000/00 RMK AO2 T01390000                                                               
24015KAKO AKO20191115155011611/15/19 15:50:31  5-MIN KAKO 152250Z AUTO 00000KT 10SM CLR 14/00 A3006 4590 38 5600 000/00 RMK AO2 SLP166 T01390000                                                        
24015KAKO AKO20191115155510911/15/19 15:55:31  5-MIN KAKO 152255Z AUTO 00000KT 10SM CLR 13/00 A3006 4590 40 5500 000/00 RMK AO2 T01330000                                                               
24015KAKO AKO20191115160010911/15/19 16:00:31  5-MIN KAKO 152300Z AUTO 00000KT 10SM CLR 13/00 A3006 4590 40 5500 000/00 RMK AO2 T01330000                                                               
24015KAKO AKO20191115160511011/15/19 16:05:31  5-MIN KAKO 152305Z AUTO 00000KT 10SM CLR 13/M01 A3006 4590 38 5500 000/00 RMK AO2 T01331006                                                              
24015KAKO AKO20191115163510911/15/19 16:35:31  5-MIN KAKO 152335Z AUTO 00000KT 10SM CLR 11/00 A3006 4590 48 5200 000/00 RMK AO2 T01060000                                                               
24015KAKO AKO20191115170010911/15/19 17:00:31  5-MIN KAKO 160000Z AUTO 00000KT 10SM CLR 12/00 A3006 4590 44 5300 000/00 RMK AO2 T01170000                                                               
24015KAKO AKO20191117140011011/17/19 14:00:31  5-MIN KAKO 172100Z AUTO VRB06KT 10SM CLR 11/M04 A3001 4640 33 5300 VRB/06 RMK AO2 T01111044                                                              
24015KAKO AKO20191119070011011/19/19 07:00:31  5-MIN KAKO 191400Z AUTO 00000KT 10SM CLR 02/M02 A2984 4790 78 4400 000/00 RMK AO2 T00171017                                                              
24015KAKO AKO20191119070511011/19/19 07:05:31  5-MIN KAKO 191405Z AUTO 00000KT 10SM CLR 02/M02 A2984 4790 78 4400 000/00 RMK AO2 T00171017                                                              
24015KAKO AKO20191119072511011/19/19 07:25:31  5-MIN KAKO 191425Z AUTO 00000KT 10SM CLR 02/M02 A2984 4790 78 4400 000/00 RMK AO2 T00171017                                                              
24015KAKO AKO20191119075510911/19/19 07:55:31  5-MIN KAKO 191455Z AUTO 00000KT 10SM CLR 05/01 A2984 4800 73 4800 000/00 RMK AO2 T00500006                                                               
24015KAKO AKO20191119080010911/19/19 08:00:31  5-MIN KAKO 191500Z AUTO VRB03KT 10SM CLR 06/01 A2984 4800 70 4800 VRB/03 RMK AO2 T00560006                                                               
24015KAKO AKO20191119125511011/19/19 12:55:31  5-MIN KAKO 191955Z AUTO VRB05KT 10SM CLR 17/M01 A2976 4870 29 6200 VRB/05 RMK AO2 T01671011                                                              
24015KAKO AKO20191119130511011/19/19 13:05:31  5-MIN KAKO 192005Z AUTO 00000KT 10SM CLR 17/M02 A2976 4870 28 6200 000/00 RMK AO2 T01671017                                                              
24015KAKO AKO20191119131011011/19/19 13:10:31  5-MIN KAKO 192010Z AUTO VRB04KT 10SM CLR 17/M02 A2975 4870 27 6300 VRB/04 RMK AO2 T01721017                                                              
24015KAKO AKO20191119132511011/19/19 13:25:31  5-MIN KAKO 192025Z AUTO 00000KT 10SM CLR 18/M02 A2975 4880 26 6400 000/00 RMK AO2 T01781017                                                              
24015KAKO AKO20191119133011011/19/19 13:30:31  5-MIN KAKO 192030Z AUTO 00000KT 10SM CLR 18/M02 A2975 4880 25 6400 000/00 RMK AO2 T01781022                                                              
24015KAKO AKO20191119133511011/19/19 13:35:31  5-MIN KAKO 192035Z AUTO 00000KT 10SM CLR 18/M02 A2974 4880 25 6400 000/00 RMK AO2 T01781022                                                              
24015KAKO AKO20191120013511011/20/19 01:35:31  5-MIN KAKO 200835Z AUTO 00000KT 10SM CLR 05/M03 A2964 4980 55 5000 000/00 RMK AO2 T00501033                                                              
24015KAKO AKO20191120014011011/20/19 01:40:31  5-MIN KAKO 200840Z AUTO 00000KT 10SM CLR 04/M03 A2965 4970 57 4900 000/00 RMK AO2 T00441033                                                              
24015KAKO AKO20191120014511011/20/19 01:45:31  5-MIN KAKO 200845Z AUTO 00000KT 10SM CLR 05/M03 A2964 4980 55 5000 000/00 RMK AO2 T00501033                                                              
24015KAKO AKO20191120015012311/20/19 01:50:31  5-MIN KAKO 200850Z AUTO 00000KT 10SM CLR 06/M03 A2964 4980 51 5100 000/00 RMK AO2 SLP008 T00611033 58013                                                 
24015KAKO AKO20191120061011011/20/19 06:10:31  5-MIN KAKO 201310Z AUTO VRB05KT 10SM CLR 03/M02 A2961 5010 72 4800 VRB/05 RMK AO2 T00281017                                                              
24015KAKO AKO20191120061511011/20/19 06:15:31  5-MIN KAKO 201315Z AUTO VRB06KT 10SM CLR 03/M02 A2961 5010 72 4800 VRB/06 RMK AO2 T00281017                                                              
24015KAKO AKO20191120064011011/20/19 06:40:31  5-MIN KAKO 201340Z AUTO 00000KT 10SM CLR 01/M02 A2963 4990 78 4600 000/00 RMK AO2 T00111022                                                              
24015KAKO AKO20191121094512811/21/19 09:45:31  5-MIN KAKO 211645Z AUTO 00000KT 6SM BR OVC003 M03/M04 A3014 4520 92 3500 000/00 RMK AO2 CIG 002V007 T10281039                                            
24015KAKO AKO20191121095013311/21/19 09:50:31  5-MIN KAKO 211650Z AUTO 00000KT 10SM OVC003 M03/M03 A3014 4520 96 3500 000/00 RMK AO2 CIG 002V007 SLP237 T10281033                                       
24015KAKO AKO20191121095512611/21/19 09:55:31  5-MIN KAKO 211655Z AUTO 00000KT 10SM OVC003 M03/M03 A3014 4520 96 3500 000/00 RMK AO2 CIG 002V007 T10281033                                              
24015KAKO AKO20191121100012611/21/19 10:00:31  5-MIN KAKO 211700Z AUTO 00000KT 10SM OVC004 M03/M04 A3014 4520 92 3500 000/00 RMK AO2 CIG 002V007 T10281039                                              
24015KAKO AKO20191121103513311/21/19 10:35:31  5-MIN KAKO 211735Z AUTO 00000KT 10SM BKN007 OVC011 M03/M04 A3014 4520 92 3500 000/00 RMK AO2 CIG 004V009 T10281039                                       
24015KAKO AKO20191121104013311/21/19 10:40:31  5-MIN KAKO 211740Z AUTO 00000KT 10SM BKN007 OVC012 M03/M03 A3014 4520 96 3500 000/00 RMK AO2 CIG 004V009 T10281033                                       
24015KAKO AKO20191121104512611/21/19 10:45:31  5-MIN KAKO 211745Z AUTO 00000KT 10SM OVC007 M03/M03 A3013 4520 96 3500 000/00 RMK AO2 CIG 004V010 T10281033                                              
24015KAKO AKO20191121105015111/21/19 10:50:31  5-MIN KAKO 211750Z AUTO 00000KT 10SM OVC007 M02/M03 A3013 4530 92 3600 000/00 RMK AO2 CIG 004V011 SLP234 T10221033 11022 21033 53011                     
24015KAKO AKO20191121110511411/21/19 11:05:31  5-MIN KAKO 211805Z AUTO 00000KT 10SM OVC007 M02/M03 A3013 4530 92 3600 000/00 RMK AO2 T10221033                                                          
24015KAKO AKO20191121111011411/21/19 11:10:31  5-MIN KAKO 211810Z AUTO 00000KT 10SM OVC007 M02/M03 A3013 4530 92 3600 000/00 RMK AO2 T10221033                                                          
24015KAKO AKO20191121111511411/21/19 11:15:31  5-MIN KAKO 211815Z AUTO 00000KT 10SM OVC007 M02/M03 A3013 4530 92 3600 000/00 RMK AO2 T10221033                                                          
24015KAKO AKO20191121124012611/21/19 12:40:31  5-MIN KAKO 211940Z AUTO VRB03KT 10SM OVC008 M02/M03 A3010 4550 92 3600 VRB/03 RMK AO2 CIG 006V012 T10221033                                              
24015KAKO AKO20191121212511411/21/19 21:25:31  5-MIN KAKO 220425Z AUTO 00000KT 10SM OVC060 M03/M05 A3015 4510 85 3500 000/00 RMK AO2 T10281050                                                          
24015KAKO AKO20191122120511111/22/19 12:05:31  5-MIN KAKO 221905Z AUTO VRB06KT 10SM CLR M01/M03 A3003 4620 85 3900 VRB/06 RMK AO2 T10061028                                                             
24015KAKO AKO20191122122010711/22/19 12:20:31  5-MIN KAKO 221920Z AUTO VRB03KT CLR 00/M03 A3002 4620 81 4000 VRB/03 RMK AO2 T00001028 $                                                                 
24015KAKO AKO20191122130011211/22/19 13:00:31  5-MIN KAKO 222000Z AUTO VRB04KT 10SM CLR 01/M02 A3000 4650 82 4100 VRB/04 RMK AO2 T00061022 $                                                            
24015KAKO AKO20191122132011211/22/19 13:20:31  5-MIN KAKO 222020Z AUTO 00000KT 10SM CLR 01/M03 A2999 4660 78 4100 000/00 RMK AO2 T00061028 $                                                            
24015KAKO AKO20191124144511211/24/19 14:45:31  5-MIN KAKO 242145Z AUTO VRB04KT 10SM CLR 16/M12 A2975 4880 13 6200 VRB/04 RMK AO2 T01611122 $                                                            
24015KAKO AKO20191124150511211/24/19 15:05:31  5-MIN KAKO 242205Z AUTO 00000KT 10SM CLR 16/M12 A2974 4880 13 6100 000/00 RMK AO2 T01561122 $                                                            
24015KAKO AKO20191124151011211/24/19 15:10:31  5-MIN KAKO 242210Z AUTO 00000KT 10SM CLR 16/M12 A2974 4890 13 6100 000/00 RMK AO2 T01561122 $                                                            
24015KAKO AKO20191124151511211/24/19 15:15:31  5-MIN KAKO 242215Z AUTO 00000KT 10SM CLR 16/M12 A2974 4890 14 6100 000/00 RMK AO2 T01561117 $                                                            
24015KAKO AKO20191124152011211/24/19 15:20:31  5-MIN KAKO 242220Z AUTO 00000KT 10SM CLR 16/M11 A2974 4890 15 6100 000/00 RMK AO2 T01561111 $                                                            
24015KAKO AKO20191124152511211/24/19 15:25:31  5-MIN KAKO 242225Z AUTO 00000KT 10SM CLR 16/M12 A2974 4890 14 6100 000/00 RMK AO2 T01561117 $                                                            
24015KAKO AKO20191124154011211/24/19 15:40:31  5-MIN KAKO 242240Z AUTO 00000KT 10SM CLR 14/M11 A2974 4890 16 6000 000/00 RMK AO2 T01441106 $                                                            
24015KAKO AKO20191124161511211/24/19 16:15:31  5-MIN KAKO 242315Z AUTO 00000KT 10SM CLR 13/M11 A2974 4890 17 5900 000/00 RMK AO2 T01331111 $                                                            
24015KAKO AKO20191124175011911/24/19 17:50:31  5-MIN KAKO 250050Z AUTO 00000KT 10SM CLR 08/M10 A2973 4890 26 5300 000/00 RMK AO2 SLP068 T00831100 $                                                     
24015KAKO AKO20191125065511111/25/19 06:55:31  5-MIN KAKO 251355Z AUTO 00000KT 10SM CLR M02/M05 A2980 4830 81 3900 000/00 RMK AO2 T10221050                                                             
24015KAKO AKO20191125070011111/25/19 07:00:31  5-MIN KAKO 251400Z AUTO 00000KT 10SM CLR M02/M05 A2980 4830 81 3900 000/00 RMK AO2 T10221050                                                             
24015KAKO AKO20191125075012411/25/19 07:50:31  5-MIN KAKO 251450Z AUTO 00000KT 10SM CLR M02/M04 A2981 4820 81 4000 000/00 RMK AO2 SLP103 T10171044 53011                                                
24015KAKO AKO20191125080011311/25/19 08:00:31  5-MIN KAKO 251500Z AUTO 00000KT 10SM CLR M02/M04 A2981 4820 81 4000 000/00 RMK AO2 T10171044 $                                                           
24015KAKO AKO20191125080511311/25/19 08:05:31  5-MIN KAKO 251505Z AUTO 00000KT 10SM CLR M02/M04 A2981 4820 85 3900 000/00 RMK AO2 T10221044 $                                                           
24015KAKO AKO20191125081011111/25/19 08:10:31  5-MIN KAKO 251510Z AUTO 00000KT 10SM CLR M02/M04 A2981 4830 81 4000 000/00 RMK AO2 T10171044                                                             
24015KAKO AKO20191125081511111/25/19 08:15:31  5-MIN KAKO 251515Z AUTO 00000KT 10SM CLR M01/M04 A2980 4830 78 4100 000/00 RMK AO2 T10111044                                                             
24015KAKO AKO20191125082011011/25/19 08:20:31  5-MIN KAKO 251520Z AUTO VRB03KT 10SM CLR 00/M04 A2981 4820 72 4200 VRB/03 RMK AO2 T00001044                                                              
24015KAKO AKO20191129002512711/29/19 00:25:31  5-MIN KAKO 290725Z AUTO 00000KT 1/4SM FZFG VV002 M06/M07 A2987 4760 88 3400 000/00 RMK AO2 I1000 T10561072 $                                             
24015KAKO AKO20191129021012711/29/19 02:10:31  5-MIN KAKO 290910Z AUTO 00000KT 1/4SM FZFG VV002 M06/M07 A2986 4770 92 3400 000/00 RMK AO2 I1001 T10611072 $                                             
24015KAKO AKO20191129022512711/29/19 02:25:31  5-MIN KAKO 290925Z AUTO 00000KT 1/4SM FZFG VV002 M06/M07 A2986 4770 88 3500 000/00 RMK AO2 I1001 T10561072 $                                             
24015KAKO AKO20191129023012711/29/19 02:30:31  5-MIN KAKO 290930Z AUTO 00000KT 1/4SM FZFG VV002 M06/M07 A2987 4760 88 3400 000/00 RMK AO2 I1001 T10561072 $                                             
24015KAKO AKO20191129023512711/29/19 02:35:31  5-MIN KAKO 290935Z AUTO 00000KT 1/4SM FZFG VV002 M06/M07 A2987 4760 92 3400 000/00 RMK AO2 I1001 T10561067 $                                             
24015KAKO AKO20191129024012711/29/19 02:40:31  5-MIN KAKO 290940Z AUTO 00000KT 1/4SM FZFG VV002 M06/M07 A2987 4770 92 3500 000/00 RMK AO2 I1001 T10561067 $                                             
24015KAKO AKO20191129024512711/29/19 02:45:31  5-MIN KAKO 290945Z AUTO 00000KT 1/4SM FZFG VV002 M05/M07 A2987 4770 88 3500 000/00 RMK AO2 I1001 T10501067 $                                             
24015KAKO AKO20191129025512111/29/19 02:55:31  5-MIN KAKO 290955Z AUTO 00000KT 1/4SM FZFG VV001 M05/M07 A2986 4770 88 3500 000/00 RMK AO2 T10501067 $                                                   
24015KAKO AKO20191129030012111/29/19 03:00:31  5-MIN KAKO 291000Z AUTO 00000KT 1/4SM FZFG VV001 M05/M07 A2986 4780 88 3500 000/00 RMK AO2 T10501067 $                                                   
24015KAKO AKO20191129031012111/29/19 03:10:31  5-MIN KAKO 291010Z AUTO 00000KT 1/4SM FZFG VV001 M05/M06 A2985 4780 92 3500 000/00 RMK AO2 T10501061 $                                                   
24015KAKO AKO20191129090012511/29/19 09:00:31  5-MIN KAKO 291600Z AUTO VRB04KT 1/2SM FZFG VV002 M02/M02 A2977 4860 96 4000 VRB/04 RMK AO2 I1000 T10171022                                               
24015KAKO AKO20191129090512111/29/19 09:05:31  5-MIN KAKO 291605Z AUTO VRB03KT 1SM BR VV002 M02/M02 A2976 4860 96 4100 VRB/03 RMK AO2 I1000 T10171022                                                   
24015KAKO AKO20191202161011212/02/19 16:10:31  5-MIN KAKO 022310Z AUTO 00000KT 10SM CLR 03/M03 A2999 4650 64 4300 000/00 RMK AO2 T00281033 $                                                            
24015KAKO AKO20191202161511212/02/19 16:15:31  5-MIN KAKO 022315Z AUTO 00000KT 10SM CLR 03/M04 A2999 4650 61 4300 000/00 RMK AO2 T00281039 $                                                            
24015KAKO AKO20191203153010912/03/19 15:30:31  5-MIN KAKO 032230Z AUTO 00000KT 10SM CLR 07/00 A3005 4600 62 4700 000/00 RMK AO2 T00670000                                                               
24015KAKO AKO20191203153510912/03/19 15:35:31  5-MIN KAKO 032235Z AUTO 00000KT 10SM CLR 06/00 A3005 4600 65 4700 000/00 RMK AO2 T00610000                                                               
24015KAKO AKO20191203154010912/03/19 15:40:31  5-MIN KAKO 032240Z AUTO 00000KT 10SM CLR 06/00 A3005 4600 65 4700 000/00 RMK AO2 T00610000                                                               
24015KAKO AKO20191203154511012/03/19 15:45:31  5-MIN KAKO 032245Z AUTO 00000KT 10SM CLR 07/M01 A3005 4600 60 4700 000/00 RMK AO2 T00671006                                                              
24015KAKO AKO20191203155011712/03/19 15:50:31  5-MIN KAKO 032250Z AUTO 00000KT 10SM CLR 06/M01 A3005 4600 62 4700 000/00 RMK AO2 SLP186 T00611006                                                       
24015KAKO AKO20191203155511012/03/19 15:55:31  5-MIN KAKO 032255Z AUTO 00000KT 10SM CLR 07/M01 A3005 4600 60 4700 000/00 RMK AO2 T00671006                                                              
24015KAKO AKO20191203160011012/03/19 16:00:31  5-MIN KAKO 032300Z AUTO 00000KT 10SM CLR 07/M01 A3004 4600 60 4700 000/00 RMK AO2 T00671006                                                              
24015KAKO AKO20191203160511012/03/19 16:05:31  5-MIN KAKO 032305Z AUTO 00000KT 10SM CLR 07/M01 A3005 4600 60 4700 000/00 RMK AO2 T00671006                                                              
24015KAKO AKO20191203161011012/03/19 16:10:31  5-MIN KAKO 032310Z AUTO 00000KT 10SM CLR 06/M01 A3004 4600 62 4700 000/00 RMK AO2 T00611006                                                              
24015KAKO AKO20191203161511012/03/19 16:15:31  5-MIN KAKO 032315Z AUTO 00000KT 10SM CLR 06/M01 A3004 4610 62 4700 000/00 RMK AO2 T00611006                                                              
24015KAKO AKO20191203164511012/03/19 16:45:31  5-MIN KAKO 032345Z AUTO 00000KT 10SM CLR 04/M01 A3005 4600 70 4400 000/00 RMK AO2 T00391011                                                              
24015KAKO AKO20191203165013512/03/19 16:50:31  5-MIN KAKO 032350Z AUTO 00000KT 10SM CLR 04/M01 A3005 4600 70 4400 000/00 RMK AO2 SLP195 T00391011 10078 20039 56008                                     
24015KAKO AKO20191203165511012/03/19 16:55:31  5-MIN KAKO 032355Z AUTO 00000KT 10SM CLR 04/M01 A3005 4600 67 4500 000/00 RMK AO2 T00441011                                                              
24015KAKO AKO20191203170011012/03/19 17:00:31  5-MIN KAKO 040000Z AUTO 00000KT 10SM CLR 04/M01 A3005 4600 67 4500 000/00 RMK AO2 T00441011                                                              
24015KAKO AKO20191203170511012/03/19 17:05:31  5-MIN KAKO 040005Z AUTO 00000KT 10SM CLR 02/M02 A3005 4600 75 4200 000/00 RMK AO2 T00221017                                                              
24015KAKO AKO20191203171011012/03/19 17:10:31  5-MIN KAKO 040010Z AUTO 00000KT 10SM CLR 04/M02 A3005 4600 64 4500 000/00 RMK AO2 T00441017                                                              
24015KAKO AKO20191203171511012/03/19 17:15:31  5-MIN KAKO 040015Z AUTO 00000KT 10SM CLR 05/M02 A3005 4600 62 4500 000/00 RMK AO2 T00501017                                                              
24015KAKO AKO20191203172011012/03/19 17:20:31  5-MIN KAKO 040020Z AUTO 00000KT 10SM CLR 05/M02 A3004 4600 62 4500 000/00 RMK AO2 T00501017                                                              
24015KAKO AKO20191203172511012/03/19 17:25:31  5-MIN KAKO 040025Z AUTO 00000KT 10SM CLR 04/M02 A3005 4600 64 4500 000/00 RMK AO2 T00441017                                                              
24015KAKO AKO20191203173011012/03/19 17:30:31  5-MIN KAKO 040030Z AUTO 00000KT 10SM CLR 04/M02 A3004 4600 67 4400 000/00 RMK AO2 T00391017                                                              
24015KAKO AKO20191203173511012/03/19 17:35:31  5-MIN KAKO 040035Z AUTO 00000KT 10SM CLR 04/M02 A3005 4600 67 4400 000/00 RMK AO2 T00391017                                                              
24015KAKO AKO20191203174011012/03/19 17:40:31  5-MIN KAKO 040040Z AUTO 00000KT 10SM CLR 03/M02 A3004 4610 70 4300 000/00 RMK AO2 T00331017                                                              
24015KAKO AKO20191203175011712/03/19 17:50:31  5-MIN KAKO 040050Z AUTO 00000KT 10SM CLR 03/M02 A3004 4610 70 4300 000/00 RMK AO2 SLP192 T00331017                                                       
24015KAKO AKO20191203175511012/03/19 17:55:31  5-MIN KAKO 040055Z AUTO 00000KT 10SM CLR 04/M02 A3004 4610 67 4400 000/00 RMK AO2 T00391017                                                              
24015KAKO AKO20191203182011012/03/19 18:20:31  5-MIN KAKO 040120Z AUTO 00000KT 10SM CLR 02/M02 A3005 4600 75 4200 000/00 RMK AO2 T00221017                                                              
24015KAKO AKO20191205094011312/05/19 09:40:31  5-MIN KAKO 051640Z AUTO 00000KT 10SM OVC100 03/M03 A2992 4720 67 4400 000/00 RMK AO2 T00281028                                                           
24015KAKO AKO20191205105014512/05/19 10:50:31  5-MIN KAKO 051750Z AUTO 00000KT 10SM BKN075 OVC085 03/M02 A2997 4680 67 4400 000/00 RMK AO2 SLP155 T00331022 10033 21028 53012                           
24015KAKO AKO20191206022011912/06/19 02:20:31  5-MIN KAKO 060920Z AUTO 00000KT 5SM BR CLR M03/M04 A3025 4420 96 3300 000/00 RMK AO2 I1000 T10331039                                                     
24015KAKO AKO20191206022511612/06/19 02:25:31  5-MIN KAKO 060925Z AUTO VRB04KT 7SM CLR M03/M04 A3025 4420 92 3300 VRB/04 RMK AO2 I1000 T10331044                                                        
24015KAKO AKO20191206023011612/06/19 02:30:31  5-MIN KAKO 060930Z AUTO 00000KT 8SM CLR M03/M04 A3025 4420 88 3400 000/00 RMK AO2 I1000 T10281044                                                        
24015KAKO AKO20191206041511912/06/19 04:15:31  5-MIN KAKO 061115Z AUTO 00000KT 1/4SM FZFG VV001 M04/M05 A3025 4410 92 3200 000/00 RMK AO2 T10391050                                                     
24015KAKO AKO20191210115511312/10/19 11:55:31  5-MIN KAKO 101855Z AUTO VRB03KT 10SM BKN080 01/M05 A3015 4500 64 3900 VRB/03 RMK AO2 T00111050                                                           
24015KAKO AKO20191210121511312/10/19 12:15:31  5-MIN KAKO 101915Z AUTO VRB03KT 10SM FEW075 01/M06 A3015 4510 61 3900 VRB/03 RMK AO2 T00111056                                                           
24015KAKO AKO20191210122011012/10/19 12:20:31  5-MIN KAKO 101920Z AUTO VRB03KT 10SM CLR 02/M06 A3015 4510 59 4000 VRB/03 RMK AO2 T00171056                                                              
24015KAKO AKO20191210122511012/10/19 12:25:31  5-MIN KAKO 101925Z AUTO 00000KT 10SM CLR 01/M05 A3015 4510 64 4000 000/00 RMK AO2 T00111050                                                              
24015KAKO AKO20191210123011012/10/19 12:30:31  5-MIN KAKO 101930Z AUTO VRB03KT 10SM CLR 02/M05 A3014 4510 61 4000 VRB/03 RMK AO2 T00171050                                                              
24015KAKO AKO20191210125011712/10/19 12:50:31  5-MIN KAKO 101950Z AUTO VRB05KT 10SM CLR 02/M05 A3014 4520 61 4000 VRB/05 RMK AO2 SLP228 T00171050                                                       
24015KAKO AKO20191210125511012/10/19 12:55:31  5-MIN KAKO 101955Z AUTO VRB03KT 10SM CLR 02/M05 A3013 4520 61 4000 VRB/03 RMK AO2 T00171050                                                              
24015KAKO AKO20191210130011012/10/19 13:00:31  5-MIN KAKO 102000Z AUTO VRB03KT 10SM CLR 02/M06 A3013 4530 56 4100 VRB/03 RMK AO2 T00221056                                                              
24015KAKO AKO20191210131011012/10/19 13:10:31  5-MIN KAKO 102010Z AUTO 00000KT 10SM CLR 02/M06 A3013 4530 59 4000 000/00 RMK AO2 T00171056                                                              
24015KAKO AKO20191210131511012/10/19 13:15:31  5-MIN KAKO 102015Z AUTO 00000KT 10SM CLR 02/M06 A3012 4530 59 4000 000/00 RMK AO2 T00171056                                                              
24015KAKO AKO20191210132511012/10/19 13:25:31  5-MIN KAKO 102025Z AUTO VRB03KT 10SM CLR 02/M06 A3012 4530 56 4100 VRB/03 RMK AO2 T00221056                                                              
24015KAKO AKO20191210134511012/10/19 13:45:31  5-MIN KAKO 102045Z AUTO VRB03KT 10SM CLR 02/M06 A3013 4530 56 4100 VRB/03 RMK AO2 T00221056                                                              
24015KAKO AKO20191210141511012/10/19 14:15:31  5-MIN KAKO 102115Z AUTO VRB03KT 10SM CLR 02/M06 A3013 4530 56 4100 VRB/03 RMK AO2 T00221056                                                              
24015KAKO AKO20191212072511312/12/19 07:25:31  5-MIN KAKO 121425Z AUTO 00000KT 10SM FEW120 00/M04 A3002 4630 72 4000 000/00 RMK AO2 T00001044                                                           
24015KAKO AKO20191213235511312/13/19 23:55:31  5-MIN KAKO 140655Z AUTO 00000KT 10SM CLR M03/M05 A2988 4760 85 3800 000/00 RMK AO2 T10281050 $                                                           
24015KAKO AKO20191214000011312/14/19 00:00:31  5-MIN KAKO 140700Z AUTO 00000KT 10SM CLR M02/M05 A2988 4750 81 3800 000/00 RMK AO2 T10221050 $                                                           
24015KAKO AKO20191214001511312/14/19 00:15:31  5-MIN KAKO 140715Z AUTO 00000KT 10SM CLR M02/M04 A2988 4760 81 3900 000/00 RMK AO2 T10171044 $                                                           
24015KAKO AKO20191214002511312/14/19 00:25:31  5-MIN KAKO 140725Z AUTO 00000KT 10SM CLR M01/M04 A2987 4760 78 4000 000/00 RMK AO2 T10111044 $                                                           
24015KAKO AKO20191214003011312/14/19 00:30:31  5-MIN KAKO 140730Z AUTO 00000KT 10SM CLR M02/M04 A2987 4770 81 3900 000/00 RMK AO2 T10171044 $                                                           
24015KAKO AKO20191214003511312/14/19 00:35:31  5-MIN KAKO 140735Z AUTO 00000KT 10SM CLR M01/M04 A2987 4770 78 4000 000/00 RMK AO2 T10111044 $                                                           
24015KAKO AKO20191214004011312/14/19 00:40:31  5-MIN KAKO 140740Z AUTO 00000KT 10SM CLR M01/M04 A2987 4770 78 4000 000/00 RMK AO2 T10111044 $                                                           
24015KAKO AKO20191214012511312/14/19 01:25:31  5-MIN KAKO 140825Z AUTO 00000KT 10SM CLR M04/M07 A2985 4780 84 3600 000/00 RMK AO2 T10441067 $                                                           
24015KAKO AKO20191214013011312/14/19 01:30:31  5-MIN KAKO 140830Z AUTO 00000KT 10SM CLR M03/M06 A2985 4780 78 3800 000/00 RMK AO2 T10281061 $                                                           
24015KAKO AKO20191214213511412/14/19 21:35:31  5-MIN KAKO 150435Z AUTO 00000KT 10SM OVC004 M02/M03 A2973 4890 92 4000 000/00 RMK AO2 T10221033                                                          
24015KAKO AKO20191214214011412/14/19 21:40:31  5-MIN KAKO 150440Z AUTO 00000KT 10SM OVC004 M02/M03 A2973 4890 92 4000 000/00 RMK AO2 T10221033                                                          
24015KAKO AKO20191214214511412/14/19 21:45:31  5-MIN KAKO 150445Z AUTO 00000KT 10SM OVC005 M02/M03 A2974 4890 92 4000 000/00 RMK AO2 T10221033                                                          
24015KAKO AKO20191215162011312/15/19 16:20:31  5-MIN KAKO 152320Z AUTO 00000KT 10SM CLR M03/M07 A2989 4750 74 3700 000/00 RMK AO2 T10331072 $                                                           
24015KAKO AKO20191215162511312/15/19 16:25:31  5-MIN KAKO 152325Z AUTO 00000KT 10SM CLR M04/M07 A2989 4740 78 3600 000/00 RMK AO2 T10391072 $                                                           
24015KAKO AKO20191215163511312/15/19 16:35:31  5-MIN KAKO 152335Z AUTO 00000KT 10SM CLR M04/M08 A2990 4740 74 3600 000/00 RMK AO2 T10391078 $                                                           
24015KAKO AKO20191215164011312/15/19 16:40:31  5-MIN KAKO 152340Z AUTO 00000KT 10SM CLR M04/M08 A2990 4740 74 3600 000/00 RMK AO2 T10391078 $                                                           
24015KAKO AKO20191215164511312/15/19 16:45:31  5-MIN KAKO 152345Z AUTO 00000KT 10SM CLR M03/M08 A2990 4740 71 3700 000/00 RMK AO2 T10331078 $                                                           
24015KAKO AKO20191215165013812/15/19 16:50:31  5-MIN KAKO 152350Z AUTO 00000KT 10SM CLR M03/M07 A2990 4740 74 3700 000/00 RMK AO2 SLP165 T10331072 11006 21039 56009 $                                  
24015KAKO AKO20191215165511312/15/19 16:55:31  5-MIN KAKO 152355Z AUTO 00000KT 10SM CLR M03/M07 A2990 4740 74 3700 000/00 RMK AO2 T10331072 $                                                           
24015KAKO AKO20191215170011312/15/19 17:00:31  5-MIN KAKO 160000Z AUTO 00000KT 10SM CLR M03/M07 A2990 4740 74 3700 000/00 RMK AO2 T10331072 $                                                           
24015KAKO AKO20191215170511312/15/19 17:05:31  5-MIN KAKO 160005Z AUTO 00000KT 10SM CLR M04/M08 A2990 4730 78 3600 000/00 RMK AO2 T10441078 $                                                           
24015KAKO AKO20191215172511312/15/19 17:25:31  5-MIN KAKO 160025Z AUTO 00000KT 10SM CLR M06/M08 A2991 4730 81 3400 000/00 RMK AO2 T10561083 $                                                           
24015KAKO AKO20191215173011312/15/19 17:30:31  5-MIN KAKO 160030Z AUTO 00000KT 10SM CLR M06/M08 A2991 4720 81 3400 000/00 RMK AO2 T10561083 $                                                           
24015KAKO AKO20191215173511312/15/19 17:35:31  5-MIN KAKO 160035Z AUTO 00000KT 10SM CLR M05/M08 A2992 4720 77 3500 000/00 RMK AO2 T10501083 $                                                           
24015KAKO AKO20191215174011312/15/19 17:40:31  5-MIN KAKO 160040Z AUTO 00000KT 10SM CLR M04/M08 A2992 4720 78 3500 000/00 RMK AO2 T10441078 $                                                           
24015KAKO AKO20191215174511312/15/19 17:45:31  5-MIN KAKO 160045Z AUTO 00000KT 10SM CLR M05/M08 A2992 4720 81 3500 000/00 RMK AO2 T10501078 $                                                           
24015KAKO AKO20191215175012012/15/19 17:50:31  5-MIN KAKO 160050Z AUTO 00000KT 10SM CLR M06/M08 A2992 4720 81 3400 000/00 RMK AO2 SLP178 T10561083 $                                                    
24015KAKO AKO20191215175511312/15/19 17:55:31  5-MIN KAKO 160055Z AUTO 00000KT 10SM CLR M06/M08 A2991 4720 81 3400 000/00 RMK AO2 T10561083 $                                                           
24015KAKO AKO20191215180011312/15/19 18:00:31  5-MIN KAKO 160100Z AUTO 00000KT 10SM CLR M06/M08 A2992 4720 81 3400 000/00 RMK AO2 T10561083 $                                                           
24015KAKO AKO20191215180511312/15/19 18:05:31  5-MIN KAKO 160105Z AUTO 00000KT 10SM CLR M05/M08 A2992 4720 77 3500 000/00 RMK AO2 T10501083 $                                                           
24015KAKO AKO20191215181011312/15/19 18:10:31  5-MIN KAKO 160110Z AUTO 00000KT 10SM CLR M04/M08 A2992 4720 78 3500 000/00 RMK AO2 T10441078 $                                                           
24015KAKO AKO20191215181511312/15/19 18:15:31  5-MIN KAKO 160115Z AUTO 00000KT 10SM CLR M04/M07 A2992 4720 81 3500 000/00 RMK AO2 T10441072 $                                                           
24015KAKO AKO20191215182011312/15/19 18:20:31  5-MIN KAKO 160120Z AUTO 00000KT 10SM CLR M04/M07 A2992 4720 81 3500 000/00 RMK AO2 T10441072 $                                                           
24015KAKO AKO20191215182511312/15/19 18:25:31  5-MIN KAKO 160125Z AUTO 00000KT 10SM CLR M04/M07 A2992 4720 78 3600 000/00 RMK AO2 T10391072 $                                                           
24015KAKO AKO20191215183011312/15/19 18:30:31  5-MIN KAKO 160130Z AUTO 00000KT 10SM CLR M04/M07 A2992 4720 78 3600 000/00 RMK AO2 T10391072 $                                                           
24015KAKO AKO20191215183511312/15/19 18:35:31  5-MIN KAKO 160135Z AUTO 00000KT 10SM CLR M04/M07 A2993 4710 81 3500 000/00 RMK AO2 T10441072 $                                                           
24015KAKO AKO20191215184011312/15/19 18:40:31  5-MIN KAKO 160140Z AUTO 00000KT 10SM CLR M04/M08 A2993 4710 78 3500 000/00 RMK AO2 T10441078 $                                                           
24015KAKO AKO20191215184511312/15/19 18:45:31  5-MIN KAKO 160145Z AUTO 00000KT 10SM CLR M04/M08 A2993 4710 74 3600 000/00 RMK AO2 T10391078 $                                                           
24015KAKO AKO20191215185012012/15/19 18:50:31  5-MIN KAKO 160150Z AUTO 00000KT 10SM CLR M04/M08 A2993 4710 74 3600 000/00 RMK AO2 SLP179 T10391078 $                                                    
24015KAKO AKO20191215185511312/15/19 18:55:31  5-MIN KAKO 160155Z AUTO 00000KT 10SM CLR M06/M08 A2993 4710 81 3400 000/00 RMK AO2 T10561083 $                                                           
24015KAKO AKO20191215191511312/15/19 19:15:31  5-MIN KAKO 160215Z AUTO 00000KT 10SM CLR M06/M09 A2994 4700 81 3300 000/00 RMK AO2 T10611089 $                                                           
24015KAKO AKO20191215193511312/15/19 19:35:31  5-MIN KAKO 160235Z AUTO 00000KT 10SM CLR M06/M08 A2995 4700 81 3400 000/00 RMK AO2 T10561083 $                                                           
24015KAKO AKO20191215194011312/15/19 19:40:31  5-MIN KAKO 160240Z AUTO 00000KT 10SM CLR M06/M08 A2994 4700 84 3400 000/00 RMK AO2 T10561078 $                                                           
24015KAKO AKO20191215194511312/15/19 19:45:31  5-MIN KAKO 160245Z AUTO 00000KT 10SM CLR M06/M08 A2995 4700 84 3300 000/00 RMK AO2 T10611083 $                                                           
24015KAKO AKO20191215195012912/15/19 19:50:31  5-MIN KAKO 160250Z AUTO 00000KT 10SM FEW100 M06/M08 A2995 4690 81 3400 000/00 RMK AO2 SLP187 T10561083 53016 $                                           
24015KAKO AKO20191215195511612/15/19 19:55:31  5-MIN KAKO 160255Z AUTO 00000KT 10SM FEW100 M06/M08 A2995 4690 81 3400 000/00 RMK AO2 T10561083 $                                                        
24015KAKO AKO20191215200011312/15/19 20:00:31  5-MIN KAKO 160300Z AUTO 00000KT 10SM CLR M06/M08 A2995 4690 81 3400 000/00 RMK AO2 T10561083 $                                                           
24015KAKO AKO20191215200511312/15/19 20:05:31  5-MIN KAKO 160305Z AUTO 00000KT 10SM CLR M06/M08 A2995 4690 81 3400 000/00 RMK AO2 T10561083 $                                                           
24015KAKO AKO20191215201011612/15/19 20:10:31  5-MIN KAKO 160310Z AUTO 00000KT 10SM FEW100 M06/M08 A2995 4690 81 3400 000/00 RMK AO2 T10561083 $                                                        
24015KAKO AKO20191215201511612/15/19 20:15:31  5-MIN KAKO 160315Z AUTO 00000KT 10SM FEW100 M06/M08 A2995 4690 81 3400 000/00 RMK AO2 T10561083 $                                                        
24015KAKO AKO20191215202011612/15/19 20:20:31  5-MIN KAKO 160320Z AUTO 00000KT 10SM FEW100 M06/M08 A2995 4700 81 3400 000/00 RMK AO2 T10561083 $                                                        
24015KAKO AKO20191215202511612/15/19 20:25:31  5-MIN KAKO 160325Z AUTO 00000KT 10SM FEW100 M06/M08 A2995 4700 81 3400 000/00 RMK AO2 T10561083 $                                                        
24015KAKO AKO20191215203011612/15/19 20:30:31  5-MIN KAKO 160330Z AUTO 00000KT 10SM FEW100 M06/M08 A2995 4690 81 3400 000/00 RMK AO2 T10561083 $                                                        
24015KAKO AKO20191215203511612/15/19 20:35:31  5-MIN KAKO 160335Z AUTO 00000KT 10SM FEW100 M06/M08 A2995 4690 81 3400 000/00 RMK AO2 T10561083 $                                                        
24015KAKO AKO20191215204011612/15/19 20:40:31  5-MIN KAKO 160340Z AUTO 00000KT 10SM FEW100 M06/M08 A2995 4690 81 3400 000/00 RMK AO2 T10561083 $                                                        
24015KAKO AKO20191215204511612/15/19 20:45:31  5-MIN KAKO 160345Z AUTO 00000KT 10SM FEW100 M06/M08 A2995 4700 84 3400 000/00 RMK AO2 T10561078 $                                                        
24015KAKO AKO20191215205012312/15/19 20:50:31  5-MIN KAKO 160350Z AUTO 00000KT 10SM FEW100 M06/M08 A2995 4690 81 3400 000/00 RMK AO2 SLP185 T10561083 $                                                 
24015KAKO AKO20191215205511612/15/19 20:55:31  5-MIN KAKO 160355Z AUTO 00000KT 10SM FEW100 M06/M08 A2995 4690 84 3300 000/00 RMK AO2 T10611083 $                                                        
24015KAKO AKO20191215210011312/15/19 21:00:31  5-MIN KAKO 160400Z AUTO 00000KT 10SM CLR M06/M08 A2995 4690 81 3400 000/00 RMK AO2 T10561083 $                                                           
24015KAKO AKO20191216011511312/16/19 01:15:31  5-MIN KAKO 160815Z AUTO 00000KT 10SM CLR M06/M08 A2998 4670 84 3300 000/00 RMK AO2 T10611083 $                                                           
24015KAKO AKO20191216012011312/16/19 01:20:31  5-MIN KAKO 160820Z AUTO 00000KT 10SM CLR M06/M08 A2998 4660 84 3300 000/00 RMK AO2 T10611083 $                                                           
24015KAKO AKO20191216015511612/16/19 01:55:31  5-MIN KAKO 160855Z AUTO 00000KT 10SM BKN120 M07/M09 A3000 4640 84 3200 000/00 RMK AO2 T10671089 $                                                        
24015KAKO AKO20191216020011612/16/19 02:00:31  5-MIN KAKO 160900Z AUTO 00000KT 10SM BKN120 M07/M09 A3000 4640 84 3200 000/00 RMK AO2 T10671089 $                                                        
24015KAKO AKO20191216020511612/16/19 02:05:31  5-MIN KAKO 160905Z AUTO 00000KT 10SM BKN120 M07/M09 A3001 4640 84 3200 000/00 RMK AO2 T10671089 $                                                        
24015KAKO AKO20191218143011012/18/19 14:30:31  5-MIN KAKO 182130Z AUTO VRB04KT 10SM CLR 11/M13 A3009 4560 17 5200 VRB/04 RMK AO2 T01111128                                                              
24015KAKO AKO20191218150511012/18/19 15:05:31  5-MIN KAKO 182205Z AUTO 00000KT 10SM CLR 11/M12 A3010 4550 19 5100 000/00 RMK AO2 T01061122                                                              
24015KAKO AKO20191218151011012/18/19 15:10:31  5-MIN KAKO 182210Z AUTO 00000KT 10SM CLR 11/M12 A3010 4550 19 5100 000/00 RMK AO2 T01061122                                                              
24015KAKO AKO20191218151511012/18/19 15:15:31  5-MIN KAKO 182215Z AUTO 00000KT 10SM CLR 11/M12 A3010 4550 19 5100 000/00 RMK AO2 T01061122                                                              
24015KAKO AKO20191218152011012/18/19 15:20:31  5-MIN KAKO 182220Z AUTO 00000KT 10SM CLR 11/M12 A3010 4550 19 5100 000/00 RMK AO2 T01061122                                                              
24015KAKO AKO20191218152511012/18/19 15:25:31  5-MIN KAKO 182225Z AUTO 00000KT 10SM CLR 10/M12 A3010 4550 19 5100 000/00 RMK AO2 T01001122                                                              
24015KAKO AKO20191218153011012/18/19 15:30:31  5-MIN KAKO 182230Z AUTO 00000KT 10SM CLR 10/M12 A3010 4560 19 5100 000/00 RMK AO2 T01001122                                                              
24015KAKO AKO20191218153511012/18/19 15:35:31  5-MIN KAKO 182235Z AUTO 00000KT 10SM CLR 10/M12 A3010 4560 19 5100 000/00 RMK AO2 T01001122                                                              
24015KAKO AKO20191218154011012/18/19 15:40:31  5-MIN KAKO 182240Z AUTO 00000KT 10SM CLR 10/M12 A3010 4550 19 5100 000/00 RMK AO2 T01001122                                                              
24015KAKO AKO20191218154511012/18/19 15:45:31  5-MIN KAKO 182245Z AUTO 00000KT 10SM CLR 09/M12 A3010 4560 20 5000 000/00 RMK AO2 T00941122                                                              
24015KAKO AKO20191218155011712/18/19 15:50:31  5-MIN KAKO 182250Z AUTO 00000KT 10SM CLR 09/M12 A3010 4560 20 5000 000/00 RMK AO2 SLP207 T00941122                                                       
24015KAKO AKO20191218155511012/18/19 15:55:31  5-MIN KAKO 182255Z AUTO 00000KT 10SM CLR 09/M12 A3010 4560 21 4900 000/00 RMK AO2 T00891122                                                              
24015KAKO AKO20191220215011812/20/19 21:50:31  5-MIN KAKO 210450Z AUTO VRB04KT 10SM CLR M01/M11 A3025 4420 47 3600 VRB/04 RMK AO2 SLP265 T10061106                                                      
24015KAKO AKO20191221144011212/21/19 14:40:31  5-MIN KAKO 212140Z AUTO 00000KT 10SM CLR 12/M09 A3015 4510 23 5200 000/00 RMK AO2 T01171089 $                                                            
24015KAKO AKO20191221144511212/21/19 14:45:31  5-MIN KAKO 212145Z AUTO 00000KT 10SM CLR 12/M09 A3015 4510 22 5200 000/00 RMK AO2 T01171094 $                                                            
24015KAKO AKO20191221145511212/21/19 14:55:31  5-MIN KAKO 212155Z AUTO 00000KT 10SM CLR 12/M11 A3014 4510 19 5300 000/00 RMK AO2 T01221106 $                                                            
24015KAKO AKO20191221151011212/21/19 15:10:31  5-MIN KAKO 212210Z AUTO 00000KT 10SM CLR 12/M11 A3014 4510 19 5200 000/00 RMK AO2 T01171111 $                                                            
24015KAKO AKO20191221151511212/21/19 15:15:31  5-MIN KAKO 212215Z AUTO 00000KT 10SM CLR 12/M11 A3015 4510 19 5200 000/00 RMK AO2 T01171111 $                                                            
24015KAKO AKO20191221152011212/21/19 15:20:31  5-MIN KAKO 212220Z AUTO 00000KT 10SM CLR 12/M11 A3015 4510 19 5200 000/00 RMK AO2 T01171111 $                                                            
24015KAKO AKO20191221152511212/21/19 15:25:31  5-MIN KAKO 212225Z AUTO 00000KT 10SM CLR 12/M11 A3014 4510 20 5200 000/00 RMK AO2 T01171106 $                                                            
24015KAKO AKO20191221153011212/21/19 15:30:31  5-MIN KAKO 212230Z AUTO 00000KT 10SM CLR 12/M11 A3014 4510 19 5200 000/00 RMK AO2 T01171111 $                                                            
24015KAKO AKO20191223155511012/23/19 15:55:31  5-MIN KAKO 232255Z AUTO 00000KT 10SM CLR 08/M08 A2990 4740 32 5000 000/00 RMK AO2 T00781078                                                              
24015KAKO AKO20191223160011012/23/19 16:00:31  5-MIN KAKO 232300Z AUTO 00000KT 10SM CLR 07/M08 A2989 4750 33 5000 000/00 RMK AO2 T00721078                                                              
24015KAKO AKO20191223160511012/23/19 16:05:31  5-MIN KAKO 232305Z AUTO 00000KT 10SM CLR 07/M08 A2989 4750 35 4900 000/00 RMK AO2 T00671078                                                              
24015KAKO AKO20191223161011012/23/19 16:10:31  5-MIN KAKO 232310Z AUTO 00000KT 10SM CLR 07/M08 A2989 4750 33 5000 000/00 RMK AO2 T00721078                                                              
24015KAKO AKO20191223161511012/23/19 16:15:31  5-MIN KAKO 232315Z AUTO 00000KT 10SM CLR 05/M08 A2989 4750 37 4700 000/00 RMK AO2 T00501083                                                              
24015KAKO AKO20191223162011012/23/19 16:20:31  5-MIN KAKO 232320Z AUTO 00000KT 10SM CLR 04/M08 A2989 4750 40 4600 000/00 RMK AO2 T00391083                                                              
24015KAKO AKO20191223162511012/23/19 16:25:31  5-MIN KAKO 232325Z AUTO 00000KT 10SM CLR 04/M08 A2989 4750 39 4700 000/00 RMK AO2 T00441083                                                              
24015KAKO AKO20191223163011012/23/19 16:30:31  5-MIN KAKO 232330Z AUTO 00000KT 10SM CLR 07/M08 A2989 4750 35 4900 000/00 RMK AO2 T00671078                                                              
24015KAKO AKO20191223163511012/23/19 16:35:31  5-MIN KAKO 232335Z AUTO 00000KT 10SM CLR 06/M08 A2989 4750 36 4800 000/00 RMK AO2 T00561083                                                              
24015KAKO AKO20191223164011012/23/19 16:40:31  5-MIN KAKO 232340Z AUTO 00000KT 10SM CLR 04/M08 A2989 4750 39 4700 000/00 RMK AO2 T00441083                                                              
24015KAKO AKO20191223170011012/23/19 17:00:31  5-MIN KAKO 240000Z AUTO 00000KT 10SM CLR 04/M08 A2989 4750 39 4700 000/00 RMK AO2 T00441083                                                              
24015KAKO AKO20191223170511012/23/19 17:05:31  5-MIN KAKO 240005Z AUTO 00000KT 10SM CLR 05/M08 A2989 4750 37 4700 000/00 RMK AO2 T00501083                                                              
24015KAKO AKO20191223171011012/23/19 17:10:31  5-MIN KAKO 240010Z AUTO 00000KT 10SM CLR 05/M08 A2988 4750 37 4700 000/00 RMK AO2 T00501083                                                              
24015KAKO AKO20191223173011012/23/19 17:30:31  5-MIN KAKO 240030Z AUTO 00000KT 10SM CLR 04/M08 A2989 4750 39 4700 000/00 RMK AO2 T00441083                                                              
24015KAKO AKO20191223174011012/23/19 17:40:31  5-MIN KAKO 240040Z AUTO 00000KT 10SM CLR 06/M08 A2988 4750 36 4800 000/00 RMK AO2 T00561083                                                              
24015KAKO AKO20191223174511012/23/19 17:45:31  5-MIN KAKO 240045Z AUTO 00000KT 10SM CLR 06/M08 A2988 4750 36 4800 000/00 RMK AO2 T00561083                                                              
24015KAKO AKO20191223175511012/23/19 17:55:31  5-MIN KAKO 240055Z AUTO 00000KT 10SM CLR 07/M08 A2989 4750 33 4900 000/00 RMK AO2 T00671083                                                              
24015KAKO AKO20191223180011012/23/19 18:00:31  5-MIN KAKO 240100Z AUTO 00000KT 10SM CLR 07/M09 A2989 4750 32 4900 000/00 RMK AO2 T00671089                                                              
24015KAKO AKO20191223182511012/23/19 18:25:31  5-MIN KAKO 240125Z AUTO 00000KT 10SM CLR 03/M08 A2989 4740 44 4400 000/00 RMK AO2 T00281083                                                              
24015KAKO AKO20191223183011012/23/19 18:30:31  5-MIN KAKO 240130Z AUTO 00000KT 10SM CLR 03/M08 A2990 4740 42 4500 000/00 RMK AO2 T00331083                                                              
24015KAKO AKO20191223183511012/23/19 18:35:31  5-MIN KAKO 240135Z AUTO 00000KT 10SM CLR 03/M08 A2990 4740 44 4400 000/00 RMK AO2 T00281083                                                              
24015KAKO AKO20191223184011012/23/19 18:40:31  5-MIN KAKO 240140Z AUTO 00000KT 10SM CLR 03/M08 A2990 4740 42 4500 000/00 RMK AO2 T00331083                                                              
24015KAKO AKO20191223184511012/23/19 18:45:31  5-MIN KAKO 240145Z AUTO 00000KT 10SM CLR 04/M08 A2990 4740 39 4600 000/00 RMK AO2 T00441083                                                              
24015KAKO AKO20191223210511012/23/19 21:05:31  5-MIN KAKO 240405Z AUTO 00000KT 10SM CLR 05/M09 A2987 4760 36 4700 000/00 RMK AO2 T00501089                                                              
24015KAKO AKO20191223211011012/23/19 21:10:31  5-MIN KAKO 240410Z AUTO 00000KT 10SM CLR 03/M08 A2987 4770 42 4500 000/00 RMK AO2 T00331083                                                              
24015KAKO AKO20191223231511012/23/19 23:15:31  5-MIN KAKO 240615Z AUTO 00000KT 10SM CLR 06/M09 A2984 4800 34 4800 000/00 RMK AO2 T00561089                                                              
24015KAKO AKO20191224165511012/24/19 16:55:31  5-MIN KAKO 242355Z AUTO 00000KT 10SM CLR 03/M09 A2973 4900 40 4700 000/00 RMK AO2 T00331089                                                              
24015KAKO AKO20191224170011012/24/19 17:00:31  5-MIN KAKO 250000Z AUTO 00000KT 10SM CLR 03/M09 A2973 4900 40 4600 000/00 RMK AO2 T00281094                                                              
24015KAKO AKO20191224170511012/24/19 17:05:31  5-MIN KAKO 250005Z AUTO 00000KT 10SM CLR 03/M09 A2973 4900 40 4600 000/00 RMK AO2 T00281094                                                              
24015KAKO AKO20191224171011012/24/19 17:10:31  5-MIN KAKO 250010Z AUTO 00000KT 10SM CLR 03/M09 A2972 4900 40 4700 000/00 RMK AO2 T00331089                                                              
24015KAKO AKO20191224181011012/24/19 18:10:31  5-MIN KAKO 250110Z AUTO 00000KT 10SM CLR 03/M09 A2971 4910 40 4700 000/00 RMK AO2 T00281094                                                              
24015KAKO AKO20191225004511312/25/19 00:45:31  5-MIN KAKO 250745Z AUTO 00000KT 10SM BKN110 03/M08 A2961 5010 44 4800 000/00 RMK AO2 T00331078                                                           
24015KAKO AKO20191225005511312/25/19 00:55:31  5-MIN KAKO 250755Z AUTO 00000KT 10SM OVC100 04/M08 A2960 5010 40 4900 000/00 RMK AO2 T00391083                                                           
24015KAKO AKO20191225010011312/25/19 01:00:31  5-MIN KAKO 250800Z AUTO 00000KT 10SM OVC100 03/M08 A2961 5010 42 4800 000/00 RMK AO2 T00331083                                                           
24015KAKO AKO20191225010511312/25/19 01:05:31  5-MIN KAKO 250805Z AUTO 00000KT 10SM OVC100 04/M08 A2960 5010 40 4900 000/00 RMK AO2 T00391083                                                           
24015KAKO AKO20191225011011312/25/19 01:10:31  5-MIN KAKO 250810Z AUTO 00000KT 10SM OVC100 04/M08 A2960 5020 40 4900 000/00 RMK AO2 T00391083                                                           
24015KAKO AKO20191225011511312/25/19 01:15:31  5-MIN KAKO 250815Z AUTO 00000KT 10SM OVC100 02/M08 A2960 5020 45 4700 000/00 RMK AO2 T00221083                                                           
24015KAKO AKO20191225012011312/25/19 01:20:31  5-MIN KAKO 250820Z AUTO 00000KT 10SM OVC100 02/M08 A2960 5020 47 4700 000/00 RMK AO2 T00221078                                                           
24015KAKO AKO20191225012511312/25/19 01:25:31  5-MIN KAKO 250825Z AUTO 00000KT 10SM OVC100 03/M08 A2959 5020 44 4800 000/00 RMK AO2 T00281083                                                           
24015KAKO AKO20191225033011312/25/19 03:30:31  5-MIN KAKO 251030Z AUTO 00000KT 10SM OVC090 02/M08 A2958 5040 47 4700 000/00 RMK AO2 T00171083                                                           
24015KAKO AKO20191225033512012/25/19 03:35:31  5-MIN KAKO 251035Z AUTO 00000KT 10SM OVC090 03/M08 A2959 5030 44 4800 000/00 RMK AO2 PRESRR T00281083                                                    
24015KAKO AKO20191225034011312/25/19 03:40:31  5-MIN KAKO 251040Z AUTO 00000KT 10SM OVC090 03/M09 A2959 5020 40 4900 000/00 RMK AO2 T00331089                                                           
24015KAKO AKO20191225034511312/25/19 03:45:31  5-MIN KAKO 251045Z AUTO 00000KT 10SM OVC090 02/M09 A2959 5020 44 4700 000/00 RMK AO2 T00221089                                                           
24015KAKO AKO20191225035511312/25/19 03:55:31  5-MIN KAKO 251055Z AUTO 00000KT 10SM OVC090 02/M08 A2960 5010 47 4600 000/00 RMK AO2 T00171083                                                           
24015KAKO AKO20191225040011312/25/19 04:00:31  5-MIN KAKO 251100Z AUTO 00000KT 10SM OVC090 02/M09 A2960 5010 44 4700 000/00 RMK AO2 T00221089                                                           
24015KAKO AKO20191225041511312/25/19 04:15:31  5-MIN KAKO 251115Z AUTO 00000KT 10SM OVC090 01/M08 A2959 5020 49 4600 000/00 RMK AO2 T00111083                                                           
24015KAKO AKO20191225154511312/25/19 15:45:31  5-MIN KAKO 252245Z AUTO 00000KT 10SM BKN120 08/M06 A2966 4960 36 5300 000/00 RMK AO2 T00781061                                                           
24015KAKO AKO20191225155012012/25/19 15:50:31  5-MIN KAKO 252250Z AUTO 00000KT 10SM BKN120 08/M06 A2967 4950 36 5300 000/00 RMK AO2 SLP046 T00781061                                                    
24015KAKO AKO20191225155511312/25/19 15:55:31  5-MIN KAKO 252255Z AUTO 00000KT 10SM BKN110 08/M06 A2967 4950 36 5300 000/00 RMK AO2 T00781061                                                           
24015KAKO AKO20191225160011312/25/19 16:00:31  5-MIN KAKO 252300Z AUTO 00000KT 10SM OVC110 08/M06 A2967 4950 36 5300 000/00 RMK AO2 T00781061                                                           
24015KAKO AKO20191225160511312/25/19 16:05:31  5-MIN KAKO 252305Z AUTO 00000KT 10SM OVC110 08/M06 A2968 4940 36 5300 000/00 RMK AO2 T00781061                                                           
24015KAKO AKO20191225161011312/25/19 16:10:31  5-MIN KAKO 252310Z AUTO 00000KT 10SM OVC110 08/M06 A2968 4940 36 5300 000/00 RMK AO2 T00781061                                                           
24015KAKO AKO20191225161511312/25/19 16:15:31  5-MIN KAKO 252315Z AUTO 00000KT 10SM OVC110 07/M06 A2968 4940 38 5200 000/00 RMK AO2 T00721061                                                           
24015KAKO AKO20191225165512012/25/19 16:55:31  5-MIN KAKO 252355Z AUTO 00000KT 10SM SCT075 OVC090 06/M06 A2971 4910 43 5000 000/00 RMK AO2 T00561061                                                    
24015KAKO AKO20191225170012012/25/19 17:00:31  5-MIN KAKO 260000Z AUTO 00000KT 10SM BKN070 OVC085 06/M07 A2972 4910 39 5000 000/00 RMK AO2 T00611067                                                    
24015KAKO AKO20191225170512012/25/19 17:05:31  5-MIN KAKO 260005Z AUTO 00000KT 10SM BKN070 OVC085 06/M07 A2972 4900 41 5000 000/00 RMK AO2 T00561067                                                    
24015KAKO AKO20191225171012712/25/19 17:10:31  5-MIN KAKO 260010Z AUTO 00000KT 10SM FEW050 BKN060 OVC075 04/M07 A2972 4900 44 4800 000/00 RMK AO2 T00441067                                             
24015KAKO AKO20191225171512712/25/19 17:15:31  5-MIN KAKO 260015Z AUTO 00000KT 10SM FEW050 BKN060 OVC080 04/M07 A2973 4900 44 4800 000/00 RMK AO2 T00441067                                             
24015KAKO AKO20191225172012712/25/19 17:20:31  5-MIN KAKO 260020Z AUTO 00000KT 10SM FEW048 BKN060 OVC075 04/M07 A2973 4900 44 4800 000/00 RMK AO2 T00441067                                             
24015KAKO AKO20191225172512012/25/19 17:25:31  5-MIN KAKO 260025Z AUTO 00000KT 10SM FEW048 OVC060 04/M07 A2972 4900 44 4800 000/00 RMK AO2 T00441067                                                    
24015KAKO AKO20191225210512212/25/19 21:05:31  5-MIN KAKO 260405Z AUTO 00000KT 10SM -RA OVC034 03/00 A2984 4800 79 4600 000/00 RMK AO2 P0000 T00330000                                                  
24015KAKO AKO20191225211512412/25/19 21:15:31  5-MIN KAKO 260415Z AUTO 00000KT 10SM OVC038 03/00 A2984 4790 79 4600 000/00 RMK AO2 RAE14 P0000 T00330000                                                
24015KAKO AKO20191225212512512/25/19 21:25:31  5-MIN KAKO 260425Z AUTO 00000KT 10SM OVC044 03/M01 A2984 4790 76 4600 000/00 RMK AO2 RAE14 P0000 T00331006                                               
24015KAKO AKO20191225213512512/25/19 21:35:31  5-MIN KAKO 260435Z AUTO 00000KT 10SM OVC046 03/M01 A2985 4790 76 4600 000/00 RMK AO2 RAE14 P0000 T00331006                                               
24015KAKO AKO20191225214013212/25/19 21:40:31  5-MIN KAKO 260440Z AUTO 00000KT 10SM BKN048 OVC065 02/M01 A2985 4790 82 4400 000/00 RMK AO2 RAE14 P0000 T00221006                                        
24015KAKO AKO20191225215513012/25/19 21:55:31  5-MIN KAKO 260455Z AUTO 00000KT 10SM -RA BKN041 OVC070 02/M01 A2985 4780 85 4400 000/00 RMK AO2 P0000 T00171006                                          
24015KAKO AKO20191225220013712/25/19 22:00:31  5-MIN KAKO 260500Z AUTO 00000KT 10SM -RA BKN043 BKN065 OVC080 02/M01 A2985 4780 82 4400 000/00 RMK AO2 P0000 T00221006                                   
24015KAKO AKO20191225220513912/25/19 22:05:31  5-MIN KAKO 260505Z AUTO 00000KT 10SM SCT045 BKN075 OVC095 02/M01 A2985 4780 85 4400 000/00 RMK AO2 RAE04 P0000 T00171006                                 
24015KAKO AKO20191225221013912/25/19 22:10:31  5-MIN KAKO 260510Z AUTO 00000KT 10SM SCT042 BKN080 OVC095 02/M01 A2985 4790 85 4400 000/00 RMK AO2 RAE04 P0000 T00171006                                 
24015KAKO AKO20191225221513912/25/19 22:15:31  5-MIN KAKO 260515Z AUTO 00000KT 10SM FEW032 SCT080 OVC095 02/M01 A2985 4790 82 4400 000/00 RMK AO2 RAE04 P0000 T00221006                                 
24015KAKO AKO20191225222013912/25/19 22:20:31  5-MIN KAKO 260520Z AUTO 00000KT 10SM FEW032 FEW080 OVC095 02/M01 A2985 4780 82 4400 000/00 RMK AO2 RAE04 P0000 T00221006                                 
24015KAKO AKO20191225222513212/25/19 22:25:31  5-MIN KAKO 260525Z AUTO 00000KT 10SM FEW080 OVC095 02/M01 A2985 4790 82 4400 000/00 RMK AO2 RAE04 P0000 T00221006                                        
24015KAKO AKO20191225223013212/25/19 22:30:31  5-MIN KAKO 260530Z AUTO 00000KT 10SM FEW080 OVC095 02/M01 A2984 4790 78 4400 000/00 RMK AO2 RAE04 P0000 T00221011                                        
24015KAKO AKO20191225225016312/25/19 22:50:31  5-MIN KAKO 260550Z AUTO 00000KT 10SM BKN075 OVC090 01/M02 A2984 4790 82 4200 000/00 RMK AO2 RAE04 SLP112 P0000 60000 T00061022 10061 20006 53031         
24015KAKO AKO20191225225511312/25/19 22:55:31  5-MIN KAKO 260555Z AUTO 00000KT 10SM OVC075 01/M02 A2985 4790 82 4200 000/00 RMK AO2 T00061022                                                           
24015KAKO AKO20191225230011312/25/19 23:00:31  5-MIN KAKO 260600Z AUTO 00000KT 10SM OVC075 00/M02 A2985 4790 85 4200 000/00 RMK AO2 T00001022                                                           
24015KAKO AKO20191225230511412/25/19 23:05:31  5-MIN KAKO 260605Z AUTO 00000KT 10SM OVC075 M01/M03 A2985 4780 88 4000 000/00 RMK AO2 T10111028                                                          
24015KAKO AKO20191226000011412/26/19 00:00:31  5-MIN KAKO 260700Z AUTO 00000KT 10SM SCT075 M01/M04 A2984 4790 81 4000 000/00 RMK AO2 T10111039                                                          
24015KAKO AKO20191226000511412/26/19 00:05:31  5-MIN KAKO 260705Z AUTO 00000KT 10SM SCT075 M01/M04 A2984 4790 78 4100 000/00 RMK AO2 T10061039                                                          
24015KAKO AKO20191226001011412/26/19 00:10:31  5-MIN KAKO 260710Z AUTO 00000KT 10SM FEW070 M01/M03 A2983 4800 81 4100 000/00 RMK AO2 T10061033                                                          
24015KAKO AKO20191226001511012/26/19 00:15:31  5-MIN KAKO 260715Z AUTO 00000KT 10SM CLR 00/M03 A2983 4800 78 4200 000/00 RMK AO2 T00001033                                                              
24015KAKO AKO20191226002011012/26/19 00:20:31  5-MIN KAKO 260720Z AUTO 00000KT 10SM CLR 00/M03 A2983 4800 78 4200 000/00 RMK AO2 T00001033                                                              
24015KAKO AKO20191226002511012/26/19 00:25:31  5-MIN KAKO 260725Z AUTO 00000KT 10SM CLR 00/M04 A2983 4800 75 4200 000/00 RMK AO2 T00001039                                                              
24015KAKO AKO20191226003011012/26/19 00:30:31  5-MIN KAKO 260730Z AUTO 00000KT 10SM CLR 01/M04 A2983 4800 72 4200 000/00 RMK AO2 T00061039                                                              
24015KAKO AKO20191226003511112/26/19 00:35:31  5-MIN KAKO 260735Z AUTO 00000KT 10SM CLR M01/M04 A2983 4800 78 4000 000/00 RMK AO2 T10111044                                                             
24015KAKO AKO20191226004511112/26/19 00:45:31  5-MIN KAKO 260745Z AUTO 00000KT 10SM CLR M01/M04 A2983 4800 81 4000 000/00 RMK AO2 T10111039                                                             
24015KAKO AKO20191226005011812/26/19 00:50:31  5-MIN KAKO 260750Z AUTO 00000KT 10SM CLR M03/M04 A2983 4800 88 3800 000/00 RMK AO2 SLP110 T10281044                                                      
24015KAKO AKO20191226005511112/26/19 00:55:31  5-MIN KAKO 260755Z AUTO 00000KT 10SM CLR M03/M06 A2983 4800 85 3800 000/00 RMK AO2 T10331056                                                             
24015KAKO AKO20191226010011112/26/19 01:00:31  5-MIN KAKO 260800Z AUTO 00000KT 10SM CLR M04/M06 A2983 4800 88 3600 000/00 RMK AO2 T10441061                                                             
24015KAKO AKO20191226041511512/26/19 04:15:31  5-MIN KAKO 261115Z AUTO VRB04KT 1SM BR VV001 M04/M06 A2992 4720 88 3500 VRB/04 RMK AO2 T10441061                                                         
24015KAKO AKO20191226071011412/26/19 07:10:31  5-MIN KAKO 261410Z AUTO 00000KT 10SM OVC009 M01/M02 A2997 4680 92 3900 000/00 RMK AO2 T10111022                                                          
24015KAKO AKO20191226071511412/26/19 07:15:31  5-MIN KAKO 261415Z AUTO 00000KT 10SM OVC009 M01/M02 A2997 4680 92 3900 000/00 RMK AO2 T10111022                                                          
24015KAKO AKO20191226072011412/26/19 07:20:31  5-MIN KAKO 261420Z AUTO 00000KT 10SM OVC010 M01/M02 A2997 4680 92 3900 000/00 RMK AO2 T10111022                                                          
24015KAKO AKO20191226072511412/26/19 07:25:31  5-MIN KAKO 261425Z AUTO 00000KT 10SM OVC010 M01/M02 A2997 4670 92 3900 000/00 RMK AO2 T10111022                                                          
24015KAKO AKO20191226073011412/26/19 07:30:31  5-MIN KAKO 261430Z AUTO 00000KT 10SM OVC010 M01/M02 A2997 4670 92 3900 000/00 RMK AO2 T10111022                                                          
24015KAKO AKO20191226073511412/26/19 07:35:31  5-MIN KAKO 261435Z AUTO 00000KT 10SM OVC010 M01/M02 A2998 4670 96 3900 000/00 RMK AO2 T10111017                                                          
24015KAKO AKO20191226074011312/26/19 07:40:31  5-MIN KAKO 261440Z AUTO 00000KT 9SM OVC011 M01/M02 A2998 4670 96 3900 000/00 RMK AO2 T10111017                                                           
24015KAKO AKO20191226074511312/26/19 07:45:31  5-MIN KAKO 261445Z AUTO 00000KT 9SM OVC011 M01/M02 A2998 4670 96 3900 000/00 RMK AO2 T10111017                                                           
24015KAKO AKO20191226075511412/26/19 07:55:31  5-MIN KAKO 261455Z AUTO 00000KT 10SM OVC012 M01/M02 A2999 4660 92 3900 000/00 RMK AO2 T10061017                                                          
24015KAKO AKO20191226080011412/26/19 08:00:31  5-MIN KAKO 261500Z AUTO 00000KT 10SM OVC013 M01/M02 A2999 4660 92 3900 000/00 RMK AO2 T10061017                                                          
24015KAKO AKO20191226080511412/26/19 08:05:31  5-MIN KAKO 261505Z AUTO 00000KT 10SM OVC013 M01/M02 A2999 4660 92 3900 000/00 RMK AO2 T10061017                                                          
24015KAKO AKO20191226081011412/26/19 08:10:31  5-MIN KAKO 261510Z AUTO 00000KT 10SM OVC013 M01/M01 A2999 4650 96 3900 000/00 RMK AO2 T10061011                                                          
24015KAKO AKO20191226081511412/26/19 08:15:31  5-MIN KAKO 261515Z AUTO 00000KT 10SM OVC014 M01/M01 A3000 4650 96 3900 000/00 RMK AO2 T10061011                                                          
24015KAKO AKO20191226102511312/26/19 10:25:31  5-MIN KAKO 261725Z AUTO 00000KT 10SM OVC014 02/M01 A3005 4600 82 4200 000/00 RMK AO2 T00221006                                                           
24015KAKO AKO20191226105511312/26/19 10:55:31  5-MIN KAKO 261755Z AUTO VRB03KT 10SM OVC013 02/M01 A3004 4610 85 4100 VRB/03 RMK AO2 T00171006                                                           
24015KAKO AKO20191226110011312/26/19 11:00:31  5-MIN KAKO 261800Z AUTO 00000KT 10SM OVC013 02/M01 A3004 4610 82 4200 000/00 RMK AO2 T00221006                                                           
24015KAKO AKO20191226110511312/26/19 11:05:31  5-MIN KAKO 261805Z AUTO 00000KT 10SM OVC012 02/M01 A3004 4610 82 4200 000/00 RMK AO2 T00221006                                                           
24015KAKO AKO20191226111011312/26/19 11:10:31  5-MIN KAKO 261810Z AUTO 00000KT 10SM OVC012 02/M01 A3003 4610 82 4200 000/00 RMK AO2 T00221006                                                           
24015KAKO AKO20191226112011312/26/19 11:20:31  5-MIN KAKO 261820Z AUTO 00000KT 10SM OVC012 02/M01 A3003 4610 82 4200 000/00 RMK AO2 T00221006                                                           
24015KAKO AKO20191226113011312/26/19 11:30:31  5-MIN KAKO 261830Z AUTO 00000KT 10SM OVC014 02/M01 A3003 4620 82 4200 000/00 RMK AO2 T00221006                                                           
24015KAKO AKO20191226113511312/26/19 11:35:31  5-MIN KAKO 261835Z AUTO 00000KT 10SM OVC014 02/M01 A3003 4620 82 4200 000/00 RMK AO2 T00221006                                                           
24015KAKO AKO20191226114011312/26/19 11:40:31  5-MIN KAKO 261840Z AUTO 00000KT 10SM OVC014 02/M01 A3003 4620 82 4200 000/00 RMK AO2 T00221006                                                           
24015KAKO AKO20191226114511312/26/19 11:45:31  5-MIN KAKO 261845Z AUTO 00000KT 10SM OVC014 02/M01 A3003 4620 85 4200 000/00 RMK AO2 T00171006                                                           
24015KAKO AKO20191226115012012/26/19 11:50:31  5-MIN KAKO 261850Z AUTO 00000KT 10SM OVC014 02/M01 A3003 4620 82 4200 000/00 RMK AO2 SLP188 T00221006                                                    
24015KAKO AKO20191226121011312/26/19 12:10:31  5-MIN KAKO 261910Z AUTO 00000KT 10SM OVC014 02/M01 A3002 4630 82 4200 000/00 RMK AO2 T00221006                                                           
24015KAKO AKO20191226122011312/26/19 12:20:31  5-MIN KAKO 261920Z AUTO 00000KT 10SM OVC014 02/M01 A3002 4630 82 4200 000/00 RMK AO2 T00221006                                                           
24015KAKO AKO20191226122511312/26/19 12:25:31  5-MIN KAKO 261925Z AUTO 00000KT 10SM OVC013 02/M01 A3002 4630 82 4200 000/00 RMK AO2 T00221006                                                           
24015KAKO AKO20191226123011312/26/19 12:30:31  5-MIN KAKO 261930Z AUTO 00000KT 10SM OVC013 02/M01 A3002 4630 82 4200 000/00 RMK AO2 T00221006                                                           
24015KAKO AKO20191226123511312/26/19 12:35:31  5-MIN KAKO 261935Z AUTO VRB03KT 10SM OVC013 02/M01 A3002 4620 82 4200 VRB/03 RMK AO2 T00221006                                                           
24015KAKO AKO20191226124011312/26/19 12:40:31  5-MIN KAKO 261940Z AUTO 00000KT 10SM OVC013 02/M01 A3003 4620 82 4200 000/00 RMK AO2 T00221006                                                           
24015KAKO AKO20191226124511312/26/19 12:45:31  5-MIN KAKO 261945Z AUTO 00000KT 10SM OVC013 02/M01 A3002 4620 78 4200 000/00 RMK AO2 T00221011                                                           
24015KAKO AKO20191226125012012/26/19 12:50:31  5-MIN KAKO 261950Z AUTO 00000KT 10SM OVC014 02/M01 A3002 4620 82 4200 000/00 RMK AO2 SLP189 T00221006                                                    
24015KAKO AKO20191226125511312/26/19 12:55:31  5-MIN KAKO 261955Z AUTO 00000KT 10SM OVC014 02/M01 A3003 4620 82 4200 000/00 RMK AO2 T00221006                                                           
24015KAKO AKO20191226130011312/26/19 13:00:31  5-MIN KAKO 262000Z AUTO 00000KT 10SM OVC015 02/M01 A3002 4620 82 4200 000/00 RMK AO2 T00221006                                                           
24015KAKO AKO20191226130511312/26/19 13:05:31  5-MIN KAKO 262005Z AUTO 00000KT 10SM OVC015 02/M01 A3002 4620 82 4200 000/00 RMK AO2 T00221006                                                           
24015KAKO AKO20191226131011312/26/19 13:10:31  5-MIN KAKO 262010Z AUTO 00000KT 10SM OVC015 02/M01 A3002 4620 82 4200 000/00 RMK AO2 T00221006                                                           
24015KAKO AKO20191226132512012/26/19 13:25:31  5-MIN KAKO 262025Z AUTO VRB03KT 10SM SCT016 OVC028 03/M01 A3002 4630 79 4300 VRB/03 RMK AO2 T00281006                                                    
24015KAKO AKO20191226135511312/26/19 13:55:31  5-MIN KAKO 262055Z AUTO 00000KT 10SM OVC030 03/M01 A3002 4620 79 4300 000/00 RMK AO2 T00281006                                                           
24015KAKO AKO20191226140011312/26/19 14:00:31  5-MIN KAKO 262100Z AUTO 00000KT 10SM OVC030 03/M01 A3002 4630 79 4300 000/00 RMK AO2 T00281006                                                           
24015KAKO AKO20191226140511312/26/19 14:05:31  5-MIN KAKO 262105Z AUTO 00000KT 10SM OVC030 03/M01 A3002 4620 79 4300 000/00 RMK AO2 T00281006                                                           
24015KAKO AKO20191226141011312/26/19 14:10:31  5-MIN KAKO 262110Z AUTO 00000KT 10SM BKN030 03/M01 A3002 4620 79 4300 000/00 RMK AO2 T00281006                                                           
24015KAKO AKO20191226142011312/26/19 14:20:31  5-MIN KAKO 262120Z AUTO 00000KT 10SM BKN030 03/M01 A3003 4620 79 4300 000/00 RMK AO2 T00281006                                                           
24015KAKO AKO20191226144011312/26/19 14:40:31  5-MIN KAKO 262140Z AUTO 00000KT 10SM FEW030 03/M01 A3003 4620 72 4400 000/00 RMK AO2 T00331011                                                           
24015KAKO AKO20191226152011312/26/19 15:20:31  5-MIN KAKO 262220Z AUTO VRB05KT 10SM BKN019 04/M01 A3003 4620 73 4400 VRB/05 RMK AO2 T00391006                                                           
24015KAKO AKO20191227075014112/27/19 07:50:31  5-MIN KAKO 271450Z AUTO 00000KT 3SM BR FEW055 M05/M06 A3001 4630 92 3400 000/00 RMK AO2 SLP205 I1001 I3/// T10501061 56008                               
24015KAKO AKO20191227075511612/27/19 07:55:31  5-MIN KAKO 271455Z AUTO 00000KT 4SM BR FEW055 M07/M07 A3001 4630 96 3100 000/00 RMK AO2 T10671072                                                        
24015KAKO AKO20191227080011612/27/19 08:00:31  5-MIN KAKO 271500Z AUTO 00000KT 4SM BR FEW055 M06/M07 A3001 4630 92 3200 000/00 RMK AO2 T10611072                                                        
24015KAKO AKO20191227080511312/27/19 08:05:31  5-MIN KAKO 271505Z AUTO 00000KT 3SM BR CLR M07/M07 A3001 4630 96 3100 000/00 RMK AO2 T10671072                                                           
24015KAKO AKO20191227082011712/27/19 08:20:31  5-MIN KAKO 271520Z AUTO 00000KT 1 1/2SM BR CLR M06/M06 A3001 4640 96 3300 000/00 RMK AO2 T10561061                                                       
24015KAKO AKO20191227082511312/27/19 08:25:31  5-MIN KAKO 271525Z AUTO 00000KT 2SM BR CLR M06/M07 A3001 4640 92 3300 000/00 RMK AO2 T10561067                                                           
